{
"type": "FeatureCollection",
"name": "dams",
"crs": { "type": "name", "properties": { "name": "urn:ogc:def:crs:OGC:1.3:CRS84" } },
"xy_coordinate_resolution": 1e-05,
"features": [
{ "type": "Feature", "properties": { "key": "guineo", "name": "Lago El Guineo Dam" }, "geometry": { "type": "Point", "coordinates": [ -66.52486, 18.16106 ] } },
{ "type": "Feature", "properties": { "key": "matrullas", "name": "Lago de Matrullas Dam" }, "geometry": { "type": "Point", "coordinates": [ -66.48097, 18.21218 ] } },
{ "type": "Feature", "properties": { "key": "guayabal", "name": "Lago Guayabal Dam" }, "geometry": { "type": "Point", "coordinates": [ -66.5044, 18.10005 ] } },
{ "type": "Feature", "properties": { "key": "guayo", "name": "Lago Guayo Dam" }, "geometry": { "type": "Point", "coordinates": [ -66.83412, 18.21236 ] } },
{ "type": "Feature", "properties": { "key": "loco", "name": "Lago Loco Dam" }, "geometry": { "type": "Point", "coordinates": [ -66.88255, 18.04718 ] } },
{ "type": "Feature", "properties": { "key": "lucchetti", "name": "Lago Lucchetti Dam" }, "geometry": { "type": "Point", "coordinates": [ -66.86551, 18.08995 ] } }
]
}
