{
"type": "FeatureCollection",
"name": "gauges_streamflow",
"crs": { "type": "name", "properties": { "name": "urn:ogc:def:crs:OGC:1.3:CRS84" } },
"xy_coordinate_resolution": 1e-05,
"features": [
{ "type": "Feature", "properties": { "site_no": "180455066301701", "station": "CANAL DE JUANA DIAZ AT LAGO GUAYABAL, PR", "begin": "2022-04-06", "end": "2026-08-19", "active": true, "drain_area_va": null, "network": "USGS NWIS", "url": "https://waterdata.usgs.gov/monitoring-location/180455066301701" }, "geometry": { "type": "Point", "coordinates": [ -66.50464, 18.08206 ] } },
{ "type": "Feature", "properties": { "site_no": "181023066095700", "station": "CIDRA SITE, CIDRA, PR", "begin": "1988-01-15", "end": "1988-01-25", "active": false, "drain_area_va": null, "network": "USGS NWIS", "url": "https://waterdata.usgs.gov/monitoring-location/181023066095700" }, "geometry": { "type": "Point", "coordinates": [ -66.16544, 18.17107 ] } },
{ "type": "Feature", "properties": { "site_no": "182435066414500", "station": "SAN PEDRO SPRING, ARECIBO, PR", "begin": "1993-04-15", "end": "1995-09-30", "active": false, "drain_area_va": null, "network": "USGS NWIS", "url": "https://waterdata.usgs.gov/monitoring-location/182435066414500" }, "geometry": { "type": "Point", "coordinates": [ -66.69545, 18.40773 ] } },
{ "type": "Feature", "properties": { "site_no": "182541066313500", "station": "OJO DE GUILLO SPRING, MANATI, PR", "begin": "1993-06-02", "end": "1996-02-05", "active": false, "drain_area_va": null, "network": "USGS NWIS", "url": "https://waterdata.usgs.gov/monitoring-location/182541066313500" }, "geometry": { "type": "Point", "coordinates": [ -66.52601, 18.42606 ] } },
{ "type": "Feature", "properties": { "site_no": "182657066250600", "station": "OJO DE AGUA SPRING, VEGA BAJA, PR", "begin": "1993-03-23", "end": "1996-02-01", "active": false, "drain_area_va": null, "network": "USGS NWIS", "url": "https://waterdata.usgs.gov/monitoring-location/182657066250600" }, "geometry": { "type": "Point", "coordinates": [ -66.39986, 18.44967 ] } },
{ "type": "Feature", "properties": { "site_no": "182743067004200", "station": "CANAL PRINCIPAL DIVERSION BLW FOREBAY, ISABELA, PR", "begin": "2016-10-01", "end": "2026-08-19", "active": true, "drain_area_va": null, "network": "USGS NWIS", "url": "https://waterdata.usgs.gov/monitoring-location/182743067004200" }, "geometry": { "type": "Point", "coordinates": [ -67.01168, 18.46204 ] } },
{ "type": "Feature", "properties": { "site_no": "182830067035900", "station": "CANAL PRINCIPAL DIVERSION ABV. LAGO GUERRERO, PR", "begin": "2019-03-13", "end": "2026-08-19", "active": true, "drain_area_va": null, "network": "USGS NWIS", "url": "https://waterdata.usgs.gov/monitoring-location/182830067035900" }, "geometry": { "type": "Point", "coordinates": [ -67.06639, 18.475 ] } },
{ "type": "Feature", "properties": { "site_no": "50010500", "station": "RIO GUAJATACA AT LARES, PR", "begin": "1969-05-20", "end": "2026-08-19", "active": true, "drain_area_va": 3.16, "network": "USGS NWIS", "url": "https://waterdata.usgs.gov/monitoring-location/50010500" }, "geometry": { "type": "Point", "coordinates": [ -66.87386, 18.2992 ] } },
{ "type": "Feature", "properties": { "site_no": "50010600", "station": "RIO GUAJATACA ABV LAGO DE GUAJATACA, PR", "begin": "1984-07-01", "end": "1989-09-30", "active": false, "drain_area_va": null, "network": "USGS NWIS", "url": "https://waterdata.usgs.gov/monitoring-location/50010600" }, "geometry": { "type": "Point", "coordinates": [ -66.91601, 18.33051 ] } },
{ "type": "Feature", "properties": { "site_no": "50011000", "station": "CANAL DE DERIVACION AT LAGO DE GUAJATACA, PR", "begin": "2006-03-16", "end": "2026-08-19", "active": true, "drain_area_va": null, "network": "USGS NWIS", "url": "https://waterdata.usgs.gov/monitoring-location/50011000" }, "geometry": { "type": "Point", "coordinates": [ -66.92751, 18.39952 ] } },
{ "type": "Feature", "properties": { "site_no": "50011080", "station": "CANAL MOCA BLW FOREBAY, PR", "begin": "2004-02-01", "end": "2010-09-30", "active": false, "drain_area_va": null, "network": "USGS NWIS", "url": "https://waterdata.usgs.gov/monitoring-location/50011080" }, "geometry": { "type": "Point", "coordinates": [ -67.01157, 18.45661 ] } },
{ "type": "Feature", "properties": { "site_no": "50011085", "station": "CANAL DE MOCA ABV LAGO REGULADOR (E13) ISABELA, PR", "begin": "2004-02-03", "end": "2026-08-19", "active": true, "drain_area_va": null, "network": "USGS NWIS", "url": "https://waterdata.usgs.gov/monitoring-location/50011085" }, "geometry": { "type": "Point", "coordinates": [ -67.02788, 18.45734 ] } },
{ "type": "Feature", "properties": { "site_no": "50011095", "station": "CANAL MOCA BLW HWY 112, PR", "begin": "2004-02-12", "end": "2010-09-30", "active": false, "drain_area_va": null, "network": "USGS NWIS", "url": "https://waterdata.usgs.gov/monitoring-location/50011095" }, "geometry": { "type": "Point", "coordinates": [ -67.03457, 18.45441 ] } },
{ "type": "Feature", "properties": { "site_no": "50011128", "station": "CANAL MOCA ABV AGUADILLA PLANT, AGUADILLA, PR", "begin": "2016-10-01", "end": "2026-08-19", "active": true, "drain_area_va": null, "network": "USGS NWIS", "url": "https://waterdata.usgs.gov/monitoring-location/50011128" }, "geometry": { "type": "Point", "coordinates": [ -67.13732, 18.44922 ] } },
{ "type": "Feature", "properties": { "site_no": "50011130", "station": "CANAL MOCA (M 216) ABV AGUADILLA PLANT, PR", "begin": "2004-02-04", "end": "2008-04-23", "active": false, "drain_area_va": null, "network": "USGS NWIS", "url": "https://waterdata.usgs.gov/monitoring-location/50011130" }, "geometry": { "type": "Point", "coordinates": [ -67.14018, 18.448 ] } },
{ "type": "Feature", "properties": { "site_no": "50011200", "station": "RIO GUAJATACA BLW LAGO GUAJATACA, PR", "begin": "1969-08-11", "end": "2026-08-19", "active": true, "drain_area_va": null, "network": "USGS NWIS", "url": "https://waterdata.usgs.gov/monitoring-location/50011200" }, "geometry": { "type": "Point", "coordinates": [ -66.92778, 18.40028 ] } },
{ "type": "Feature", "properties": { "site_no": "50011400", "station": "RIO GUAJATACA ABV MOUTH NR QUEBRADILLAS, PR", "begin": "1969-07-25", "end": "1989-09-30", "active": false, "drain_area_va": null, "network": "USGS NWIS", "url": "https://waterdata.usgs.gov/monitoring-location/50011400" }, "geometry": { "type": "Point", "coordinates": [ -66.9624, 18.47328 ] } },
{ "type": "Feature", "properties": { "site_no": "50013000", "station": "RIO CAMUY NR LARES, PR", "begin": "1968-05-23", "end": "1971-06-30", "active": false, "drain_area_va": 7.62, "network": "USGS NWIS", "url": "https://waterdata.usgs.gov/monitoring-location/50013000" }, "geometry": { "type": "Point", "coordinates": [ -66.8249, 18.29495 ] } },
{ "type": "Feature", "properties": { "site_no": "50014000", "station": "RIO CRIMINALES NR LARES, PR", "begin": "1969-06-03", "end": "1971-07-08", "active": false, "drain_area_va": 4.68, "network": "USGS NWIS", "url": "https://waterdata.usgs.gov/monitoring-location/50014000" }, "geometry": { "type": "Point", "coordinates": [ -66.8224, 18.29717 ] } },
{ "type": "Feature", "properties": { "site_no": "50014600", "station": "RIO CAMUY AT TRES PUEBLOS SINKHOLE, LARES PR", "begin": "1990-06-01", "end": "1996-09-30", "active": false, "drain_area_va": null, "network": "USGS NWIS", "url": "https://waterdata.usgs.gov/monitoring-location/50014600" }, "geometry": { "type": "Point", "coordinates": [ -66.82434, 18.34301 ] } },
{ "type": "Feature", "properties": { "site_no": "50014800", "station": "RIO CAMUY NR BAYANEY, PR", "begin": "1984-05-23", "end": "2026-08-19", "active": true, "drain_area_va": null, "network": "USGS NWIS", "url": "https://waterdata.usgs.gov/monitoring-location/50014800" }, "geometry": { "type": "Point", "coordinates": [ -66.81799, 18.39644 ] } },
{ "type": "Feature", "properties": { "site_no": "50015700", "station": "RIO CAMUY NR HATILLO, PR", "begin": "1984-06-19", "end": "1996-09-30", "active": false, "drain_area_va": null, "network": "USGS NWIS", "url": "https://waterdata.usgs.gov/monitoring-location/50015700" }, "geometry": { "type": "Point", "coordinates": [ -66.83184, 18.46022 ] } },
{ "type": "Feature", "properties": { "site_no": "50016000", "station": "RIO CAMUY NR CAMUY, PR", "begin": "1969-05-01", "end": "1973-12-31", "active": false, "drain_area_va": null, "network": "USGS NWIS", "url": "https://waterdata.usgs.gov/monitoring-location/50016000" }, "geometry": { "type": "Point", "coordinates": [ -66.83018, 18.47161 ] } },
{ "type": "Feature", "properties": { "site_no": "50020500", "station": "RIO GRANDE DE ARECIBO NR ADJUNTAS, PR", "begin": "1946-11-01", "end": "2007-01-29", "active": false, "drain_area_va": 18.6, "network": "USGS NWIS", "url": "https://waterdata.usgs.gov/monitoring-location/50020500" }, "geometry": { "type": "Point", "coordinates": [ -66.73667, 18.18167 ] } },
{ "type": "Feature", "properties": { "site_no": "50021000", "station": "RIO PELLEJAS AT CENTRAL PELLEJAS, PR", "begin": "1968-06-17", "end": "1970-09-24", "active": false, "drain_area_va": 5.46, "network": "USGS NWIS", "url": "https://waterdata.usgs.gov/monitoring-location/50021000" }, "geometry": { "type": "Point", "coordinates": [ -66.70406, 18.19996 ] } },
{ "type": "Feature", "properties": { "site_no": "50021030", "station": "RIO PELLEJAS ABV CENTRAL PELLEJAS, PR", "begin": "2000-05-18", "end": "2007-01-31", "active": false, "drain_area_va": 6.87, "network": "USGS NWIS", "url": "https://waterdata.usgs.gov/monitoring-location/50021030" }, "geometry": { "type": "Point", "coordinates": [ -66.70323, 18.20273 ] } },
{ "type": "Feature", "properties": { "site_no": "50021050", "station": "RIO PELLEJAS BLW CENTRAL PELLEJAS, PR", "begin": "1971-08-11", "end": "1974-12-31", "active": false, "drain_area_va": 7.89, "network": "USGS NWIS", "url": "https://waterdata.usgs.gov/monitoring-location/50021050" }, "geometry": { "type": "Point", "coordinates": [ -66.70323, 18.20412 ] } },
{ "type": "Feature", "properties": { "site_no": "50021500", "station": "RIO PELLEJAS NR UTUADO, PR", "begin": "1969-07-30", "end": "1974-12-31", "active": false, "drain_area_va": 10.1, "network": "USGS NWIS", "url": "https://waterdata.usgs.gov/monitoring-location/50021500" }, "geometry": { "type": "Point", "coordinates": [ -66.71517, 18.2294 ] } },
{ "type": "Feature", "properties": { "site_no": "50021700", "station": "RIO GRANDE DE ARECIBO ABV UTUADO, PR", "begin": "1988-12-31", "end": "2026-08-19", "active": true, "drain_area_va": 36.0, "network": "USGS NWIS", "url": "https://waterdata.usgs.gov/monitoring-location/50021700" }, "geometry": { "type": "Point", "coordinates": [ -66.72229, 18.2442 ] } },
{ "type": "Feature", "properties": { "site_no": "50022810", "station": "RIO VIVI BLW HACIENDA EL PROGRESO, PR", "begin": "2000-12-22", "end": "2007-01-30", "active": false, "drain_area_va": 2.99, "network": "USGS NWIS", "url": "https://waterdata.usgs.gov/monitoring-location/50022810" }, "geometry": { "type": "Point", "coordinates": [ -66.67184, 18.18718 ] } },
{ "type": "Feature", "properties": { "site_no": "50023000", "station": "RIO VIVI NR CENTRAL PELLEJAS, PR", "begin": "1969-07-11", "end": "1974-12-31", "active": false, "drain_area_va": 5.66, "network": "USGS NWIS", "url": "https://waterdata.usgs.gov/monitoring-location/50023000" }, "geometry": { "type": "Point", "coordinates": [ -66.67323, 18.21246 ] } },
{ "type": "Feature", "properties": { "site_no": "50024400", "station": "RIO VIVI NR UTUADO, PR", "begin": "2000-09-30", "end": "2003-03-17", "active": false, "drain_area_va": 11.7, "network": "USGS NWIS", "url": "https://waterdata.usgs.gov/monitoring-location/50024400" }, "geometry": { "type": "Point", "coordinates": [ -66.67878, 18.25357 ] } },
{ "type": "Feature", "properties": { "site_no": "50024950", "station": "RIO GRANDE DE ARECIBO BLW UTUADO, PR", "begin": "1996-04-16", "end": "2026-08-19", "active": true, "drain_area_va": 71.7, "network": "USGS NWIS", "url": "https://waterdata.usgs.gov/monitoring-location/50024950" }, "geometry": { "type": "Point", "coordinates": [ -66.7041, 18.30209 ] } },
{ "type": "Feature", "properties": { "site_no": "50025155", "station": "RIO SALIENTE AT COABEY NR JAYUYA, PR", "begin": "1988-12-31", "end": "2026-08-19", "active": true, "drain_area_va": 8.86, "network": "USGS NWIS", "url": "https://waterdata.usgs.gov/monitoring-location/50025155" }, "geometry": { "type": "Point", "coordinates": [ -66.56319, 18.21282 ] } },
{ "type": "Feature", "properties": { "site_no": "50025850", "station": "RIO JAUCA AT PASO PALMA, PR", "begin": "2000-05-18", "end": "2007-01-26", "active": false, "drain_area_va": 6.89, "network": "USGS NWIS", "url": "https://waterdata.usgs.gov/monitoring-location/50025850" }, "geometry": { "type": "Point", "coordinates": [ -66.64517, 18.2119 ] } },
{ "type": "Feature", "properties": { "site_no": "50026025", "station": "RIO CAONILLAS AT PASO PALMA, PR", "begin": "1995-10-01", "end": "2026-08-19", "active": true, "drain_area_va": 37.98, "network": "USGS NWIS", "url": "https://waterdata.usgs.gov/monitoring-location/50026025" }, "geometry": { "type": "Point", "coordinates": [ -66.63709, 18.23142 ] } },
{ "type": "Feature", "properties": { "site_no": "50026100", "station": "RIO CAONILLAS NR UTUADO, PR", "begin": "1943-06-01", "end": "1948-12-31", "active": false, "drain_area_va": 43.9, "network": "USGS NWIS", "url": "https://waterdata.usgs.gov/monitoring-location/50026100" }, "geometry": { "type": "Point", "coordinates": [ -66.65434, 18.25412 ] } },
{ "type": "Feature", "properties": { "site_no": "50026200", "station": "RIO CAONILLAS BLW LAGO CAONILLAS TUNNEL, PR", "begin": "2000-12-13", "end": "2006-09-30", "active": false, "drain_area_va": 50.8, "network": "USGS NWIS", "url": "https://waterdata.usgs.gov/monitoring-location/50026200" }, "geometry": { "type": "Point", "coordinates": [ -66.64295, 18.29717 ] } },
{ "type": "Feature", "properties": { "site_no": "50026400", "station": "RIO YUNES AT HWY 140 NR FLORIDA, PR", "begin": "2000-06-22", "end": "2007-01-25", "active": false, "drain_area_va": 13.99, "network": "USGS NWIS", "url": "https://waterdata.usgs.gov/monitoring-location/50026400" }, "geometry": { "type": "Point", "coordinates": [ -66.58656, 18.32217 ] } },
{ "type": "Feature", "properties": { "site_no": "50027000", "station": "RIO LIMON ABV LAGO DOS BOCAS, PR", "begin": "1999-12-16", "end": "2026-08-19", "active": true, "drain_area_va": 31.5, "network": "USGS NWIS", "url": "https://waterdata.usgs.gov/monitoring-location/50027000" }, "geometry": { "type": "Point", "coordinates": [ -66.62103, 18.32609 ] } },
{ "type": "Feature", "properties": { "site_no": "50027200", "station": "RIO GRANDE DE ARECIBO BLW LAGO DOS BOCAS DAM, PR", "begin": "1969-10-01", "end": "1971-05-24", "active": false, "drain_area_va": 169.0, "network": "USGS NWIS", "url": "https://waterdata.usgs.gov/monitoring-location/50027200" }, "geometry": { "type": "Point", "coordinates": [ -66.6674, 18.33606 ] } },
{ "type": "Feature", "properties": { "site_no": "50027250", "station": "RIO GDE. DE ARECIBO BLW LAGO DOS BOCAS NR FLORIDA", "begin": "2000-05-17", "end": "2002-09-30", "active": false, "drain_area_va": 169.0, "network": "USGS NWIS", "url": "https://waterdata.usgs.gov/monitoring-location/50027250" }, "geometry": { "type": "Point", "coordinates": [ -66.66684, 18.34523 ] } },
{ "type": "Feature", "properties": { "site_no": "50027600", "station": "RIO GRANDE DE ARECIBO NR SAN PEDRO, PR", "begin": "2001-05-16", "end": "2026-08-19", "active": true, "drain_area_va": 173.7, "network": "USGS NWIS", "url": "https://waterdata.usgs.gov/monitoring-location/50027600" }, "geometry": { "type": "Point", "coordinates": [ -66.69156, 18.39882 ] } },
{ "type": "Feature", "properties": { "site_no": "50027750", "station": "RIO GRANDE DE ARECIBO ABV ARECIBO, PR", "begin": "1982-04-29", "end": "2002-09-30", "active": false, "drain_area_va": 175.0, "network": "USGS NWIS", "url": "https://waterdata.usgs.gov/monitoring-location/50027750" }, "geometry": { "type": "Point", "coordinates": [ -66.69906, 18.42078 ] } },
{ "type": "Feature", "properties": { "site_no": "50027850", "station": "RIO TANAMA NR TANAMA, UTUADO, PR", "begin": "2009-02-25", "end": "2011-09-29", "active": false, "drain_area_va": 3.78, "network": "USGS NWIS", "url": "https://waterdata.usgs.gov/monitoring-location/50027850" }, "geometry": { "type": "Point", "coordinates": [ -66.77945, 18.22435 ] } },
{ "type": "Feature", "properties": { "site_no": "50027880", "station": "RIO GUAONICA NEAR UTUADO, UTUADO, PR", "begin": "2009-02-01", "end": "2011-09-29", "active": false, "drain_area_va": 2.52, "network": "USGS NWIS", "url": "https://waterdata.usgs.gov/monitoring-location/50027880" }, "geometry": { "type": "Point", "coordinates": [ -66.7421, 18.24267 ] } },
{ "type": "Feature", "properties": { "site_no": "50028000", "station": "RIO TANAMA NR UTUADO, PR", "begin": "1959-12-01", "end": "2026-08-19", "active": true, "drain_area_va": 18.0, "network": "USGS NWIS", "url": "https://waterdata.usgs.gov/monitoring-location/50028000" }, "geometry": { "type": "Point", "coordinates": [ -66.78301, 18.30072 ] } },
{ "type": "Feature", "properties": { "site_no": "50028400", "station": "RIO TANAMA AT CHARCO HONDO, PR", "begin": "1969-04-09", "end": "2026-08-19", "active": true, "drain_area_va": 22.2, "network": "USGS NWIS", "url": "https://waterdata.usgs.gov/monitoring-location/50028400" }, "geometry": { "type": "Point", "coordinates": [ -66.71471, 18.4141 ] } },
{ "type": "Feature", "properties": { "site_no": "50029000", "station": "RIO GRANDE DE ARECIBO AT CENTRAL CAMBALACHE, PR", "begin": "1969-05-19", "end": "2018-10-23", "active": false, "drain_area_va": 200.0, "network": "USGS NWIS", "url": "https://waterdata.usgs.gov/monitoring-location/50029000" }, "geometry": { "type": "Point", "coordinates": [ -66.70207, 18.45353 ] } },
{ "type": "Feature", "properties": { "site_no": "50030460", "station": "RIO OROCOVIS AT OROCOVIS, PR", "begin": "1981-04-01", "end": "2006-03-07", "active": false, "drain_area_va": 4.59, "network": "USGS NWIS", "url": "https://waterdata.usgs.gov/monitoring-location/50030460" }, "geometry": { "type": "Point", "coordinates": [ -66.39239, 18.22162 ] } },
{ "type": "Feature", "properties": { "site_no": "50031000", "station": "RIO GRANDE DE MANATI AT HWY 155 NR MOROVIS, PR", "begin": "2017-10-05", "end": "2026-08-19", "active": true, "drain_area_va": 53.6, "network": "USGS NWIS", "url": "https://waterdata.usgs.gov/monitoring-location/50031000" }, "geometry": { "type": "Point", "coordinates": [ -66.41, 18.29944 ] } },
{ "type": "Feature", "properties": { "site_no": "50031200", "station": "RIO GRANDE DE MANATI NR MOROVIS, PR", "begin": "1965-01-01", "end": "2017-10-02", "active": false, "drain_area_va": 55.2, "network": "USGS NWIS", "url": "https://waterdata.usgs.gov/monitoring-location/50031200" }, "geometry": { "type": "Point", "coordinates": [ -66.41335, 18.29372 ] } },
{ "type": "Feature", "properties": { "site_no": "50031500", "station": "RIO SANA MUERTO NR OROCOVIS, PR", "begin": "1965-04-01", "end": "1970-10-08", "active": false, "drain_area_va": 3.68, "network": "USGS NWIS", "url": "https://waterdata.usgs.gov/monitoring-location/50031500" }, "geometry": { "type": "Point", "coordinates": [ -66.41267, 18.26857 ] } },
{ "type": "Feature", "properties": { "site_no": "50033500", "station": "RIO BAUTA NR DIVISORIA, PR", "begin": "1949-01-01", "end": "1954-09-29", "active": false, "drain_area_va": 8.6, "network": "USGS NWIS", "url": "https://waterdata.usgs.gov/monitoring-location/50033500" }, "geometry": { "type": "Point", "coordinates": [ -66.44128, 18.19385 ] } },
{ "type": "Feature", "properties": { "site_no": "50034000", "station": "RIO BAUTA NR OROCOVIS, PR", "begin": "1969-02-25", "end": "2026-08-19", "active": true, "drain_area_va": 16.7, "network": "USGS NWIS", "url": "https://waterdata.usgs.gov/monitoring-location/50034000" }, "geometry": { "type": "Point", "coordinates": [ -66.45483, 18.23596 ] } },
{ "type": "Feature", "properties": { "site_no": "50035000", "station": "RIO GRANDE DE MANATI AT CIALES, PR", "begin": "1946-09-01", "end": "2026-08-19", "active": true, "drain_area_va": 134.0, "network": "USGS NWIS", "url": "https://waterdata.usgs.gov/monitoring-location/50035000" }, "geometry": { "type": "Point", "coordinates": [ -66.45995, 18.32443 ] } },
{ "type": "Feature", "properties": { "site_no": "50035200", "station": "RIO GRANDE DE MANATI AT HWY 145 AT CIALES, PR", "begin": "1971-01-01", "end": "1973-06-11", "active": false, "drain_area_va": 132.0, "network": "USGS NWIS", "url": "https://waterdata.usgs.gov/monitoring-location/50035200" }, "geometry": { "type": "Point", "coordinates": [ -66.46323, 18.33551 ] } },
{ "type": "Feature", "properties": { "site_no": "50035950", "station": "RIO CIALITOS AT HWY 649 AT CIALES, PR", "begin": "1969-07-01", "end": "1971-04-15", "active": false, "drain_area_va": 16.6, "network": "USGS NWIS", "url": "https://waterdata.usgs.gov/monitoring-location/50035950" }, "geometry": { "type": "Point", "coordinates": [ -66.47406, 18.33634 ] } },
{ "type": "Feature", "properties": { "site_no": "50037000", "station": "RIO GRANDE DE MANATI NR MANATI, PR", "begin": "2019-06-12", "end": "2026-08-19", "active": true, "drain_area_va": 158.0, "network": "USGS NWIS", "url": "https://waterdata.usgs.gov/monitoring-location/50037000" }, "geometry": { "type": "Point", "coordinates": [ -66.49694, 18.39944 ] } },
{ "type": "Feature", "properties": { "site_no": "50038100", "station": "RIO GRANDE DE MANATI AT HWY 2 NR MANATI, PR", "begin": "1970-01-01", "end": "2025-05-05", "active": true, "drain_area_va": 203.0, "network": "USGS NWIS", "url": "https://waterdata.usgs.gov/monitoring-location/50038100" }, "geometry": { "type": "Point", "coordinates": [ -66.52647, 18.42897 ] } },
{ "type": "Feature", "properties": { "site_no": "50038300", "station": "RIO COROZAL AT COROZAL, PR", "begin": "2018-06-25", "end": "2026-08-19", "active": true, "drain_area_va": 9.4, "network": "USGS NWIS", "url": "https://waterdata.usgs.gov/monitoring-location/50038300" }, "geometry": { "type": "Point", "coordinates": [ -66.32233, 18.34458 ] } },
{ "type": "Feature", "properties": { "site_no": "50038320", "station": "RIO CIBUCO BLW COROZAL, PR", "begin": "1969-05-01", "end": "2017-09-20", "active": false, "drain_area_va": 15.1, "network": "USGS NWIS", "url": "https://waterdata.usgs.gov/monitoring-location/50038320" }, "geometry": { "type": "Point", "coordinates": [ -66.33489, 18.35162 ] } },
{ "type": "Feature", "properties": { "site_no": "50038360", "station": "RIO MAVILLA NR COROZAL, PR", "begin": "1969-04-10", "end": "1970-12-31", "active": false, "drain_area_va": 12.0, "network": "USGS NWIS", "url": "https://waterdata.usgs.gov/monitoring-location/50038360" }, "geometry": { "type": "Point", "coordinates": [ -66.29711, 18.3519 ] } },
{ "type": "Feature", "properties": { "site_no": "50038600", "station": "RIO UNIBON NR MOROVIS, PR", "begin": "1969-04-15", "end": "1970-11-09", "active": false, "drain_area_va": 5.49, "network": "USGS NWIS", "url": "https://waterdata.usgs.gov/monitoring-location/50038600" }, "geometry": { "type": "Point", "coordinates": [ -66.376, 18.33912 ] } },
{ "type": "Feature", "properties": { "site_no": "50039500", "station": "RIO CIBUCO AT VEGA BAJA, PR", "begin": "1973-01-01", "end": "2026-08-19", "active": true, "drain_area_va": 85.2, "network": "USGS NWIS", "url": "https://waterdata.usgs.gov/monitoring-location/50039500" }, "geometry": { "type": "Point", "coordinates": [ -66.37438, 18.44733 ] } },
{ "type": "Feature", "properties": { "site_no": "50039600", "station": "RIO CIBUCO AT CENTRAL SAN VICENTE, PR", "begin": "1969-03-25", "end": "1972-06-04", "active": false, "drain_area_va": null, "network": "USGS NWIS", "url": "https://waterdata.usgs.gov/monitoring-location/50039600" }, "geometry": { "type": "Point", "coordinates": [ -66.36517, 18.45967 ] } },
{ "type": "Feature", "properties": { "site_no": "50039995", "station": "LAGO CARITE AT SPILLWAY, PR", "begin": "2005-06-04", "end": "2025-11-02", "active": true, "drain_area_va": 8.2, "network": "USGS NWIS", "url": "https://waterdata.usgs.gov/monitoring-location/50039995" }, "geometry": { "type": "Point", "coordinates": [ -66.10683, 18.07524 ] } },
{ "type": "Feature", "properties": { "site_no": "50040000", "station": "RIO DE LA PLATA AT LAGO CARITE, PR", "begin": "1949-10-01", "end": "1967-12-31", "active": false, "drain_area_va": 8.2, "network": "USGS NWIS", "url": "https://waterdata.usgs.gov/monitoring-location/50040000" }, "geometry": { "type": "Point", "coordinates": [ -66.106, 18.07635 ] } },
{ "type": "Feature", "properties": { "site_no": "50040800", "station": "RIO DE LA PLATA AT CAYEY, PR", "begin": "2022-06-15", "end": "2026-07-23", "active": true, "drain_area_va": 37.4, "network": "USGS NWIS", "url": "https://waterdata.usgs.gov/monitoring-location/50040800" }, "geometry": { "type": "Point", "coordinates": [ -66.13861, 18.13639 ] } },
{ "type": "Feature", "properties": { "site_no": "50043000", "station": "RIO DE LA PLATA AT PROYECTO LA PLATA, PR", "begin": "1960-04-01", "end": "2026-08-19", "active": true, "drain_area_va": 63.1, "network": "USGS NWIS", "url": "https://waterdata.usgs.gov/monitoring-location/50043000" }, "geometry": { "type": "Point", "coordinates": [ -66.22889, 18.16 ] } },
{ "type": "Feature", "properties": { "site_no": "50043197", "station": "RIO USABON AT HWY 162 NR BARRANQUITAS, PR", "begin": "2007-07-11", "end": "2026-08-19", "active": true, "drain_area_va": 8.56, "network": "USGS NWIS", "url": "https://waterdata.usgs.gov/monitoring-location/50043197" }, "geometry": { "type": "Point", "coordinates": [ -66.30942, 18.16154 ] } },
{ "type": "Feature", "properties": { "site_no": "50043800", "station": "RIO DE LA PLATA AT COMERIO, PR", "begin": "1988-12-14", "end": "2026-08-19", "active": true, "drain_area_va": 117.0, "network": "USGS NWIS", "url": "https://waterdata.usgs.gov/monitoring-location/50043800" }, "geometry": { "type": "Point", "coordinates": [ -66.22462, 18.22216 ] } },
{ "type": "Feature", "properties": { "site_no": "50043950", "station": "RIO ARROYATA AT HWY 7774 NR CIDRA, PR", "begin": "2025-03-26", "end": "2026-08-19", "active": true, "drain_area_va": 9.42, "network": "USGS NWIS", "url": "https://waterdata.usgs.gov/monitoring-location/50043950" }, "geometry": { "type": "Point", "coordinates": [ -66.20944, 18.20111 ] } },
{ "type": "Feature", "properties": { "site_no": "50044810", "station": "RIO GUADIANA NR GUADIANA, NARANJITO PR", "begin": "2001-03-12", "end": "2026-08-19", "active": true, "drain_area_va": 8.06, "network": "USGS NWIS", "url": "https://waterdata.usgs.gov/monitoring-location/50044810" }, "geometry": { "type": "Point", "coordinates": [ -66.22858, 18.3014 ] } },
{ "type": "Feature", "properties": { "site_no": "50044830", "station": "RIO GUADIANA AT GUADIANA, PR", "begin": "1990-08-01", "end": "1996-09-30", "active": false, "drain_area_va": 9.19, "network": "USGS NWIS", "url": "https://waterdata.usgs.gov/monitoring-location/50044830" }, "geometry": { "type": "Point", "coordinates": [ -66.22433, 18.30023 ] } },
{ "type": "Feature", "properties": { "site_no": "50045010", "station": "RIO DE LA PLATA BLW LA PLATA DAMSITE, PR", "begin": "1989-07-14", "end": "2026-08-19", "active": true, "drain_area_va": 181.0, "network": "USGS NWIS", "url": "https://waterdata.usgs.gov/monitoring-location/50045010" }, "geometry": { "type": "Point", "coordinates": [ -66.23881, 18.34601 ] } },
{ "type": "Feature", "properties": { "site_no": "50045700", "station": "RIO LAJAS NR TOA ALTA, PR", "begin": "1966-10-01", "end": "1974-12-31", "active": false, "drain_area_va": 7.91, "network": "USGS NWIS", "url": "https://waterdata.usgs.gov/monitoring-location/50045700" }, "geometry": { "type": "Point", "coordinates": [ -66.25778, 18.39111 ] } },
{ "type": "Feature", "properties": { "site_no": "50046000", "station": "RIO DE LA PLATA AT HWY 2 NR TOA ALTA, PR", "begin": "1960-01-01", "end": "2026-08-19", "active": true, "drain_area_va": 208.0, "network": "USGS NWIS", "url": "https://waterdata.usgs.gov/monitoring-location/50046000" }, "geometry": { "type": "Point", "coordinates": [ -66.26096, 18.41159 ] } },
{ "type": "Feature", "properties": { "site_no": "50047535", "station": "RIO DE BAYAMON AT ARENAS, PR", "begin": "1992-07-25", "end": "2026-08-19", "active": true, "drain_area_va": 0.42, "network": "USGS NWIS", "url": "https://waterdata.usgs.gov/monitoring-location/50047535" }, "geometry": { "type": "Point", "coordinates": [ -66.12194, 18.16917 ] } },
{ "type": "Feature", "properties": { "site_no": "50047540", "station": "RIO SABANA AT VISTA MONTE, PR", "begin": "1992-08-04", "end": "2002-09-30", "active": false, "drain_area_va": 0.8, "network": "USGS NWIS", "url": "https://waterdata.usgs.gov/monitoring-location/50047540" }, "geometry": { "type": "Point", "coordinates": [ -66.1435, 18.17246 ] } },
{ "type": "Feature", "properties": { "site_no": "50047545", "station": "QUEBRADA PRIETA NR CIDRA, PR", "begin": "1992-07-20", "end": "1993-09-29", "active": false, "drain_area_va": 0.45, "network": "USGS NWIS", "url": "https://waterdata.usgs.gov/monitoring-location/50047545" }, "geometry": { "type": "Point", "coordinates": [ -66.11906, 18.2019 ] } },
{ "type": "Feature", "properties": { "site_no": "50047560", "station": "RIO DE BAYAMON BLW LAGO DE CIDRA DAM, PR", "begin": "1990-11-01", "end": "2026-08-19", "active": true, "drain_area_va": 8.32, "network": "USGS NWIS", "url": "https://waterdata.usgs.gov/monitoring-location/50047560" }, "geometry": { "type": "Point", "coordinates": [ -66.13917, 18.20278 ] } },
{ "type": "Feature", "properties": { "site_no": "50047820", "station": "RIO DE BAYAMON AT HWY 174 NR BAYAMON, PR", "begin": "1968-01-01", "end": "1969-11-23", "active": false, "drain_area_va": 31.9, "network": "USGS NWIS", "url": "https://waterdata.usgs.gov/monitoring-location/50047820" }, "geometry": { "type": "Point", "coordinates": [ -66.14044, 18.30079 ] } },
{ "type": "Feature", "properties": { "site_no": "50047850", "station": "RIO DE BAYAMON NR BAYAMON, PR", "begin": "1964-09-01", "end": "2026-08-19", "active": true, "drain_area_va": 41.8, "network": "USGS NWIS", "url": "https://waterdata.usgs.gov/monitoring-location/50047850" }, "geometry": { "type": "Point", "coordinates": [ -66.13948, 18.33428 ] } },
{ "type": "Feature", "properties": { "site_no": "50048000", "station": "RIO DE BAYAMON AT BAYAMON, PR", "begin": "1962-10-01", "end": "1974-12-30", "active": false, "drain_area_va": 71.9, "network": "USGS NWIS", "url": "https://waterdata.usgs.gov/monitoring-location/50048000" }, "geometry": { "type": "Point", "coordinates": [ -66.13989, 18.39606 ] } },
{ "type": "Feature", "properties": { "site_no": "50048690", "station": "QUEBRADA LAS CURIAS BLW LAS CURIAS OUTFLOW, PR", "begin": "1997-08-06", "end": "2015-09-30", "active": false, "drain_area_va": 1.13, "network": "USGS NWIS", "url": "https://waterdata.usgs.gov/monitoring-location/50048690" }, "geometry": { "type": "Point", "coordinates": [ -66.05183, 18.34301 ] } },
{ "type": "Feature", "properties": { "site_no": "50048700", "station": "QUEBRADA LAS CURIAS NR RIO PIEDRAS, PR", "begin": "1972-07-23", "end": "1972-12-11", "active": false, "drain_area_va": 1.65, "network": "USGS NWIS", "url": "https://waterdata.usgs.gov/monitoring-location/50048700" }, "geometry": { "type": "Point", "coordinates": [ -66.05683, 18.34356 ] } },
{ "type": "Feature", "properties": { "site_no": "50048750", "station": "QUEBRADA LAS CURIAS TRIBUTARY NR CAIMITO, PR", "begin": "1971-10-15", "end": "1973-02-11", "active": false, "drain_area_va": 1.73, "network": "USGS NWIS", "url": "https://waterdata.usgs.gov/monitoring-location/50048750" }, "geometry": { "type": "Point", "coordinates": [ -66.05878, 18.33662 ] } },
{ "type": "Feature", "properties": { "site_no": "50048770", "station": "RIO PIEDRAS AT EL SENORIAL, PR", "begin": "1988-03-26", "end": "2015-09-29", "active": false, "drain_area_va": 7.49, "network": "USGS NWIS", "url": "https://waterdata.usgs.gov/monitoring-location/50048770" }, "geometry": { "type": "Point", "coordinates": [ -66.06541, 18.36127 ] } },
{ "type": "Feature", "properties": { "site_no": "50048800", "station": "RIO PIEDRAS NR RIO PIEDRAS, PR", "begin": "1971-10-08", "end": "1973-02-15", "active": false, "drain_area_va": 8.17, "network": "USGS NWIS", "url": "https://waterdata.usgs.gov/monitoring-location/50048800" }, "geometry": { "type": "Point", "coordinates": [ -66.06072, 18.36884 ] } },
{ "type": "Feature", "properties": { "site_no": "50049000", "station": "RIO PIEDRAS AT RIO PIEDRAS, PR", "begin": "1971-07-19", "end": "1993-11-01", "active": false, "drain_area_va": 12.5, "network": "USGS NWIS", "url": "https://waterdata.usgs.gov/monitoring-location/50049000" }, "geometry": { "type": "Point", "coordinates": [ -66.05628, 18.39467 ] } },
{ "type": "Feature", "properties": { "site_no": "50049100", "station": "RIO PIEDRAS AT HATO REY, PR", "begin": "1972-02-29", "end": "2026-08-19", "active": true, "drain_area_va": 15.2, "network": "USGS NWIS", "url": "https://waterdata.usgs.gov/monitoring-location/50049100" }, "geometry": { "type": "Point", "coordinates": [ -66.06933, 18.40955 ] } },
{ "type": "Feature", "properties": { "site_no": "50049300", "station": "QUEBRADA JOSEFINA AT PUERTO NUEVO, PR", "begin": "1971-10-08", "end": "1971-10-31", "active": false, "drain_area_va": 3.52, "network": "USGS NWIS", "url": "https://waterdata.usgs.gov/monitoring-location/50049300" }, "geometry": { "type": "Point", "coordinates": [ -66.07517, 18.40495 ] } },
{ "type": "Feature", "properties": { "site_no": "50049310", "station": "QUEBRADA JOSEFINA AT PINERO AVENUE, PR", "begin": "1988-02-22", "end": "2026-08-19", "active": true, "drain_area_va": 3.77, "network": "USGS NWIS", "url": "https://waterdata.usgs.gov/monitoring-location/50049310" }, "geometry": { "type": "Point", "coordinates": [ -66.07556, 18.40917 ] } },
{ "type": "Feature", "properties": { "site_no": "50049600", "station": "QUEBRADA MARGARITA AT QUEBRADA HEIGHTS, PR", "begin": "1971-10-14", "end": "1973-02-01", "active": false, "drain_area_va": 1.77, "network": "USGS NWIS", "url": "https://waterdata.usgs.gov/monitoring-location/50049600" }, "geometry": { "type": "Point", "coordinates": [ -66.10461, 18.40717 ] } },
{ "type": "Feature", "properties": { "site_no": "50049620", "station": "QDA. MARGARITA AT CAPARRA INTER. NR GUAYNABO, PR", "begin": "2013-08-14", "end": "2026-08-19", "active": true, "drain_area_va": 2.02, "network": "USGS NWIS", "url": "https://waterdata.usgs.gov/monitoring-location/50049620" }, "geometry": { "type": "Point", "coordinates": [ -66.10336, 18.41553 ] } },
{ "type": "Feature", "properties": { "site_no": "50050900", "station": "RIO GRANDE DE LOIZA AT QUEBRADA ARENAS, PR", "begin": "1977-10-01", "end": "2026-08-19", "active": true, "drain_area_va": 6.0, "network": "USGS NWIS", "url": "https://waterdata.usgs.gov/monitoring-location/50050900" }, "geometry": { "type": "Point", "coordinates": [ -65.98861, 18.12 ] } },
{ "type": "Feature", "properties": { "site_no": "50051150", "station": "QUEBRADA BLANCA AT EL JAGUAL, PR", "begin": "1984-09-11", "end": "2002-10-28", "active": false, "drain_area_va": 3.25, "network": "USGS NWIS", "url": "https://waterdata.usgs.gov/monitoring-location/50051150" }, "geometry": { "type": "Point", "coordinates": [ -65.98239, 18.15913 ] } },
{ "type": "Feature", "properties": { "site_no": "50051180", "station": "QUEBRADA SALVATIERRA NR SAN LORENZO, PR", "begin": "1984-01-01", "end": "2006-03-28", "active": false, "drain_area_va": 3.74, "network": "USGS NWIS", "url": "https://waterdata.usgs.gov/monitoring-location/50051180" }, "geometry": { "type": "Point", "coordinates": [ -65.97683, 18.17135 ] } },
{ "type": "Feature", "properties": { "site_no": "50051310", "station": "RIO CAYAGUAS AT CERRO GORDO, PR", "begin": "1977-09-16", "end": "2026-08-19", "active": true, "drain_area_va": 10.1, "network": "USGS NWIS", "url": "https://waterdata.usgs.gov/monitoring-location/50051310" }, "geometry": { "type": "Point", "coordinates": [ -65.95671, 18.15386 ] } },
{ "type": "Feature", "properties": { "site_no": "50051800", "station": "RIO GRANDE DE LOIZA AT HWY 183 SAN LORENZO, PR", "begin": "1990-02-01", "end": "2026-08-19", "active": true, "drain_area_va": 41.09, "network": "USGS NWIS", "url": "https://waterdata.usgs.gov/monitoring-location/50051800" }, "geometry": { "type": "Point", "coordinates": [ -65.96145, 18.18571 ] } },
{ "type": "Feature", "properties": { "site_no": "50053025", "station": "RIO TURABO ABV BORINQUEN, PR", "begin": "1989-10-01", "end": "2026-08-19", "active": true, "drain_area_va": 7.16, "network": "USGS NWIS", "url": "https://waterdata.usgs.gov/monitoring-location/50053025" }, "geometry": { "type": "Point", "coordinates": [ -66.04, 18.16222 ] } },
{ "type": "Feature", "properties": { "site_no": "50053050", "station": "RIO TURABO AT BORINQUEN, PR", "begin": "1983-12-01", "end": "1990-04-16", "active": false, "drain_area_va": 7.89, "network": "USGS NWIS", "url": "https://waterdata.usgs.gov/monitoring-location/50053050" }, "geometry": { "type": "Point", "coordinates": [ -66.04322, 18.16746 ] } },
{ "type": "Feature", "properties": { "site_no": "50055000", "station": "RIO GRANDE DE LOIZA AT CAGUAS, PR", "begin": "1959-11-17", "end": "2026-08-19", "active": true, "drain_area_va": 89.8, "network": "USGS NWIS", "url": "https://waterdata.usgs.gov/monitoring-location/50055000" }, "geometry": { "type": "Point", "coordinates": [ -66.00959, 18.24269 ] } },
{ "type": "Feature", "properties": { "site_no": "50055100", "station": "RIO CAGUITAS NR AGUAS BUENAS, PR", "begin": "1990-02-01", "end": "2003-09-30", "active": false, "drain_area_va": 5.3, "network": "USGS NWIS", "url": "https://waterdata.usgs.gov/monitoring-location/50055100" }, "geometry": { "type": "Point", "coordinates": [ -66.09322, 18.24468 ] } },
{ "type": "Feature", "properties": { "site_no": "50055170", "station": "RIO CAGUITAS NR CAGUAS, PR", "begin": "1992-05-13", "end": "1997-09-30", "active": false, "drain_area_va": 13.7, "network": "USGS NWIS", "url": "https://waterdata.usgs.gov/monitoring-location/50055170" }, "geometry": { "type": "Point", "coordinates": [ -66.04767, 18.23107 ] } },
{ "type": "Feature", "properties": { "site_no": "50055225", "station": "RIO CAGUITAS AT VILLA BLANCA AT CAGUAS, PR", "begin": "1990-12-28", "end": "2026-08-19", "active": true, "drain_area_va": 16.6, "network": "USGS NWIS", "url": "https://waterdata.usgs.gov/monitoring-location/50055225" }, "geometry": { "type": "Point", "coordinates": [ -66.02763, 18.2487 ] } },
{ "type": "Feature", "properties": { "site_no": "50055380", "station": "RIO BAIROA ABV BAIROA, CAGUAS, PR", "begin": "2002-01-23", "end": "2026-08-19", "active": true, "drain_area_va": 4.73, "network": "USGS NWIS", "url": "https://waterdata.usgs.gov/monitoring-location/50055380" }, "geometry": { "type": "Point", "coordinates": [ -66.04429, 18.25829 ] } },
{ "type": "Feature", "properties": { "site_no": "50055390", "station": "RIO BAIROA AT BAIROA, PR", "begin": "1989-12-30", "end": "2001-09-30", "active": false, "drain_area_va": 5.08, "network": "USGS NWIS", "url": "https://waterdata.usgs.gov/monitoring-location/50055390" }, "geometry": { "type": "Point", "coordinates": [ -66.03961, 18.2569 ] } },
{ "type": "Feature", "properties": { "site_no": "50055650", "station": "QUEBRADA CAIMITO NR JUNCOS, PR", "begin": "1984-01-25", "end": "1987-12-07", "active": false, "drain_area_va": 0.82, "network": "USGS NWIS", "url": "https://waterdata.usgs.gov/monitoring-location/50055650" }, "geometry": { "type": "Point", "coordinates": [ -65.86961, 18.23357 ] } },
{ "type": "Feature", "properties": { "site_no": "50055750", "station": "RIO GURABO BLW EL MANGO, PR", "begin": "1990-03-10", "end": "2026-08-19", "active": true, "drain_area_va": 22.3, "network": "USGS NWIS", "url": "https://waterdata.usgs.gov/monitoring-location/50055750" }, "geometry": { "type": "Point", "coordinates": [ -65.88533, 18.23415 ] } },
{ "type": "Feature", "properties": { "site_no": "50056400", "station": "RIO VALENCIANO NR JUNCOS, PR", "begin": "1971-01-28", "end": "2026-08-19", "active": true, "drain_area_va": 16.4, "network": "USGS NWIS", "url": "https://waterdata.usgs.gov/monitoring-location/50056400" }, "geometry": { "type": "Point", "coordinates": [ -65.92617, 18.21607 ] } },
{ "type": "Feature", "properties": { "site_no": "50056900", "station": "QUEBRADA MAMEY NR GURABO, PR", "begin": "1983-12-29", "end": "1992-09-30", "active": false, "drain_area_va": 2.3, "network": "USGS NWIS", "url": "https://waterdata.usgs.gov/monitoring-location/50056900" }, "geometry": { "type": "Point", "coordinates": [ -65.94544, 18.24579 ] } },
{ "type": "Feature", "properties": { "site_no": "50057000", "station": "RIO GURABO AT GURABO, PR", "begin": "1959-10-01", "end": "2026-08-19", "active": true, "drain_area_va": 60.2, "network": "USGS NWIS", "url": "https://waterdata.usgs.gov/monitoring-location/50057000" }, "geometry": { "type": "Point", "coordinates": [ -65.96807, 18.25849 ] } },
{ "type": "Feature", "properties": { "site_no": "50058350", "station": "RIO CANAS AT RIO CANAS, PR", "begin": "1990-03-07", "end": "2026-08-19", "active": true, "drain_area_va": 7.53, "network": "USGS NWIS", "url": "https://waterdata.usgs.gov/monitoring-location/50058350" }, "geometry": { "type": "Point", "coordinates": [ -66.04509, 18.2945 ] } },
{ "type": "Feature", "properties": { "site_no": "50059050", "station": "RIO GRANDE DE LOIZA BLW LOIZA DAMSITE, PR", "begin": "1986-12-25", "end": "2026-08-19", "active": true, "drain_area_va": 209.0, "network": "USGS NWIS", "url": "https://waterdata.usgs.gov/monitoring-location/50059050" }, "geometry": { "type": "Point", "coordinates": [ -66.00598, 18.34227 ] } },
{ "type": "Feature", "properties": { "site_no": "50059210", "station": "QUEBRADA GRANDE AT BO. DOS BOCAS, PR", "begin": "2012-09-30", "end": "2026-08-19", "active": true, "drain_area_va": 12.9, "network": "USGS NWIS", "url": "https://waterdata.usgs.gov/monitoring-location/50059210" }, "geometry": { "type": "Point", "coordinates": [ -65.99046, 18.35044 ] } },
{ "type": "Feature", "properties": { "site_no": "50061000", "station": "RIO GRANDE DE LOIZA AT CAROLINA, PR", "begin": "1991-01-22", "end": "1996-09-30", "active": false, "drain_area_va": null, "network": "USGS NWIS", "url": "https://waterdata.usgs.gov/monitoring-location/50061000" }, "geometry": { "type": "Point", "coordinates": [ -65.95183, 18.3755 ] } },
{ "type": "Feature", "properties": { "site_no": "50061300", "station": "RIO CANOVANILLAS NR LOIZA, PR", "begin": "1967-01-01", "end": "1973-12-31", "active": false, "drain_area_va": 14.4, "network": "USGS NWIS", "url": "https://waterdata.usgs.gov/monitoring-location/50061300" }, "geometry": { "type": "Point", "coordinates": [ -65.91628, 18.35162 ] } },
{ "type": "Feature", "properties": { "site_no": "50061800", "station": "RIO CANOVANAS NR CAMPO RICO, PR", "begin": "1967-03-28", "end": "2026-08-19", "active": true, "drain_area_va": 10.2, "network": "USGS NWIS", "url": "https://waterdata.usgs.gov/monitoring-location/50061800" }, "geometry": { "type": "Point", "coordinates": [ -65.88891, 18.31848 ] } },
{ "type": "Feature", "properties": { "site_no": "50062500", "station": "RIO HERRERA NR COLONIA DOLORES, PR", "begin": "1966-07-21", "end": "1973-12-31", "active": false, "drain_area_va": 2.75, "network": "USGS NWIS", "url": "https://waterdata.usgs.gov/monitoring-location/50062500" }, "geometry": { "type": "Point", "coordinates": [ -65.86628, 18.34856 ] } },
{ "type": "Feature", "properties": { "site_no": "50063250", "station": "RIO ESPIRITU SANTO ABV EL VERDE, PR", "begin": "1945-07-01", "end": "1952-12-31", "active": false, "drain_area_va": 2.13, "network": "USGS NWIS", "url": "https://waterdata.usgs.gov/monitoring-location/50063250" }, "geometry": { "type": "Point", "coordinates": [ -65.82155, 18.30912 ] } },
{ "type": "Feature", "properties": { "site_no": "50063300", "station": "RIO ESPIRITU SANTO NR EL VERDE, PR", "begin": "1967-03-01", "end": "1973-12-31", "active": false, "drain_area_va": 2.23, "network": "USGS NWIS", "url": "https://waterdata.usgs.gov/monitoring-location/50063300" }, "geometry": { "type": "Point", "coordinates": [ -65.82239, 18.31217 ] } },
{ "type": "Feature", "properties": { "site_no": "50063440", "station": "QUEBRADA SONADORA NR EL VERDE, PR", "begin": "1999-10-01", "end": "2010-09-30", "active": false, "drain_area_va": 0.92, "network": "USGS NWIS", "url": "https://waterdata.usgs.gov/monitoring-location/50063440" }, "geometry": { "type": "Point", "coordinates": [ -65.81708, 18.32124 ] } },
{ "type": "Feature", "properties": { "site_no": "50063500", "station": "QUEBRADA TORONJA AT EL VERDE, PR", "begin": "1983-04-01", "end": "1996-09-30", "active": false, "drain_area_va": 0.25, "network": "USGS NWIS", "url": "https://waterdata.usgs.gov/monitoring-location/50063500" }, "geometry": { "type": "Point", "coordinates": [ -65.82016, 18.32662 ] } },
{ "type": "Feature", "properties": { "site_no": "50063800", "station": "RIO ESPIRITU SANTO NR RIO GRANDE, PR", "begin": "1966-08-01", "end": "2026-08-19", "active": true, "drain_area_va": 8.62, "network": "USGS NWIS", "url": "https://waterdata.usgs.gov/monitoring-location/50063800" }, "geometry": { "type": "Point", "coordinates": [ -65.814, 18.35991 ] } },
{ "type": "Feature", "properties": { "site_no": "50064200", "station": "RIO GRANDE NR EL VERDE, PR", "begin": "1967-05-09", "end": "2026-08-19", "active": true, "drain_area_va": 7.31, "network": "USGS NWIS", "url": "https://waterdata.usgs.gov/monitoring-location/50064200" }, "geometry": { "type": "Point", "coordinates": [ -65.84198, 18.34541 ] } },
{ "type": "Feature", "properties": { "site_no": "50065500", "station": "RIO MAMEYES NR SABANA, PR", "begin": "1967-08-01", "end": "2026-08-19", "active": true, "drain_area_va": 6.88, "network": "USGS NWIS", "url": "https://waterdata.usgs.gov/monitoring-location/50065500" }, "geometry": { "type": "Point", "coordinates": [ -65.75081, 18.32881 ] } },
{ "type": "Feature", "properties": { "site_no": "50065700", "station": "RIO MAMEYES AT HWY 191 AT MAMEYES, PR", "begin": "1966-10-01", "end": "1985-01-24", "active": false, "drain_area_va": 11.8, "network": "USGS NWIS", "url": "https://waterdata.usgs.gov/monitoring-location/50065700" }, "geometry": { "type": "Point", "coordinates": [ -65.77016, 18.36551 ] } },
{ "type": "Feature", "properties": { "site_no": "50066000", "station": "RIO MAMEYES AT MAMEYES, PR", "begin": "1996-12-30", "end": "2009-03-17", "active": false, "drain_area_va": 13.41, "network": "USGS NWIS", "url": "https://waterdata.usgs.gov/monitoring-location/50066000" }, "geometry": { "type": "Point", "coordinates": [ -65.7635, 18.37217 ] } },
{ "type": "Feature", "properties": { "site_no": "50067000", "station": "RIO SABANA AT SABANA, PR", "begin": "1979-10-01", "end": "2026-08-19", "active": true, "drain_area_va": 3.96, "network": "USGS NWIS", "url": "https://waterdata.usgs.gov/monitoring-location/50067000" }, "geometry": { "type": "Point", "coordinates": [ -65.73101, 18.33096 ] } },
{ "type": "Feature", "properties": { "site_no": "50070500", "station": "RIO FAJARDO ABV FAJARDO, PR", "begin": "1989-12-30", "end": "2002-07-21", "active": false, "drain_area_va": 4.16, "network": "USGS NWIS", "url": "https://waterdata.usgs.gov/monitoring-location/50070500" }, "geometry": { "type": "Point", "coordinates": [ -65.72127, 18.27051 ] } },
{ "type": "Feature", "properties": { "site_no": "50070900", "station": "RIO FAJARDO AT PARAISO NR FAJARDO, PR", "begin": "2003-10-01", "end": "2026-08-19", "active": true, "drain_area_va": 11.0, "network": "USGS NWIS", "url": "https://waterdata.usgs.gov/monitoring-location/50070900" }, "geometry": { "type": "Point", "coordinates": [ -65.70107, 18.28281 ] } },
{ "type": "Feature", "properties": { "site_no": "50071000", "station": "RIO FAJARDO NR FAJARDO, PR", "begin": "1961-04-01", "end": "2026-08-19", "active": true, "drain_area_va": 14.9, "network": "USGS NWIS", "url": "https://waterdata.usgs.gov/monitoring-location/50071000" }, "geometry": { "type": "Point", "coordinates": [ -65.69383, 18.29895 ] } },
{ "type": "Feature", "properties": { "site_no": "50072000", "station": "RIO FAJARDO AT FAJARDO, PR", "begin": "1960-08-01", "end": "1966-09-29", "active": false, "drain_area_va": 22.5, "network": "USGS NWIS", "url": "https://waterdata.usgs.gov/monitoring-location/50072000" }, "geometry": { "type": "Point", "coordinates": [ -65.65155, 18.31773 ] } },
{ "type": "Feature", "properties": { "site_no": "50073400", "station": "QUEBRADA PALMA AT DAGUAO, PR", "begin": "1972-08-30", "end": "1977-09-29", "active": false, "drain_area_va": 4.84, "network": "USGS NWIS", "url": "https://waterdata.usgs.gov/monitoring-location/50073400" }, "geometry": { "type": "Point", "coordinates": [ -65.69127, 18.21912 ] } },
{ "type": "Feature", "properties": { "site_no": "50074950", "station": "QUEBRADA GUABA NR NAGUABO, PR", "begin": "1992-06-23", "end": "2012-05-08", "active": false, "drain_area_va": 0.06, "network": "USGS NWIS", "url": "https://waterdata.usgs.gov/monitoring-location/50074950" }, "geometry": { "type": "Point", "coordinates": [ -65.7885, 18.2819 ] } },
{ "type": "Feature", "properties": { "site_no": "50075000", "station": "RIO ICACOS NR NAGUABO, PR", "begin": "1945-07-01", "end": "2025-07-16", "active": true, "drain_area_va": 1.26, "network": "USGS NWIS", "url": "https://waterdata.usgs.gov/monitoring-location/50075000" }, "geometry": { "type": "Point", "coordinates": [ -65.78583, 18.27722 ] } },
{ "type": "Feature", "properties": { "site_no": "50075500", "station": "RIO BLANCO AT FLORIDA, PR", "begin": "2017-03-01", "end": "2026-08-19", "active": true, "drain_area_va": 11.0, "network": "USGS NWIS", "url": "https://waterdata.usgs.gov/monitoring-location/50075500" }, "geometry": { "type": "Point", "coordinates": [ -65.785, 18.24083 ] } },
{ "type": "Feature", "properties": { "site_no": "50076000", "station": "RIO BLANCO NR FLORIDA, PR", "begin": "1982-10-01", "end": "2017-03-01", "active": false, "drain_area_va": 12.3, "network": "USGS NWIS", "url": "https://waterdata.usgs.gov/monitoring-location/50076000" }, "geometry": { "type": "Point", "coordinates": [ -65.78461, 18.22718 ] } },
{ "type": "Feature", "properties": { "site_no": "50077000", "station": "RIO BLANCO AT RIO BLANCO, PR", "begin": "1972-09-08", "end": "1977-09-29", "active": false, "drain_area_va": 17.6, "network": "USGS NWIS", "url": "https://waterdata.usgs.gov/monitoring-location/50077000" }, "geometry": { "type": "Point", "coordinates": [ -65.78211, 18.21718 ] } },
{ "type": "Feature", "properties": { "site_no": "50077500", "station": "RIO BLANCO BLW LA FE, PR", "begin": "1984-01-06", "end": "1984-11-02", "active": false, "drain_area_va": 21.0, "network": "USGS NWIS", "url": "https://waterdata.usgs.gov/monitoring-location/50077500" }, "geometry": { "type": "Point", "coordinates": [ -65.75822, 18.20246 ] } },
{ "type": "Feature", "properties": { "site_no": "50081000", "station": "RIO HUMACAO AT LAS PIEDRAS, PR", "begin": "1974-07-12", "end": "2026-08-19", "active": true, "drain_area_va": 6.65, "network": "USGS NWIS", "url": "https://waterdata.usgs.gov/monitoring-location/50081000" }, "geometry": { "type": "Point", "coordinates": [ -65.86944, 18.17406 ] } },
{ "type": "Feature", "properties": { "site_no": "50081500", "station": "RIO HUMACAO NR HUMACAO, PR", "begin": "1972-10-11", "end": "1973-07-14", "active": false, "drain_area_va": 9.21, "network": "USGS NWIS", "url": "https://waterdata.usgs.gov/monitoring-location/50081500" }, "geometry": { "type": "Point", "coordinates": [ -65.84433, 18.15829 ] } },
{ "type": "Feature", "properties": { "site_no": "50082000", "station": "RIO HUMACAO AT HWY 3 AT HUMACAO, PR", "begin": "1982-10-01", "end": "1985-03-31", "active": false, "drain_area_va": 17.3, "network": "USGS NWIS", "url": "https://waterdata.usgs.gov/monitoring-location/50082000" }, "geometry": { "type": "Point", "coordinates": [ -65.82655, 18.14496 ] } },
{ "type": "Feature", "properties": { "site_no": "50082800", "station": "RIO GUAYANES NR COLONIA LAURA, PR", "begin": "1969-01-01", "end": "1982-10-12", "active": false, "drain_area_va": 4.69, "network": "USGS NWIS", "url": "https://waterdata.usgs.gov/monitoring-location/50082800" }, "geometry": { "type": "Point", "coordinates": [ -65.95877, 18.07941 ] } },
{ "type": "Feature", "properties": { "site_no": "50083500", "station": "RIO GUAYANES NR YABUCOA, PR", "begin": "1969-02-12", "end": "2026-08-19", "active": true, "drain_area_va": 16.4, "network": "USGS NWIS", "url": "https://waterdata.usgs.gov/monitoring-location/50083500" }, "geometry": { "type": "Point", "coordinates": [ -65.90111, 18.05889 ] } },
{ "type": "Feature", "properties": { "site_no": "50084000", "station": "RIO LIMONES NR YABUCOA, PR", "begin": "1969-02-18", "end": "1971-12-31", "active": false, "drain_area_va": 7.89, "network": "USGS NWIS", "url": "https://waterdata.usgs.gov/monitoring-location/50084000" }, "geometry": { "type": "Point", "coordinates": [ -65.89461, 18.07441 ] } },
{ "type": "Feature", "properties": { "site_no": "50085100", "station": "RIO GUAYANES AT CENTRAL ROIG, PR", "begin": "2006-10-01", "end": "2026-08-19", "active": true, "drain_area_va": 26.2, "network": "USGS NWIS", "url": "https://waterdata.usgs.gov/monitoring-location/50085100" }, "geometry": { "type": "Point", "coordinates": [ -65.87417, 18.06639 ] } },
{ "type": "Feature", "properties": { "site_no": "50090500", "station": "RIO MAUNABO AT LIZAS, PR", "begin": "1971-02-09", "end": "2026-08-19", "active": true, "drain_area_va": 5.38, "network": "USGS NWIS", "url": "https://waterdata.usgs.gov/monitoring-location/50090500" }, "geometry": { "type": "Point", "coordinates": [ -65.94, 18.02722 ] } },
{ "type": "Feature", "properties": { "site_no": "50091200", "station": "RIO MAUNABO NR MAUNABO, PR", "begin": "1971-02-09", "end": "1973-07-17", "active": false, "drain_area_va": 12.7, "network": "USGS NWIS", "url": "https://waterdata.usgs.gov/monitoring-location/50091200" }, "geometry": { "type": "Point", "coordinates": [ -65.90211, 17.99691 ] } },
{ "type": "Feature", "properties": { "site_no": "50092000", "station": "RIO GRANDE DE PATILLAS NR PATILLAS, PR", "begin": "1966-01-01", "end": "2026-08-19", "active": true, "drain_area_va": 18.3, "network": "USGS NWIS", "url": "https://waterdata.usgs.gov/monitoring-location/50092000" }, "geometry": { "type": "Point", "coordinates": [ -66.0325, 18.03417 ] } },
{ "type": "Feature", "properties": { "site_no": "50093000", "station": "RIO MARIN NR PATILLAS, PR", "begin": "2000-02-22", "end": "2026-08-19", "active": true, "drain_area_va": 4.1, "network": "USGS NWIS", "url": "https://waterdata.usgs.gov/monitoring-location/50093000" }, "geometry": { "type": "Point", "coordinates": [ -66.00972, 18.03778 ] } },
{ "type": "Feature", "properties": { "site_no": "50093050", "station": "RIO GRANDE DE PATILLAS AT LAGO PATILLAS, PR", "begin": "1949-10-01", "end": "1958-12-31", "active": false, "drain_area_va": 25.6, "network": "USGS NWIS", "url": "https://waterdata.usgs.gov/monitoring-location/50093050" }, "geometry": { "type": "Point", "coordinates": [ -66.02155, 18.01885 ] } },
{ "type": "Feature", "properties": { "site_no": "50093053", "station": "CANAL DE PATILLAS AT FOREBAY, PR", "begin": "2005-11-09", "end": "2026-08-19", "active": true, "drain_area_va": null, "network": "USGS NWIS", "url": "https://waterdata.usgs.gov/monitoring-location/50093053" }, "geometry": { "type": "Point", "coordinates": [ -66.02306, 18.02083 ] } },
{ "type": "Feature", "properties": { "site_no": "50093075", "station": "CANAL DE PATILLAS ABV GUAYAMA FILTRATION PLANT, PR", "begin": "2003-02-15", "end": "2026-08-19", "active": true, "drain_area_va": null, "network": "USGS NWIS", "url": "https://waterdata.usgs.gov/monitoring-location/50093075" }, "geometry": { "type": "Point", "coordinates": [ -66.10111, 17.9825 ] } },
{ "type": "Feature", "properties": { "site_no": "50093078", "station": "CANAL DE PATILLAS BLW GUAYAMA FILTRATION PLANT, PR", "begin": "2003-02-20", "end": "2026-08-19", "active": true, "drain_area_va": null, "network": "USGS NWIS", "url": "https://waterdata.usgs.gov/monitoring-location/50093078" }, "geometry": { "type": "Point", "coordinates": [ -66.10139, 17.9825 ] } },
{ "type": "Feature", "properties": { "site_no": "50093083", "station": "CANAL DE PATILLAS ABV AES INTAKE AT GUAYAMA, PR", "begin": "2016-10-01", "end": "2026-08-19", "active": true, "drain_area_va": null, "network": "USGS NWIS", "url": "https://waterdata.usgs.gov/monitoring-location/50093083" }, "geometry": { "type": "Point", "coordinates": [ -66.13917, 17.96972 ] } },
{ "type": "Feature", "properties": { "site_no": "50093085", "station": "CANAL DE PATILLAS BLW AES INTAKE AT GUAYAMA, PR", "begin": "2007-04-10", "end": "2010-09-30", "active": false, "drain_area_va": null, "network": "USGS NWIS", "url": "https://waterdata.usgs.gov/monitoring-location/50093085" }, "geometry": { "type": "Point", "coordinates": [ -66.13878, 17.96747 ] } },
{ "type": "Feature", "properties": { "site_no": "50093090", "station": "CANAL DE PATILLAS ABV EL LEGADO INTAKE, PR", "begin": "2005-12-06", "end": "2026-08-19", "active": true, "drain_area_va": null, "network": "USGS NWIS", "url": "https://waterdata.usgs.gov/monitoring-location/50093090" }, "geometry": { "type": "Point", "coordinates": [ -66.17961, 17.97636 ] } },
{ "type": "Feature", "properties": { "site_no": "50093095", "station": "CANAL DE PATILLAS BLW EL LEGADO INTAKE, PR", "begin": "2005-12-06", "end": "2007-08-27", "active": false, "drain_area_va": null, "network": "USGS NWIS", "url": "https://waterdata.usgs.gov/monitoring-location/50093095" }, "geometry": { "type": "Point", "coordinates": [ -66.17961, 17.97636 ] } },
{ "type": "Feature", "properties": { "site_no": "50093110", "station": "CANAL DE PATILLAS AT INTAKE 113 SALINAS, PR", "begin": "2016-10-01", "end": "2026-08-19", "active": true, "drain_area_va": null, "network": "USGS NWIS", "url": "https://waterdata.usgs.gov/monitoring-location/50093110" }, "geometry": { "type": "Point", "coordinates": [ -66.2672, 17.98294 ] } },
{ "type": "Feature", "properties": { "site_no": "50093115", "station": "CANAL DE PATILLAS AT INTAKE 123, SALINAS PR", "begin": "2016-10-01", "end": "2026-08-19", "active": true, "drain_area_va": null, "network": "USGS NWIS", "url": "https://waterdata.usgs.gov/monitoring-location/50093115" }, "geometry": { "type": "Point", "coordinates": [ -66.28802, 17.98552 ] } },
{ "type": "Feature", "properties": { "site_no": "50093120", "station": "RIO GRANDE DE PATILLAS BLW LAGO PATILLAS, PR", "begin": "2005-10-01", "end": "2026-08-19", "active": true, "drain_area_va": 25.67, "network": "USGS NWIS", "url": "https://waterdata.usgs.gov/monitoring-location/50093120" }, "geometry": { "type": "Point", "coordinates": [ -66.02361, 18.01639 ] } },
{ "type": "Feature", "properties": { "site_no": "50095000", "station": "CANAL DE GUAMANI OESTE AT HWY 15 GUAYAMA, PR", "begin": "2005-12-29", "end": "2026-08-19", "active": true, "drain_area_va": null, "network": "USGS NWIS", "url": "https://waterdata.usgs.gov/monitoring-location/50095000" }, "geometry": { "type": "Point", "coordinates": [ -66.11556, 18.00306 ] } },
{ "type": "Feature", "properties": { "site_no": "50095200", "station": "RIO GUAMANI AT GUAYAMA, PR", "begin": "1961-05-01", "end": "1970-12-31", "active": false, "drain_area_va": 8.22, "network": "USGS NWIS", "url": "https://waterdata.usgs.gov/monitoring-location/50095200" }, "geometry": { "type": "Point", "coordinates": [ -66.11294, 17.99969 ] } },
{ "type": "Feature", "properties": { "site_no": "50095500", "station": "RIO GUAMANI NR GUAYAMA, PR", "begin": "1961-07-01", "end": "1970-12-31", "active": false, "drain_area_va": 12.3, "network": "USGS NWIS", "url": "https://waterdata.usgs.gov/monitoring-location/50095500" }, "geometry": { "type": "Point", "coordinates": [ -66.1385, 17.95636 ] } },
{ "type": "Feature", "properties": { "site_no": "50098500", "station": "QUEBRADA SECA NR GUAYAMA, PR", "begin": "1988-10-15", "end": "1989-01-02", "active": false, "drain_area_va": 0.3, "network": "USGS NWIS", "url": "https://waterdata.usgs.gov/monitoring-location/50098500" }, "geometry": { "type": "Point", "coordinates": [ -66.20544, 17.99441 ] } },
{ "type": "Feature", "properties": { "site_no": "50099000", "station": "QUEBRADA AGUAS VERDES NR SALINAS, PR", "begin": "1988-07-21", "end": "1989-04-10", "active": false, "drain_area_va": 0.66, "network": "USGS NWIS", "url": "https://waterdata.usgs.gov/monitoring-location/50099000" }, "geometry": { "type": "Point", "coordinates": [ -66.21683, 17.9933 ] } },
{ "type": "Feature", "properties": { "site_no": "50100200", "station": "RIO LAPA NR RABO DEL BUEY, PR", "begin": "1988-09-02", "end": "2026-08-19", "active": true, "drain_area_va": 9.92, "network": "USGS NWIS", "url": "https://waterdata.usgs.gov/monitoring-location/50100200" }, "geometry": { "type": "Point", "coordinates": [ -66.24111, 18.05972 ] } },
{ "type": "Feature", "properties": { "site_no": "50100450", "station": "RIO MAJADA AT LA PLENA, PR", "begin": "1973-01-09", "end": "2026-08-19", "active": true, "drain_area_va": 16.7, "network": "USGS NWIS", "url": "https://waterdata.usgs.gov/monitoring-location/50100450" }, "geometry": { "type": "Point", "coordinates": [ -66.2075, 18.04472 ] } },
{ "type": "Feature", "properties": { "site_no": "50106100", "station": "RIO COAMO AT HWY 14 AT COAMO, PR", "begin": "1987-01-21", "end": "2026-08-19", "active": true, "drain_area_va": 43.5, "network": "USGS NWIS", "url": "https://waterdata.usgs.gov/monitoring-location/50106100" }, "geometry": { "type": "Point", "coordinates": [ -66.35482, 18.08351 ] } },
{ "type": "Feature", "properties": { "site_no": "50106500", "station": "RIO COAMO NR COAMO, PR", "begin": "1968-01-01", "end": "1985-09-30", "active": false, "drain_area_va": 46.0, "network": "USGS NWIS", "url": "https://waterdata.usgs.gov/monitoring-location/50106500" }, "geometry": { "type": "Point", "coordinates": [ -66.36906, 18.06246 ] } },
{ "type": "Feature", "properties": { "site_no": "50108000", "station": "RIO DESCALABRADO NR LOS LLANOS, PR", "begin": "1966-01-01", "end": "2010-09-30", "active": false, "drain_area_va": 12.9, "network": "USGS NWIS", "url": "https://waterdata.usgs.gov/monitoring-location/50108000" }, "geometry": { "type": "Point", "coordinates": [ -66.42573, 18.05024 ] } },
{ "type": "Feature", "properties": { "site_no": "50108500", "station": "RIO DESCALABRADO NR SANTA ISABEL, PR", "begin": "1966-01-01", "end": "1966-12-31", "active": false, "drain_area_va": 18.1, "network": "USGS NWIS", "url": "https://waterdata.usgs.gov/monitoring-location/50108500" }, "geometry": { "type": "Point", "coordinates": [ -66.45182, 17.98172 ] } },
{ "type": "Feature", "properties": { "site_no": "50109400", "station": "RIO CANAS NR PASTILLO, PR", "begin": "1966-01-01", "end": "1966-12-31", "active": false, "drain_area_va": 6.5, "network": "USGS NWIS", "url": "https://waterdata.usgs.gov/monitoring-location/50109400" }, "geometry": { "type": "Point", "coordinates": [ -66.46989, 18.00469 ] } },
{ "type": "Feature", "properties": { "site_no": "50110200", "station": "CANAL DE ACEITUNA AT VILLALBA, PR", "begin": "1966-01-01", "end": "1973-12-31", "active": false, "drain_area_va": null, "network": "USGS NWIS", "url": "https://waterdata.usgs.gov/monitoring-location/50110200" }, "geometry": { "type": "Point", "coordinates": [ -66.50434, 18.16135 ] } },
{ "type": "Feature", "properties": { "site_no": "50110650", "station": "RIO JACAGUAS ABV LAGO GUAYABAL", "begin": "2012-07-14", "end": "2026-08-19", "active": true, "drain_area_va": 13.75, "network": "USGS NWIS", "url": "https://waterdata.usgs.gov/monitoring-location/50110650" }, "geometry": { "type": "Point", "coordinates": [ -66.50465, 18.11659 ] } },
{ "type": "Feature", "properties": { "site_no": "50110900", "station": "RIO TOA VACA ABV LAGO TOA VACA, PR", "begin": "1989-04-05", "end": "2026-08-19", "active": true, "drain_area_va": 14.2, "network": "USGS NWIS", "url": "https://waterdata.usgs.gov/monitoring-location/50110900" }, "geometry": { "type": "Point", "coordinates": [ -66.45778, 18.1265 ] } },
{ "type": "Feature", "properties": { "site_no": "50111000", "station": "RIO TOA VACA AT HWY 150 NR VILLALBA, PR", "begin": "1968-01-01", "end": "1969-11-10", "active": false, "drain_area_va": 19.3, "network": "USGS NWIS", "url": "https://waterdata.usgs.gov/monitoring-location/50111000" }, "geometry": { "type": "Point", "coordinates": [ -66.46156, 18.10052 ] } },
{ "type": "Feature", "properties": { "site_no": "50111200", "station": "RIO TOA VACA NR VILLALBA, PR", "begin": "1966-01-01", "end": "1970-09-09", "active": false, "drain_area_va": 21.4, "network": "USGS NWIS", "url": "https://waterdata.usgs.gov/monitoring-location/50111200" }, "geometry": { "type": "Point", "coordinates": [ -66.48073, 18.10274 ] } },
{ "type": "Feature", "properties": { "site_no": "50111320", "station": "CANAL DE JUANA DIAZ AT PIEDRA AGUZADA NR JUANA DIA", "begin": "2004-06-09", "end": "2026-08-19", "active": true, "drain_area_va": null, "network": "USGS NWIS", "url": "https://waterdata.usgs.gov/monitoring-location/50111320" }, "geometry": { "type": "Point", "coordinates": [ -66.48876, 18.03995 ] } },
{ "type": "Feature", "properties": { "site_no": "50111330", "station": "CANAL DE JUANA DIAZ AT PASO SECO NR SANTA ISABEL", "begin": "2004-06-08", "end": "2026-08-19", "active": true, "drain_area_va": null, "network": "USGS NWIS", "url": "https://waterdata.usgs.gov/monitoring-location/50111330" }, "geometry": { "type": "Point", "coordinates": [ -66.39032, 18.01433 ] } },
{ "type": "Feature", "properties": { "site_no": "50111340", "station": "CANAL DE JUANA DIAZ AT BO. PENUELAS NR SALINAS, PR", "begin": "2004-05-05", "end": "2026-08-19", "active": true, "drain_area_va": null, "network": "USGS NWIS", "url": "https://waterdata.usgs.gov/monitoring-location/50111340" }, "geometry": { "type": "Point", "coordinates": [ -66.34189, 17.99828 ] } },
{ "type": "Feature", "properties": { "site_no": "50111500", "station": "RIO JACAGUAS AT JUANA DIAZ, PR", "begin": "1984-03-14", "end": "2026-08-19", "active": true, "drain_area_va": 51.5, "network": "USGS NWIS", "url": "https://waterdata.usgs.gov/monitoring-location/50111500" }, "geometry": { "type": "Point", "coordinates": [ -66.51103, 18.0543 ] } },
{ "type": "Feature", "properties": { "site_no": "50111700", "station": "RIO JACAGUAS NR JUANA DIAZ, PR", "begin": "1966-01-01", "end": "1969-11-11", "active": false, "drain_area_va": 53.2, "network": "USGS NWIS", "url": "https://waterdata.usgs.gov/monitoring-location/50111700" }, "geometry": { "type": "Point", "coordinates": [ -66.50823, 18.03219 ] } },
{ "type": "Feature", "properties": { "site_no": "50111750", "station": "RIO JACAGUAS BLW QUEBRADA GUANABANA, PR", "begin": "1989-01-27", "end": "1989-09-29", "active": false, "drain_area_va": 56.32, "network": "USGS NWIS", "url": "https://waterdata.usgs.gov/monitoring-location/50111750" }, "geometry": { "type": "Point", "coordinates": [ -66.50739, 18.02941 ] } },
{ "type": "Feature", "properties": { "site_no": "50112100", "station": "RIO JACAGUAS AT MANZANILLO, PR", "begin": "1966-01-01", "end": "1966-12-31", "active": false, "drain_area_va": 72.8, "network": "USGS NWIS", "url": "https://waterdata.usgs.gov/monitoring-location/50112100" }, "geometry": { "type": "Point", "coordinates": [ -66.53906, 17.98274 ] } },
{ "type": "Feature", "properties": { "site_no": "50112500", "station": "RIO INABON AT REAL ABAJO, PR", "begin": "1964-07-01", "end": "2026-08-19", "active": true, "drain_area_va": 9.7, "network": "USGS NWIS", "url": "https://waterdata.usgs.gov/monitoring-location/50112500" }, "geometry": { "type": "Point", "coordinates": [ -66.56307, 18.08648 ] } },
{ "type": "Feature", "properties": { "site_no": "50113800", "station": "RIO CERRILLOS ABV LAGO CERRILLOS NR PONCE, PR", "begin": "1988-12-01", "end": "2026-08-19", "active": true, "drain_area_va": 11.9, "network": "USGS NWIS", "url": "https://waterdata.usgs.gov/monitoring-location/50113800" }, "geometry": { "type": "Point", "coordinates": [ -66.60489, 18.11679 ] } },
{ "type": "Feature", "properties": { "site_no": "50114000", "station": "RIO CERRILLOS BLW LAGO CERRILLOS NR PONCE, PR", "begin": "1964-05-01", "end": "2026-08-19", "active": true, "drain_area_va": 17.8, "network": "USGS NWIS", "url": "https://waterdata.usgs.gov/monitoring-location/50114000" }, "geometry": { "type": "Point", "coordinates": [ -66.58139, 18.07285 ] } },
{ "type": "Feature", "properties": { "site_no": "50114390", "station": "RIO BUCANA AT HWY 14 BRIDGE NR PONCE, PR", "begin": "1987-07-31", "end": "2002-10-28", "active": false, "drain_area_va": 24.9, "network": "USGS NWIS", "url": "https://waterdata.usgs.gov/monitoring-location/50114390" }, "geometry": { "type": "Point", "coordinates": [ -66.58239, 18.03941 ] } },
{ "type": "Feature", "properties": { "site_no": "50114700", "station": "RIO BUCANA AT PLAYA DE PONCE, PR", "begin": "1964-03-01", "end": "1967-12-31", "active": false, "drain_area_va": 28.4, "network": "USGS NWIS", "url": "https://waterdata.usgs.gov/monitoring-location/50114700" }, "geometry": { "type": "Point", "coordinates": [ -66.59739, 17.98413 ] } },
{ "type": "Feature", "properties": { "site_no": "50114900", "station": "RIO PORTUGUES NR TIBES, PR", "begin": "1997-10-01", "end": "2026-08-19", "active": true, "drain_area_va": 7.27, "network": "USGS NWIS", "url": "https://waterdata.usgs.gov/monitoring-location/50114900" }, "geometry": { "type": "Point", "coordinates": [ -66.64287, 18.09988 ] } },
{ "type": "Feature", "properties": { "site_no": "50115000", "station": "RIO PORTUGUES NR PONCE, PR", "begin": "1964-07-01", "end": "1999-01-19", "active": false, "drain_area_va": 8.82, "network": "USGS NWIS", "url": "https://waterdata.usgs.gov/monitoring-location/50115000" }, "geometry": { "type": "Point", "coordinates": [ -66.63323, 18.07718 ] } },
{ "type": "Feature", "properties": { "site_no": "50115230", "station": "RIO PORTUGUES BLW PORTUGUES DAMSITE, PR", "begin": "2002-01-16", "end": "2012-09-29", "active": false, "drain_area_va": 11.24, "network": "USGS NWIS", "url": "https://waterdata.usgs.gov/monitoring-location/50115230" }, "geometry": { "type": "Point", "coordinates": [ -66.62767, 18.04996 ] } },
{ "type": "Feature", "properties": { "site_no": "50115240", "station": "RIO PORTUGUES AT PARQUE CEREMONIAL TIBES NR PONCE", "begin": "2012-10-15", "end": "2026-08-19", "active": true, "drain_area_va": 11.7, "network": "USGS NWIS", "url": "https://waterdata.usgs.gov/monitoring-location/50115240" }, "geometry": { "type": "Point", "coordinates": [ -66.62151, 18.04357 ] } },
{ "type": "Feature", "properties": { "site_no": "50115900", "station": "RIO PORTUGUES AT HWY 14 AT PONCE, PR", "begin": "1996-12-30", "end": "2012-09-29", "active": false, "drain_area_va": 18.6, "network": "USGS NWIS", "url": "https://waterdata.usgs.gov/monitoring-location/50115900" }, "geometry": { "type": "Point", "coordinates": [ -66.60684, 18.01719 ] } },
{ "type": "Feature", "properties": { "site_no": "50121000", "station": "RIO TALLABOA AT PENUELAS, PR", "begin": "1959-01-01", "end": "1971-04-13", "active": false, "drain_area_va": 24.2, "network": "USGS NWIS", "url": "https://waterdata.usgs.gov/monitoring-location/50121000" }, "geometry": { "type": "Point", "coordinates": [ -66.72156, 18.04857 ] } },
{ "type": "Feature", "properties": { "site_no": "50122000", "station": "RIO TALLABOA AT HWY 127, PR", "begin": "1959-04-01", "end": "1962-12-31", "active": false, "drain_area_va": 30.2, "network": "USGS NWIS", "url": "https://waterdata.usgs.gov/monitoring-location/50122000" }, "geometry": { "type": "Point", "coordinates": [ -66.7299, 18.00663 ] } },
{ "type": "Feature", "properties": { "site_no": "50124000", "station": "RIO GUAYANILLA NR GUAYANILLA, PR", "begin": "1961-01-01", "end": "1969-12-31", "active": false, "drain_area_va": 18.5, "network": "USGS NWIS", "url": "https://waterdata.usgs.gov/monitoring-location/50124000" }, "geometry": { "type": "Point", "coordinates": [ -66.80156, 18.0458 ] } },
{ "type": "Feature", "properties": { "site_no": "50124200", "station": "RIO GUAYANILLA NEAR GUAYANILLA, PR", "begin": "1981-03-01", "end": "2026-08-19", "active": true, "drain_area_va": 18.9, "network": "USGS NWIS", "url": "https://waterdata.usgs.gov/monitoring-location/50124200" }, "geometry": { "type": "Point", "coordinates": [ -66.79816, 18.04424 ] } },
{ "type": "Feature", "properties": { "site_no": "50124500", "station": "RIO GUAYANILLA AT GUAYANILLA, PR", "begin": "1970-02-24", "end": "1974-12-31", "active": false, "drain_area_va": 20.8, "network": "USGS NWIS", "url": "https://waterdata.usgs.gov/monitoring-location/50124500" }, "geometry": { "type": "Point", "coordinates": [ -66.79879, 18.03163 ] } },
{ "type": "Feature", "properties": { "site_no": "50125790", "station": "RIO YAUCO AT LUCCHETTI DAMSITE, PR", "begin": "1946-07-01", "end": "1952-02-29", "active": false, "drain_area_va": 17.4, "network": "USGS NWIS", "url": "https://waterdata.usgs.gov/monitoring-location/50125790" }, "geometry": { "type": "Point", "coordinates": [ -66.86462, 18.09163 ] } },
{ "type": "Feature", "properties": { "site_no": "50125900", "station": "RIO DUEY ABV DIVERSION NR YAUCO, PR", "begin": "1976-10-21", "end": "1980-10-08", "active": false, "drain_area_va": 7.23, "network": "USGS NWIS", "url": "https://waterdata.usgs.gov/monitoring-location/50125900" }, "geometry": { "type": "Point", "coordinates": [ -66.84601, 18.06774 ] } },
{ "type": "Feature", "properties": { "site_no": "50126150", "station": "RIO YAUCO ABV DIVERSION MONSERRATE NR YAUCO, PR", "begin": "1976-11-05", "end": "2026-08-19", "active": true, "drain_area_va": 32.1, "network": "USGS NWIS", "url": "https://waterdata.usgs.gov/monitoring-location/50126150" }, "geometry": { "type": "Point", "coordinates": [ -66.84186, 18.04919 ] } },
{ "type": "Feature", "properties": { "site_no": "50127000", "station": "RIO YAUCO AT YAUCO, PR", "begin": "1961-06-01", "end": "1961-12-31", "active": false, "drain_area_va": 36.4, "network": "USGS NWIS", "url": "https://waterdata.usgs.gov/monitoring-location/50127000" }, "geometry": { "type": "Point", "coordinates": [ -66.84073, 18.02191 ] } },
{ "type": "Feature", "properties": { "site_no": "50128000", "station": "RIO YAUCO NR YAUCO, PR", "begin": "1961-06-01", "end": "1985-01-22", "active": false, "drain_area_va": 45.5, "network": "USGS NWIS", "url": "https://waterdata.usgs.gov/monitoring-location/50128000" }, "geometry": { "type": "Point", "coordinates": [ -66.83156, 17.98663 ] } },
{ "type": "Feature", "properties": { "site_no": "50128905", "station": "CANAL DE RIEGO DE LAJAS BLW LAGO LOCO DAM YAUCO PR", "begin": "2000-03-07", "end": "2026-08-19", "active": true, "drain_area_va": null, "network": "USGS NWIS", "url": "https://waterdata.usgs.gov/monitoring-location/50128905" }, "geometry": { "type": "Point", "coordinates": [ -66.88856, 18.04304 ] } },
{ "type": "Feature", "properties": { "site_no": "50128907", "station": "LATERAL M5L, CANAL DE RIEGO DE LAJAS SABANA GRANDE", "begin": "2007-11-06", "end": "2026-08-19", "active": true, "drain_area_va": null, "network": "USGS NWIS", "url": "https://waterdata.usgs.gov/monitoring-location/50128907" }, "geometry": { "type": "Point", "coordinates": [ -66.89812, 18.03503 ] } },
{ "type": "Feature", "properties": { "site_no": "50128918", "station": "LATERAL M22L, CANAL DE RIEGO LAJAS, SABANA GRANDE", "begin": "2007-11-09", "end": "2010-09-30", "active": false, "drain_area_va": null, "network": "USGS NWIS", "url": "https://waterdata.usgs.gov/monitoring-location/50128918" }, "geometry": { "type": "Point", "coordinates": [ -66.94068, 18.041 ] } },
{ "type": "Feature", "properties": { "site_no": "50128920", "station": "CANAL DE RIEGO DE LAJAS ABV MAJINAS FILT. PLANT PR", "begin": "2005-11-03", "end": "2026-08-19", "active": true, "drain_area_va": null, "network": "USGS NWIS", "url": "https://waterdata.usgs.gov/monitoring-location/50128920" }, "geometry": { "type": "Point", "coordinates": [ -66.94914, 18.04587 ] } },
{ "type": "Feature", "properties": { "site_no": "50128925", "station": "CANAL DE RIEGO DE LAJAS BLW MAJINAS FILT. PLANT PR", "begin": "2005-11-03", "end": "2026-08-19", "active": true, "drain_area_va": null, "network": "USGS NWIS", "url": "https://waterdata.usgs.gov/monitoring-location/50128925" }, "geometry": { "type": "Point", "coordinates": [ -66.95009, 18.04457 ] } },
{ "type": "Feature", "properties": { "site_no": "50128933", "station": "CANAL RIEGO DE LAJAS ABV LAJAS FILTRATION PLANT", "begin": "2009-10-07", "end": "2026-08-19", "active": true, "drain_area_va": null, "network": "USGS NWIS", "url": "https://waterdata.usgs.gov/monitoring-location/50128933" }, "geometry": { "type": "Point", "coordinates": [ -67.05255, 18.04506 ] } },
{ "type": "Feature", "properties": { "site_no": "50128940", "station": "CANAL DE RIEGO DE LAJAS BLW LAJAS FILT PLANT LAJAS", "begin": "2004-10-01", "end": "2026-08-19", "active": true, "drain_area_va": null, "network": "USGS NWIS", "url": "https://waterdata.usgs.gov/monitoring-location/50128940" }, "geometry": { "type": "Point", "coordinates": [ -67.05529, 18.04534 ] } },
{ "type": "Feature", "properties": { "site_no": "50128945", "station": "CANAL DE RIEGO DE LAJAS AT BO. PALMAREJO NR LAJAS", "begin": "2001-01-30", "end": "2026-08-19", "active": true, "drain_area_va": null, "network": "USGS NWIS", "url": "https://waterdata.usgs.gov/monitoring-location/50128945" }, "geometry": { "type": "Point", "coordinates": [ -67.07897, 18.0392 ] } },
{ "type": "Feature", "properties": { "site_no": "50128948", "station": "CANAL DE RIEGO DE LAJAS AT BO. BETANCES, PR", "begin": "2016-10-01", "end": "2026-08-19", "active": true, "drain_area_va": null, "network": "USGS NWIS", "url": "https://waterdata.usgs.gov/monitoring-location/50128948" }, "geometry": { "type": "Point", "coordinates": [ -67.13214, 18.03879 ] } },
{ "type": "Feature", "properties": { "site_no": "50128950", "station": "CANAL DE RIEGO DE LAJAS NR BOQUERON, PR", "begin": "1980-08-01", "end": "1984-09-29", "active": false, "drain_area_va": null, "network": "USGS NWIS", "url": "https://waterdata.usgs.gov/monitoring-location/50128950" }, "geometry": { "type": "Point", "coordinates": [ -67.13907, 18.03524 ] } },
{ "type": "Feature", "properties": { "site_no": "50129000", "station": "RIO LOCO NR YAUCO, PR", "begin": "1963-01-01", "end": "1967-06-30", "active": false, "drain_area_va": 8.5, "network": "USGS NWIS", "url": "https://waterdata.usgs.gov/monitoring-location/50129000" }, "geometry": { "type": "Point", "coordinates": [ -66.88795, 18.03996 ] } },
{ "type": "Feature", "properties": { "site_no": "50129254", "station": "RIO LOCO AT LAS LATAS NR LA JOYA NR GUANICA, PR", "begin": "2006-12-21", "end": "2026-07-07", "active": true, "drain_area_va": null, "network": "USGS NWIS", "url": "https://waterdata.usgs.gov/monitoring-location/50129254" }, "geometry": { "type": "Point", "coordinates": [ -66.8767, 18.00916 ] } },
{ "type": "Feature", "properties": { "site_no": "50129300", "station": "LAJAS EAST DRAINAGE CANAL NR ENSENADA, PR", "begin": "1979-03-14", "end": "1983-07-11", "active": false, "drain_area_va": null, "network": "USGS NWIS", "url": "https://waterdata.usgs.gov/monitoring-location/50129300" }, "geometry": { "type": "Point", "coordinates": [ -66.97295, 18.00913 ] } },
{ "type": "Feature", "properties": { "site_no": "50129500", "station": "RIO LOCO NR GUANICA, PR", "begin": "1963-01-01", "end": "1968-12-31", "active": false, "drain_area_va": 21.0, "network": "USGS NWIS", "url": "https://waterdata.usgs.gov/monitoring-location/50129500" }, "geometry": { "type": "Point", "coordinates": [ -66.91601, 17.99191 ] } },
{ "type": "Feature", "properties": { "site_no": "50129900", "station": "LAGUNA CARTAGENA OUTFLOW NR BOQUERON, PR", "begin": "1984-06-05", "end": "1985-11-12", "active": false, "drain_area_va": null, "network": "USGS NWIS", "url": "https://waterdata.usgs.gov/monitoring-location/50129900" }, "geometry": { "type": "Point", "coordinates": [ -67.10907, 18.01246 ] } },
{ "type": "Feature", "properties": { "site_no": "50130320", "station": "QUEBRADA MAMEY AT JOYUDA, PR", "begin": "1985-11-26", "end": "1988-09-30", "active": false, "drain_area_va": 0.38, "network": "USGS NWIS", "url": "https://waterdata.usgs.gov/monitoring-location/50130320" }, "geometry": { "type": "Point", "coordinates": [ -67.16879, 18.12885 ] } },
{ "type": "Feature", "properties": { "site_no": "50131990", "station": "RIO GUANAJIBO AT HWY 119 AT SAN GERMAN, PR", "begin": "1991-04-17", "end": "2002-09-30", "active": false, "drain_area_va": 35.4, "network": "USGS NWIS", "url": "https://waterdata.usgs.gov/monitoring-location/50131990" }, "geometry": { "type": "Point", "coordinates": [ -67.03222, 18.08278 ] } },
{ "type": "Feature", "properties": { "site_no": "50133800", "station": "RIO DUEY NR ROSARIO, PR", "begin": "1960-07-01", "end": "1965-01-31", "active": false, "drain_area_va": 4.17, "network": "USGS NWIS", "url": "https://waterdata.usgs.gov/monitoring-location/50133800" }, "geometry": { "type": "Point", "coordinates": [ -67.05379, 18.14718 ] } },
{ "type": "Feature", "properties": { "site_no": "50136000", "station": "RIO ROSARIO AT ROSARIO, PR", "begin": "1960-06-01", "end": "1986-09-30", "active": false, "drain_area_va": 17.6, "network": "USGS NWIS", "url": "https://waterdata.usgs.gov/monitoring-location/50136000" }, "geometry": { "type": "Point", "coordinates": [ -67.0749, 18.17079 ] } },
{ "type": "Feature", "properties": { "site_no": "50136400", "station": "RIO ROSARIO NR HORMIGUEROS, PR", "begin": "1985-10-01", "end": "2026-08-19", "active": true, "drain_area_va": 18.3, "network": "USGS NWIS", "url": "https://waterdata.usgs.gov/monitoring-location/50136400" }, "geometry": { "type": "Point", "coordinates": [ -67.08576, 18.16009 ] } },
{ "type": "Feature", "properties": { "site_no": "50138000", "station": "RIO GUANAJIBO NR HORMIGUEROS, PR", "begin": "1973-01-01", "end": "2026-08-19", "active": true, "drain_area_va": 120.0, "network": "USGS NWIS", "url": "https://waterdata.usgs.gov/monitoring-location/50138000" }, "geometry": { "type": "Point", "coordinates": [ -67.14875, 18.14268 ] } },
{ "type": "Feature", "properties": { "site_no": "50141000", "station": "RIO BLANCO NR ADJUNTAS, PR", "begin": "1946-07-01", "end": "1985-01-31", "active": false, "drain_area_va": 15.4, "network": "USGS NWIS", "url": "https://waterdata.usgs.gov/monitoring-location/50141000" }, "geometry": { "type": "Point", "coordinates": [ -66.7999, 18.20329 ] } },
{ "type": "Feature", "properties": { "site_no": "50141600", "station": "RIO GUAYO AT MOUTH NR LARES, PR", "begin": "1948-12-01", "end": "1954-01-31", "active": false, "drain_area_va": 10.1, "network": "USGS NWIS", "url": "https://waterdata.usgs.gov/monitoring-location/50141600" }, "geometry": { "type": "Point", "coordinates": [ -66.83184, 18.22107 ] } },
{ "type": "Feature", "properties": { "site_no": "50142700", "station": "RIO PRIETO NR LARES, PR", "begin": "1949-10-01", "end": "1957-09-29", "active": false, "drain_area_va": 14.2, "network": "USGS NWIS", "url": "https://waterdata.usgs.gov/monitoring-location/50142700" }, "geometry": { "type": "Point", "coordinates": [ -66.88157, 18.19523 ] } },
{ "type": "Feature", "properties": { "site_no": "50143930", "station": "RIO GRANDE DE ANASCO AT BO. GUACIO, PR", "begin": "2003-07-23", "end": "2013-09-29", "active": false, "drain_area_va": 125.0, "network": "USGS NWIS", "url": "https://waterdata.usgs.gov/monitoring-location/50143930" }, "geometry": { "type": "Point", "coordinates": [ -67.01462, 18.27801 ] } },
{ "type": "Feature", "properties": { "site_no": "50144000", "station": "RIO GRANDE DE ANASCO NR SAN SEBASTIAN, PR", "begin": "1963-04-01", "end": "2026-08-19", "active": true, "drain_area_va": 134.0, "network": "USGS NWIS", "url": "https://waterdata.usgs.gov/monitoring-location/50144000" }, "geometry": { "type": "Point", "coordinates": [ -67.05096, 18.28417 ] } },
{ "type": "Feature", "properties": { "site_no": "50145000", "station": "RIO GRANDE DE ANASCO AT EL ESPINO, PR", "begin": "1959-12-01", "end": "1966-12-31", "active": false, "drain_area_va": 148.0, "network": "USGS NWIS", "url": "https://waterdata.usgs.gov/monitoring-location/50145000" }, "geometry": { "type": "Point", "coordinates": [ -67.1124, 18.27856 ] } },
{ "type": "Feature", "properties": { "site_no": "50145395", "station": "RIO CASEI ABV HACIENDA CASEI, PR", "begin": "2003-10-01", "end": "2013-09-29", "active": false, "drain_area_va": 7.41, "network": "USGS NWIS", "url": "https://waterdata.usgs.gov/monitoring-location/50145395" }, "geometry": { "type": "Point", "coordinates": [ -67.07538, 18.24848 ] } },
{ "type": "Feature", "properties": { "site_no": "50147800", "station": "RIO CULEBRINAS AT HWY 404 NR MOCA, PR", "begin": "1967-07-12", "end": "2026-08-19", "active": true, "drain_area_va": 71.2, "network": "USGS NWIS", "url": "https://waterdata.usgs.gov/monitoring-location/50147800" }, "geometry": { "type": "Point", "coordinates": [ -67.09254, 18.36174 ] } },
{ "type": "Feature", "properties": { "site_no": "50148890", "station": "RIO CULEBRINAS AT MARGARITA DAMSITE NR AGUADA, PR", "begin": "1998-07-16", "end": "2026-08-19", "active": true, "drain_area_va": 94.6, "network": "USGS NWIS", "url": "https://waterdata.usgs.gov/monitoring-location/50148890" }, "geometry": { "type": "Point", "coordinates": [ -67.1512, 18.3945 ] } },
{ "type": "Feature", "properties": { "site_no": "50214500", "station": "QUEBRADA RESACA NR MONTE RESACA, CULEBRA PR", "begin": "1991-10-08", "end": "1993-09-30", "active": false, "drain_area_va": 0.238, "network": "USGS NWIS", "url": "https://waterdata.usgs.gov/monitoring-location/50214500" }, "geometry": { "type": "Point", "coordinates": [ -65.30238, 18.31773 ] } },
{ "type": "Feature", "properties": { "site_no": "50215000", "station": "DRAINGAGE CANAL AT CULEBRA AIRPORT, CULEBRA PR", "begin": "1991-10-10", "end": "1994-04-13", "active": false, "drain_area_va": 0.1, "network": "USGS NWIS", "url": "https://waterdata.usgs.gov/monitoring-location/50215000" }, "geometry": { "type": "Point", "coordinates": [ -65.30849, 18.31634 ] } },
{ "type": "Feature", "properties": { "site_no": "50231000", "station": "QDA COFRESI TRIBUTARY NR ISABEL SEGUNDA VIEQUES PR", "begin": "1991-07-23", "end": "1993-09-30", "active": false, "drain_area_va": 0.28, "network": "USGS NWIS", "url": "https://waterdata.usgs.gov/monitoring-location/50231000" }, "geometry": { "type": "Point", "coordinates": [ -65.4346, 18.13719 ] } },
{ "type": "Feature", "properties": { "site_no": "50232000", "station": "QUEBRADA LA MINA NR LA ESPERANZA, VIEQUES, PR", "begin": "1991-07-24", "end": "1995-06-19", "active": false, "drain_area_va": 0.68, "network": "USGS NWIS", "url": "https://waterdata.usgs.gov/monitoring-location/50232000" }, "geometry": { "type": "Point", "coordinates": [ -65.47044, 18.11302 ] } },
{ "type": "Feature", "properties": { "site_no": "50233000", "station": "QUEBRADA PILON AT COLONIA PUERTO REAL, VIEQUES PR", "begin": "1991-07-25", "end": "1995-09-30", "active": false, "drain_area_va": 0.67, "network": "USGS NWIS", "url": "https://waterdata.usgs.gov/monitoring-location/50233000" }, "geometry": { "type": "Point", "coordinates": [ -65.48044, 18.1083 ] } }
]
}
