{
"type": "FeatureCollection",
"name": "geology_faults",
"crs": { "type": "name", "properties": { "name": "urn:ogc:def:crs:OGC:1.3:CRS84" } },
"xy_coordinate_resolution": 1e-05,
"features": [
{ "type": "Feature", "properties": { "lntype": "7" }, "geometry": { "type": "LineString", "coordinates": [ [ -67.02849, 18.29891 ], [ -67.03047, 18.30008 ], [ -67.03196, 18.30015 ], [ -67.03557, 18.30268 ], [ -67.03815, 18.30372 ] ] } },
{ "type": "Feature", "properties": { "lntype": "7" }, "geometry": { "type": "LineString", "coordinates": [ [ -66.99008, 18.27959 ], [ -66.99701, 18.28011 ], [ -66.99919, 18.28109 ], [ -67.00184, 18.2831 ], [ -67.00619, 18.28453 ], [ -67.01374, 18.28492 ], [ -67.01551, 18.28589 ], [ -67.01809, 18.2892 ], [ -67.0255, 18.2907 ], [ -67.02795, 18.2919 ] ] } },
{ "type": "Feature", "properties": { "lntype": "27" }, "geometry": { "type": "LineString", "coordinates": [ [ -67.14046, 18.12451 ], [ -67.13503, 18.12459 ] ] } },
{ "type": "Feature", "properties": { "lntype": "27" }, "geometry": { "type": "LineString", "coordinates": [ [ -67.12206, 18.08999 ], [ -67.11924, 18.09262 ] ] } },
{ "type": "Feature", "properties": { "lntype": "27" }, "geometry": { "type": "LineString", "coordinates": [ [ -67.1016, 18.08552 ], [ -67.10376, 18.08772 ], [ -67.10466, 18.08914 ] ] } },
{ "type": "Feature", "properties": { "lntype": "7" }, "geometry": { "type": "LineString", "coordinates": [ [ -67.02849, 18.29891 ], [ -67.02611, 18.2981 ], [ -67.02339, 18.29784 ], [ -67.02224, 18.29687 ], [ -67.02169, 18.29687 ], [ -67.0202, 18.2955 ], [ -67.01952, 18.2957 ], [ -67.01829, 18.29479 ], [ -67.01714, 18.2944 ], [ -67.01578, 18.29323 ], [ -67.01394, 18.29271 ], [ -67.01292, 18.29206 ], [ -67.0119, 18.29239 ], [ -67.01041, 18.29187 ], [ -67.00871, 18.29304 ], [ -67.0068, 18.29278 ], [ -67.00524, 18.2933 ], [ -67.00415, 18.29414 ], [ -67.00313, 18.29395 ], [ -67.00265, 18.29317 ], [ -67.0017, 18.2931 ], [ -67.00021, 18.29193 ], [ -66.99919, 18.29187 ], [ -66.99708, 18.29018 ], [ -66.99592, 18.28985 ], [ -66.9915, 18.28544 ], [ -66.99001, 18.28355 ], [ -66.98865, 18.28232 ], [ -66.98661, 18.28122 ] ] } },
{ "type": "Feature", "properties": { "lntype": "7" }, "geometry": { "type": "LineString", "coordinates": [ [ -67.00891, 18.29304 ], [ -67.00918, 18.2944 ], [ -67.00905, 18.29492 ], [ -67.00735, 18.29401 ], [ -67.00687, 18.29284 ] ] } },
{ "type": "Feature", "properties": { "lntype": "7" }, "geometry": { "type": "LineString", "coordinates": [ [ -67.0136, 18.29395 ], [ -67.01149, 18.29492 ], [ -67.01122, 18.29362 ], [ -67.01047, 18.2931 ], [ -67.01088, 18.292 ] ] } },
{ "type": "Feature", "properties": { "lntype": "7" }, "geometry": { "type": "LineString", "coordinates": [ [ -66.92543, 18.25616 ], [ -66.93345, 18.26026 ], [ -66.93875, 18.2624 ] ] } },
{ "type": "Feature", "properties": { "lntype": "7" }, "geometry": { "type": "LineString", "coordinates": [ [ -66.93848, 18.26331 ], [ -66.94113, 18.26448 ] ] } },
{ "type": "Feature", "properties": { "lntype": "7" }, "geometry": { "type": "LineString", "coordinates": [ [ -66.94296, 18.26377 ], [ -66.9486, 18.26669 ] ] } },
{ "type": "Feature", "properties": { "lntype": "7" }, "geometry": { "type": "LineString", "coordinates": [ [ -66.95255, 18.26936 ], [ -66.95608, 18.27085 ] ] } },
{ "type": "Feature", "properties": { "lntype": "7" }, "geometry": { "type": "LineString", "coordinates": [ [ -66.96057, 18.27176 ], [ -66.97138, 18.27702 ], [ -66.97294, 18.278 ], [ -66.97627, 18.27897 ], [ -66.98069, 18.27865 ], [ -66.98396, 18.27878 ], [ -66.98804, 18.27936 ], [ -66.99756, 18.28008 ] ] } },
{ "type": "Feature", "properties": { "lntype": "7" }, "geometry": { "type": "LineString", "coordinates": [ [ -66.90599, 18.24508 ], [ -66.90707, 18.2469 ], [ -66.91136, 18.24937 ], [ -66.92012, 18.25392 ], [ -66.92543, 18.25616 ] ] } },
{ "type": "Feature", "properties": { "lntype": "27" }, "geometry": { "type": "LineString", "coordinates": [ [ -66.86197, 18.09633 ], [ -66.86001, 18.0969 ] ] } },
{ "type": "Feature", "properties": { "lntype": "27" }, "geometry": { "type": "LineString", "coordinates": [ [ -66.97783, 18.12342 ], [ -66.97433, 18.12101 ] ] } },
{ "type": "Feature", "properties": { "lntype": "27" }, "geometry": { "type": "LineString", "coordinates": [ [ -66.97068, 18.12335 ], [ -66.96607, 18.11716 ] ] } },
{ "type": "Feature", "properties": { "lntype": "27" }, "geometry": { "type": "LineString", "coordinates": [ [ -66.92381, 18.12348 ], [ -66.92143, 18.12128 ], [ -66.92032, 18.11907 ], [ -66.91891, 18.11338 ] ] } },
{ "type": "Feature", "properties": { "lntype": "7" }, "geometry": { "type": "LineString", "coordinates": [ [ -66.88839, 17.99162 ], [ -66.89255, 17.99295 ], [ -66.90337, 17.99455 ], [ -66.90475, 17.99508 ], [ -66.9128, 17.99694 ], [ -66.9311, 18.00013 ], [ -66.94885, 18.002 ], [ -66.9594, 18.00147 ], [ -66.9691, 17.99988 ], [ -66.98658, 17.99908 ], [ -67.00156, 17.99988 ], [ -67.02846, 18.002 ], [ -67.04289, 18.00412 ], [ -67.05287, 18.00677 ], [ -67.07257, 18.00862 ], [ -67.08006, 18.00889 ], [ -67.08866, 18.01021 ], [ -67.10364, 18.00994 ], [ -67.11418, 18.0086 ], [ -67.12416, 18.0078 ], [ -67.15135, 18.00354 ], [ -67.16438, 18.00326 ] ] } },
{ "type": "Feature", "properties": { "lntype": "7" }, "geometry": { "type": "LineString", "coordinates": [ [ -66.87279, 17.98957 ], [ -66.88701, 17.99003 ] ] } },
{ "type": "Feature", "properties": { "lntype": "7" }, "geometry": { "type": "LineString", "coordinates": [ [ -67.10908, 18.28346 ], [ -67.11769, 18.28664 ], [ -67.12686, 18.28875 ], [ -67.1377, 18.29193 ], [ -67.15049, 18.29484 ], [ -67.15854, 18.29616 ], [ -67.17411, 18.29721 ], [ -67.18411, 18.29614 ], [ -67.19244, 18.2956 ], [ -67.20161, 18.29426 ] ] } },
{ "type": "Feature", "properties": { "lntype": "7" }, "geometry": { "type": "LineString", "coordinates": [ [ -67.09596, 18.31208 ], [ -67.0997, 18.31377 ] ] } },
{ "type": "Feature", "properties": { "lntype": "7" }, "geometry": { "type": "LineString", "coordinates": [ [ -67.02795, 18.2919 ], [ -67.02836, 18.29307 ], [ -67.02972, 18.29489 ], [ -67.0323, 18.29937 ], [ -67.03278, 18.29976 ], [ -67.03489, 18.30028 ], [ -67.03652, 18.30106 ], [ -67.04019, 18.30145 ], [ -67.04203, 18.30138 ], [ -67.0442, 18.30066 ], [ -67.04543, 18.29917 ], [ -67.04726, 18.29787 ], [ -67.05039, 18.29845 ], [ -67.05447, 18.30079 ], [ -67.05862, 18.30267 ], [ -67.06318, 18.30391 ], [ -67.06712, 18.30449 ], [ -67.07385, 18.30663 ], [ -67.07569, 18.30754 ], [ -67.07658, 18.30949 ], [ -67.081, 18.31306 ], [ -67.08324, 18.31312 ], [ -67.0848, 18.31228 ], [ -67.0861, 18.31221 ] ] } },
{ "type": "Feature", "properties": { "lntype": "27" }, "geometry": { "type": "LineString", "coordinates": [ [ -67.13935, 18.12373 ], [ -67.13533, 18.12288 ] ] } },
{ "type": "Feature", "properties": { "lntype": "27" }, "geometry": { "type": "LineString", "coordinates": [ [ -66.98757, 18.12328 ], [ -66.98311, 18.12058 ] ] } },
{ "type": "Feature", "properties": { "lntype": "7" }, "geometry": { "type": "LineString", "coordinates": [ [ -67.05842, 18.30995 ], [ -67.05896, 18.30703 ], [ -67.05753, 18.30534 ], [ -67.05604, 18.30475 ], [ -67.05434, 18.30475 ], [ -67.0525, 18.30404 ], [ -67.05114, 18.30424 ], [ -67.05046, 18.30378 ], [ -67.04944, 18.30372 ], [ -67.04862, 18.30326 ], [ -67.04774, 18.30346 ], [ -67.04692, 18.30281 ], [ -67.04509, 18.30235 ] ] } },
{ "type": "Feature", "properties": { "lntype": "27" }, "geometry": { "type": "LineString", "coordinates": [ [ -67.08033, 18.08424 ], [ -67.08182, 18.08517 ], [ -67.08308, 18.0846 ], [ -67.08717, 18.08453 ], [ -67.08963, 18.08517 ], [ -67.09246, 18.0868 ] ] } },
{ "type": "Feature", "properties": { "lntype": "27" }, "geometry": { "type": "LineString", "coordinates": [ [ -67.06137, 18.10641 ], [ -67.06695, 18.10179 ] ] } },
{ "type": "Feature", "properties": { "lntype": "27" }, "geometry": { "type": "LineString", "coordinates": [ [ -66.98735, 18.11788 ], [ -66.97984, 18.11311 ] ] } },
{ "type": "Feature", "properties": { "lntype": "27" }, "geometry": { "type": "LineString", "coordinates": [ [ -67.08388, 18.04985 ], [ -67.07748, 18.03775 ] ] } },
{ "type": "Feature", "properties": { "lntype": "27" }, "geometry": { "type": "LineString", "coordinates": [ [ -67.10076, 18.04913 ], [ -67.11095, 18.03987 ] ] } },
{ "type": "Feature", "properties": { "lntype": "27" }, "geometry": { "type": "LineString", "coordinates": [ [ -67.10411, 18.03988 ], [ -67.10559, 18.03703 ] ] } },
{ "type": "Feature", "properties": { "lntype": "27" }, "geometry": { "type": "LineString", "coordinates": [ [ -67.11415, 18.0467 ], [ -67.11214, 18.04144 ], [ -67.10879, 18.03667 ] ] } },
{ "type": "Feature", "properties": { "lntype": "27" }, "geometry": { "type": "LineString", "coordinates": [ [ -67.12225, 18.03542 ], [ -67.12098, 18.02966 ] ] } },
{ "type": "Feature", "properties": { "lntype": "27" }, "geometry": { "type": "LineString", "coordinates": [ [ -67.15965, 18.03856 ], [ -67.16114, 18.03528 ] ] } },
{ "type": "Feature", "properties": { "lntype": "27" }, "geometry": { "type": "LineString", "coordinates": [ [ -66.86982, 18.09379 ], [ -66.86193, 18.09634 ] ] } },
{ "type": "Feature", "properties": { "lntype": "27" }, "geometry": { "type": "LineString", "coordinates": [ [ -67.13305, 18.15468 ], [ -67.14405, 18.14728 ] ] } },
{ "type": "Feature", "properties": { "lntype": "7" }, "geometry": { "type": "LineString", "coordinates": [ [ -67.10854, 18.31357 ], [ -67.10772, 18.31331 ], [ -67.10582, 18.31337 ], [ -67.10344, 18.31376 ], [ -67.1012, 18.31435 ], [ -67.10038, 18.31539 ], [ -67.09848, 18.31591 ], [ -67.09474, 18.31565 ], [ -67.09338, 18.31643 ], [ -67.09208, 18.31624 ], [ -67.09113, 18.31637 ], [ -67.08984, 18.31728 ], [ -67.08685, 18.31585 ], [ -67.08487, 18.31546 ], [ -67.081, 18.31579 ], [ -67.0793, 18.31462 ], [ -67.07542, 18.31456 ], [ -67.07243, 18.31306 ], [ -67.0712, 18.3128 ], [ -67.06944, 18.31157 ], [ -67.06828, 18.31196 ], [ -67.06699, 18.31177 ], [ -67.06536, 18.31235 ], [ -67.0644, 18.31196 ], [ -67.06243, 18.31047 ], [ -67.06053, 18.31053 ], [ -67.05957, 18.31112 ], [ -67.05828, 18.31053 ], [ -67.05733, 18.30937 ], [ -67.05624, 18.30891 ], [ -67.05488, 18.30872 ], [ -67.05427, 18.30735 ] ] } },
{ "type": "Feature", "properties": { "lntype": "7" }, "geometry": { "type": "LineString", "coordinates": [ [ -67.09378, 18.31403 ], [ -67.0914, 18.31422 ] ] } },
{ "type": "Feature", "properties": { "lntype": "7" }, "geometry": { "type": "LineString", "coordinates": [ [ -67.09691, 18.31435 ], [ -67.09378, 18.31403 ] ] } },
{ "type": "Feature", "properties": { "lntype": "7" }, "geometry": { "type": "LineString", "coordinates": [ [ -67.10874, 18.31162 ], [ -67.10793, 18.31155 ], [ -67.10459, 18.31266 ], [ -67.10133, 18.31253 ] ] } },
{ "type": "Feature", "properties": { "lntype": "27" }, "geometry": { "type": "LineString", "coordinates": [ [ -67.07345, 17.98618 ], [ -67.06021, 17.98056 ], [ -67.05315, 17.97821 ], [ -67.05092, 17.97793 ] ] } },
{ "type": "Feature", "properties": { "lntype": "27" }, "geometry": { "type": "LineString", "coordinates": [ [ -66.97427, 17.98498 ], [ -66.94209, 17.97145 ] ] } },
{ "type": "Feature", "properties": { "lntype": "27" }, "geometry": { "type": "LineString", "coordinates": [ [ -66.97643, 17.98882 ], [ -66.96416, 17.98092 ], [ -66.95896, 17.97267 ] ] } },
{ "type": "Feature", "properties": { "lntype": "27" }, "geometry": { "type": "LineString", "coordinates": [ [ -66.9403, 17.97387 ], [ -66.94952, 17.97452 ] ] } },
{ "type": "Feature", "properties": { "lntype": "27" }, "geometry": { "type": "LineString", "coordinates": [ [ -66.94335, 17.97793 ], [ -66.94952, 17.97452 ] ] } },
{ "type": "Feature", "properties": { "lntype": "27" }, "geometry": { "type": "LineString", "coordinates": [ [ -66.95598, 17.98939 ], [ -66.95569, 17.98626 ] ] } },
{ "type": "Feature", "properties": { "lntype": "27" }, "geometry": { "type": "LineString", "coordinates": [ [ -66.93524, 17.99208 ], [ -66.91353, 17.99179 ] ] } },
{ "type": "Feature", "properties": { "lntype": "27" }, "geometry": { "type": "LineString", "coordinates": [ [ -66.92208, 17.99194 ], [ -66.92862, 17.99955 ] ] } },
{ "type": "Feature", "properties": { "lntype": "27" }, "geometry": { "type": "LineString", "coordinates": [ [ -66.93673, 17.98077 ], [ -66.92387, 17.98525 ] ] } },
{ "type": "Feature", "properties": { "lntype": "27" }, "geometry": { "type": "LineString", "coordinates": [ [ -66.88336, 17.98096 ], [ -66.88722, 17.97947 ], [ -66.90455, 17.97699 ] ] } },
{ "type": "Feature", "properties": { "lntype": "27" }, "geometry": { "type": "LineString", "coordinates": [ [ -66.8916, 17.98957 ], [ -66.89934, 17.9868 ] ] } },
{ "type": "Feature", "properties": { "lntype": "27" }, "geometry": { "type": "LineString", "coordinates": [ [ -66.95158, 18.042 ], [ -66.95196, 18.03275 ] ] } },
{ "type": "Feature", "properties": { "lntype": "27" }, "geometry": { "type": "LineString", "coordinates": [ [ -66.95991, 18.03716 ], [ -66.95679, 18.03645 ] ] } },
{ "type": "Feature", "properties": { "lntype": "27" }, "geometry": { "type": "LineString", "coordinates": [ [ -66.95992, 18.03446 ], [ -66.95694, 18.03161 ] ] } },
{ "type": "Feature", "properties": { "lntype": "27" }, "geometry": { "type": "LineString", "coordinates": [ [ -67.01227, 18.04204 ], [ -67.02015, 18.03784 ] ] } },
{ "type": "Feature", "properties": { "lntype": "27" }, "geometry": { "type": "LineString", "coordinates": [ [ -67.0197, 18.04467 ], [ -67.02662, 18.04218 ] ] } },
{ "type": "Feature", "properties": { "lntype": "27" }, "geometry": { "type": "LineString", "coordinates": [ [ -67.04566, 18.04499 ], [ -67.04343, 18.04136 ], [ -67.02788, 18.03012 ] ] } },
{ "type": "Feature", "properties": { "lntype": "27" }, "geometry": { "type": "LineString", "coordinates": [ [ -67.04863, 18.04349 ], [ -67.05079, 18.03773 ] ] } },
{ "type": "Feature", "properties": { "lntype": "27" }, "geometry": { "type": "LineString", "coordinates": [ [ -67.06968, 18.04284 ], [ -67.06975, 18.03637 ] ] } },
{ "type": "Feature", "properties": { "lntype": "27" }, "geometry": { "type": "LineString", "coordinates": [ [ -67.07451, 18.04288 ], [ -67.07592, 18.03953 ], [ -67.07622, 18.0364 ] ] } },
{ "type": "Feature", "properties": { "lntype": "27" }, "geometry": { "type": "LineString", "coordinates": [ [ -67.15262, 18.06873 ], [ -67.15373, 18.06211 ] ] } },
{ "type": "Feature", "properties": { "lntype": "27" }, "geometry": { "type": "LineString", "coordinates": [ [ -67.15103, 18.12607 ], [ -67.15237, 18.12422 ] ] } },
{ "type": "Feature", "properties": { "lntype": "27" }, "geometry": { "type": "LineString", "coordinates": [ [ -67.14195, 18.12757 ], [ -67.14136, 18.13056 ] ] } },
{ "type": "Feature", "properties": { "lntype": "27" }, "geometry": { "type": "LineString", "coordinates": [ [ -66.98147, 18.12335 ], [ -66.97835, 18.11994 ] ] } },
{ "type": "Feature", "properties": { "lntype": "27" }, "geometry": { "type": "LineString", "coordinates": [ [ -67.14071, 18.14941 ], [ -67.14667, 18.16257 ], [ -67.14921, 18.17452 ] ] } },
{ "type": "Feature", "properties": { "lntype": "27" }, "geometry": { "type": "LineString", "coordinates": [ [ -67.1478, 18.17289 ], [ -67.15495, 18.18028 ] ] } },
{ "type": "Feature", "properties": { "lntype": "27" }, "geometry": { "type": "LineString", "coordinates": [ [ -67.14073, 18.18171 ], [ -67.13954, 18.18555 ], [ -67.1391, 18.18854 ] ] } },
{ "type": "Feature", "properties": { "lntype": "27" }, "geometry": { "type": "LineString", "coordinates": [ [ -67.14208, 18.19103 ], [ -67.14476, 18.19316 ], [ -67.14528, 18.19387 ] ] } },
{ "type": "Feature", "properties": { "lntype": "27" }, "geometry": { "type": "LineString", "coordinates": [ [ -67.13866, 18.19295 ], [ -67.14246, 18.19551 ] ] } },
{ "type": "Feature", "properties": { "lntype": "27" }, "geometry": { "type": "LineString", "coordinates": [ [ -67.16363, 18.23598 ], [ -67.17153, 18.24017 ] ] } },
{ "type": "Feature", "properties": { "lntype": "27" }, "geometry": { "type": "LineString", "coordinates": [ [ -67.15694, 18.24025 ], [ -67.16632, 18.24494 ] ] } },
{ "type": "Feature", "properties": { "lntype": "27" }, "geometry": { "type": "LineString", "coordinates": [ [ -67.09821, 18.27149 ], [ -67.12584, 18.26998 ] ] } },
{ "type": "Feature", "properties": { "lntype": "27" }, "geometry": { "type": "LineString", "coordinates": [ [ -67.06679, 18.27538 ], [ -67.07029, 18.27929 ], [ -67.07156, 18.28242 ] ] } },
{ "type": "Feature", "properties": { "lntype": "27" }, "geometry": { "type": "LineString", "coordinates": [ [ -67.05503, 18.28281 ], [ -67.05227, 18.28082 ] ] } },
{ "type": "Feature", "properties": { "lntype": "27" }, "geometry": { "type": "LineString", "coordinates": [ [ -67.05607, 18.28146 ], [ -67.05227, 18.28082 ] ] } },
{ "type": "Feature", "properties": { "lntype": "27" }, "geometry": { "type": "LineString", "coordinates": [ [ -67.05227, 18.28082 ], [ -67.04363, 18.28019 ] ] } },
{ "type": "Feature", "properties": { "lntype": "27" }, "geometry": { "type": "LineString", "coordinates": [ [ -67.0347, 18.27969 ], [ -67.0245, 18.27869 ] ] } },
{ "type": "Feature", "properties": { "lntype": "27" }, "geometry": { "type": "LineString", "coordinates": [ [ -67.01668, 18.27685 ], [ -67.02219, 18.28247 ] ] } },
{ "type": "Feature", "properties": { "lntype": "27" }, "geometry": { "type": "LineString", "coordinates": [ [ -67.01779, 18.27653 ], [ -67.0029, 18.27895 ] ] } },
{ "type": "Feature", "properties": { "lntype": "27" }, "geometry": { "type": "LineString", "coordinates": [ [ -67.08865, 18.35707 ], [ -67.08426, 18.36604 ] ] } },
{ "type": "Feature", "properties": { "lntype": "27" }, "geometry": { "type": "LineString", "coordinates": [ [ -67.07569, 18.3585 ], [ -67.07331, 18.3627 ] ] } },
{ "type": "Feature", "properties": { "lntype": "27" }, "geometry": { "type": "LineString", "coordinates": [ [ -67.06995, 18.35893 ], [ -67.07152, 18.36299 ] ] } },
{ "type": "Feature", "properties": { "lntype": "27" }, "geometry": { "type": "LineString", "coordinates": [ [ -67.13875, 18.40062 ], [ -67.13859, 18.39315 ] ] } },
{ "type": "Feature", "properties": { "lntype": "27" }, "geometry": { "type": "LineString", "coordinates": [ [ -67.12605, 18.35776 ], [ -67.1259, 18.3621 ] ] } },
{ "type": "Feature", "properties": { "lntype": "27" }, "geometry": { "type": "LineString", "coordinates": [ [ -67.12262, 18.35983 ], [ -67.13008, 18.36523 ] ] } },
{ "type": "Feature", "properties": { "lntype": "27" }, "geometry": { "type": "LineString", "coordinates": [ [ -67.22375, 18.32097 ], [ -67.24066, 18.32386 ] ] } },
{ "type": "Feature", "properties": { "lntype": "27" }, "geometry": { "type": "LineString", "coordinates": [ [ -66.83185, 17.98666 ], [ -66.82028, 17.98563 ], [ -66.81424, 17.98563 ] ] } },
{ "type": "Feature", "properties": { "lntype": "27" }, "geometry": { "type": "LineString", "coordinates": [ [ -67.16438, 18.00326 ], [ -67.17253, 18.00304 ], [ -67.18041, 18.00322 ], [ -67.18335, 18.00377 ], [ -67.18695, 18.00363 ], [ -67.19099, 18.00279 ], [ -67.19993, 18.00044 ] ] } },
{ "type": "Feature", "properties": { "lntype": "7" }, "geometry": { "type": "LineString", "coordinates": [ [ -66.80601, 17.96949 ], [ -66.81255, 17.97615 ], [ -66.81668, 17.97943 ], [ -66.82312, 17.98358 ], [ -66.82776, 17.98571 ], [ -66.85013, 17.98833 ], [ -66.8594, 17.98911 ], [ -66.87279, 17.98957 ] ] } },
{ "type": "Feature", "properties": { "lntype": "27" }, "geometry": { "type": "LineString", "coordinates": [ [ -66.84271, 17.98783 ], [ -66.8324, 18.00263 ] ] } },
{ "type": "Feature", "properties": { "lntype": "27" }, "geometry": { "type": "LineString", "coordinates": [ [ -66.82397, 17.98204 ], [ -66.8141, 17.98393 ] ] } },
{ "type": "Feature", "properties": { "lntype": "27" }, "geometry": { "type": "LineString", "coordinates": [ [ -66.84482, 18.00838 ], [ -66.83282, 18.0136 ] ] } },
{ "type": "Feature", "properties": { "lntype": "27" }, "geometry": { "type": "LineString", "coordinates": [ [ -66.87463, 18.00619 ], [ -66.87762, 18.00381 ] ] } },
{ "type": "Feature", "properties": { "lntype": "27" }, "geometry": { "type": "LineString", "coordinates": [ [ -66.86534, 18.00401 ], [ -66.87151, 18.00164 ], [ -66.87526, 17.99901 ] ] } },
{ "type": "Feature", "properties": { "lntype": "27" }, "geometry": { "type": "LineString", "coordinates": [ [ -66.85857, 18.03909 ], [ -66.85105, 18.02523 ] ] } },
{ "type": "Feature", "properties": { "lntype": "27" }, "geometry": { "type": "LineString", "coordinates": [ [ -66.85311, 18.02903 ], [ -66.83755, 18.03221 ] ] } },
{ "type": "Feature", "properties": { "lntype": "27" }, "geometry": { "type": "LineString", "coordinates": [ [ -66.85857, 18.03909 ], [ -66.85168, 18.04228 ] ] } },
{ "type": "Feature", "properties": { "lntype": "27" }, "geometry": { "type": "LineString", "coordinates": [ [ -66.85571, 18.05464 ], [ -66.84542, 18.05076 ], [ -66.8374, 18.04879 ] ] } },
{ "type": "Feature", "properties": { "lntype": "27" }, "geometry": { "type": "LineString", "coordinates": [ [ -66.85608, 18.04286 ], [ -66.85508, 18.04075 ] ] } },
{ "type": "Feature", "properties": { "lntype": "27" }, "geometry": { "type": "LineString", "coordinates": [ [ -66.86996, 18.09371 ], [ -66.86995, 18.10709 ] ] } },
{ "type": "Feature", "properties": { "lntype": "27" }, "geometry": { "type": "LineString", "coordinates": [ [ -66.87251, 18.09942 ], [ -66.86995, 18.10709 ] ] } },
{ "type": "Feature", "properties": { "lntype": "27" }, "geometry": { "type": "LineString", "coordinates": [ [ -66.79703, 18.01625 ], [ -66.79865, 18.03004 ], [ -66.79892, 18.04084 ] ] } },
{ "type": "Feature", "properties": { "lntype": "27" }, "geometry": { "type": "LineString", "coordinates": [ [ -66.87526, 17.99901 ], [ -66.87859, 17.99583 ] ] } },
{ "type": "Feature", "properties": { "lntype": "27" }, "geometry": { "type": "LineString", "coordinates": [ [ -65.66037, 18.34189 ], [ -65.65143, 18.33542 ] ] } },
{ "type": "Feature", "properties": { "lntype": "27" }, "geometry": { "type": "LineString", "coordinates": [ [ -66.05309, 17.9972 ], [ -66.06328, 17.99123 ] ] } },
{ "type": "Feature", "properties": { "lntype": "27" }, "geometry": { "type": "LineString", "coordinates": [ [ -66.03287, 18.00813 ], [ -66.02074, 18.01463 ] ] } },
{ "type": "Feature", "properties": { "lntype": "27" }, "geometry": { "type": "LineString", "coordinates": [ [ -66.01773, 18.01863 ], [ -66.01635, 18.01986 ] ] } },
{ "type": "Feature", "properties": { "lntype": "27" }, "geometry": { "type": "LineString", "coordinates": [ [ -66.0286, 18.02277 ], [ -66.02228, 18.02768 ] ] } },
{ "type": "Feature", "properties": { "lntype": "27" }, "geometry": { "type": "LineString", "coordinates": [ [ -65.99636, 17.9892 ], [ -66.00507, 17.98909 ] ] } },
{ "type": "Feature", "properties": { "lntype": "27" }, "geometry": { "type": "LineString", "coordinates": [ [ -65.98705, 17.98244 ], [ -65.9843, 17.98265 ] ] } },
{ "type": "Feature", "properties": { "lntype": "27" }, "geometry": { "type": "LineString", "coordinates": [ [ -65.91987, 17.99589 ], [ -65.91434, 18.00442 ] ] } },
{ "type": "Feature", "properties": { "lntype": "27" }, "geometry": { "type": "LineString", "coordinates": [ [ -65.87262, 18.00738 ], [ -65.86274, 18.01404 ] ] } },
{ "type": "Feature", "properties": { "lntype": "27" }, "geometry": { "type": "LineString", "coordinates": [ [ -65.84223, 18.01805 ], [ -65.84377, 18.01643 ] ] } },
{ "type": "Feature", "properties": { "lntype": "27" }, "geometry": { "type": "LineString", "coordinates": [ [ -65.83726, 18.01377 ], [ -65.83864, 18.01239 ] ] } },
{ "type": "Feature", "properties": { "lntype": "27" }, "geometry": { "type": "LineString", "coordinates": [ [ -65.83605, 18.01292 ], [ -65.83711, 18.01177 ] ] } },
{ "type": "Feature", "properties": { "lntype": "27" }, "geometry": { "type": "LineString", "coordinates": [ [ -65.83329, 18.01645 ], [ -65.83102, 18.01744 ] ] } },
{ "type": "Feature", "properties": { "lntype": "27" }, "geometry": { "type": "LineString", "coordinates": [ [ -65.83273, 18.0156 ], [ -65.83111, 18.01628 ] ] } },
{ "type": "Feature", "properties": { "lntype": "27" }, "geometry": { "type": "LineString", "coordinates": [ [ -65.83524, 18.01391 ], [ -65.83273, 18.0156 ] ] } },
{ "type": "Feature", "properties": { "lntype": "27" }, "geometry": { "type": "LineString", "coordinates": [ [ -65.84714, 18.03189 ], [ -65.84379, 18.03842 ] ] } },
{ "type": "Feature", "properties": { "lntype": "27" }, "geometry": { "type": "LineString", "coordinates": [ [ -65.93121, 18.0689 ], [ -65.89762, 18.04634 ] ] } },
{ "type": "Feature", "properties": { "lntype": "27" }, "geometry": { "type": "LineString", "coordinates": [ [ -65.92745, 18.05006 ], [ -65.89714, 18.04634 ], [ -65.87585, 18.04513 ], [ -65.83181, 18.04472 ] ] } },
{ "type": "Feature", "properties": { "lntype": "27" }, "geometry": { "type": "LineString", "coordinates": [ [ -65.82635, 18.0659 ], [ -65.8408, 18.07587 ] ] } },
{ "type": "Feature", "properties": { "lntype": "27" }, "geometry": { "type": "LineString", "coordinates": [ [ -65.82024, 18.06216 ], [ -65.81382, 18.0578 ] ] } },
{ "type": "Feature", "properties": { "lntype": "27" }, "geometry": { "type": "LineString", "coordinates": [ [ -65.81263, 18.16172 ], [ -65.81613, 18.19369 ] ] } },
{ "type": "Feature", "properties": { "lntype": "27" }, "geometry": { "type": "LineString", "coordinates": [ [ -65.8277, 18.17771 ], [ -65.82926, 18.1859 ] ] } },
{ "type": "Feature", "properties": { "lntype": "27" }, "geometry": { "type": "LineString", "coordinates": [ [ -65.8294, 18.18945 ], [ -65.82932, 18.20102 ] ] } },
{ "type": "Feature", "properties": { "lntype": "27" }, "geometry": { "type": "LineString", "coordinates": [ [ -65.82918, 18.19732 ], [ -65.83788, 18.20138 ] ] } },
{ "type": "Feature", "properties": { "lntype": "27" }, "geometry": { "type": "LineString", "coordinates": [ [ -65.79921, 18.18864 ], [ -65.74454, 18.15682 ] ] } },
{ "type": "Feature", "properties": { "lntype": "27" }, "geometry": { "type": "LineString", "coordinates": [ [ -65.80565, 18.2143 ], [ -65.79016, 18.21374 ] ] } },
{ "type": "Feature", "properties": { "lntype": "27" }, "geometry": { "type": "LineString", "coordinates": [ [ -65.77301, 18.21733 ], [ -65.76705, 18.2156 ] ] } },
{ "type": "Feature", "properties": { "lntype": "27" }, "geometry": { "type": "LineString", "coordinates": [ [ -65.81864, 18.20481 ], [ -65.83275, 18.21894 ], [ -65.84868, 18.22768 ], [ -65.92978, 18.25099 ] ] } },
{ "type": "Feature", "properties": { "lntype": "27" }, "geometry": { "type": "LineString", "coordinates": [ [ -65.91962, 18.24785 ], [ -65.91371, 18.23639 ] ] } },
{ "type": "Feature", "properties": { "lntype": "27" }, "geometry": { "type": "LineString", "coordinates": [ [ -65.88218, 18.24207 ], [ -65.87835, 18.23603 ] ] } },
{ "type": "Feature", "properties": { "lntype": "27" }, "geometry": { "type": "LineString", "coordinates": [ [ -65.86362, 18.24011 ], [ -65.86623, 18.23612 ] ] } },
{ "type": "Feature", "properties": { "lntype": "27" }, "geometry": { "type": "LineString", "coordinates": [ [ -65.82961, 18.23019 ], [ -65.83704, 18.22977 ] ] } },
{ "type": "Feature", "properties": { "lntype": "27" }, "geometry": { "type": "LineString", "coordinates": [ [ -65.81373, 18.21435 ], [ -65.82971, 18.21584 ] ] } },
{ "type": "Feature", "properties": { "lntype": "27" }, "geometry": { "type": "LineString", "coordinates": [ [ -65.7756, 18.24034 ], [ -65.78075, 18.24284 ] ] } },
{ "type": "Feature", "properties": { "lntype": "27" }, "geometry": { "type": "LineString", "coordinates": [ [ -65.76916, 18.23691 ], [ -65.7494, 18.22212 ] ] } },
{ "type": "Feature", "properties": { "lntype": "27" }, "geometry": { "type": "LineString", "coordinates": [ [ -65.85599, 18.24609 ], [ -65.85216, 18.24005 ] ] } },
{ "type": "Feature", "properties": { "lntype": "27" }, "geometry": { "type": "LineString", "coordinates": [ [ -65.85572, 18.16415 ], [ -65.84381, 18.15898 ] ] } },
{ "type": "Feature", "properties": { "lntype": "27" }, "geometry": { "type": "LineString", "coordinates": [ [ -65.78515, 18.21355 ], [ -65.72836, 18.20555 ] ] } },
{ "type": "Feature", "properties": { "lntype": "27" }, "geometry": { "type": "LineString", "coordinates": [ [ -65.74089, 18.21497 ], [ -65.73125, 18.20834 ] ] } },
{ "type": "Feature", "properties": { "lntype": "27" }, "geometry": { "type": "LineString", "coordinates": [ [ -65.72643, 18.20554 ], [ -65.70219, 18.20784 ] ] } },
{ "type": "Feature", "properties": { "lntype": "27" }, "geometry": { "type": "LineString", "coordinates": [ [ -65.74327, 18.24345 ], [ -65.72174, 18.20597 ] ] } },
{ "type": "Feature", "properties": { "lntype": "27" }, "geometry": { "type": "LineString", "coordinates": [ [ -65.73681, 18.2431 ], [ -65.74088, 18.23881 ] ] } },
{ "type": "Feature", "properties": { "lntype": "27" }, "geometry": { "type": "LineString", "coordinates": [ [ -65.73873, 18.24682 ], [ -65.74184, 18.24097 ] ] } },
{ "type": "Feature", "properties": { "lntype": "27" }, "geometry": { "type": "LineString", "coordinates": [ [ -65.72812, 18.26141 ], [ -65.71771, 18.27075 ] ] } },
{ "type": "Feature", "properties": { "lntype": "27" }, "geometry": { "type": "LineString", "coordinates": [ [ -65.72143, 18.27031 ], [ -65.71999, 18.26876 ] ] } },
{ "type": "Feature", "properties": { "lntype": "27" }, "geometry": { "type": "LineString", "coordinates": [ [ -65.6904, 18.29356 ], [ -65.69943, 18.29624 ] ] } },
{ "type": "Feature", "properties": { "lntype": "27" }, "geometry": { "type": "LineString", "coordinates": [ [ -65.68005, 18.29564 ], [ -65.69894, 18.29732 ] ] } },
{ "type": "Feature", "properties": { "lntype": "27" }, "geometry": { "type": "LineString", "coordinates": [ [ -65.69505, 18.2993 ], [ -65.68957, 18.29664 ] ] } },
{ "type": "Feature", "properties": { "lntype": "27" }, "geometry": { "type": "LineString", "coordinates": [ [ -65.70639, 18.24869 ], [ -65.70164, 18.24104 ] ] } },
{ "type": "Feature", "properties": { "lntype": "27" }, "geometry": { "type": "LineString", "coordinates": [ [ -65.6531, 18.28387 ], [ -65.63868, 18.28292 ] ] } },
{ "type": "Feature", "properties": { "lntype": "27" }, "geometry": { "type": "LineString", "coordinates": [ [ -65.64771, 18.27682 ], [ -65.6429, 18.27654 ] ] } },
{ "type": "Feature", "properties": { "lntype": "27" }, "geometry": { "type": "LineString", "coordinates": [ [ -65.63734, 18.29161 ], [ -65.6337, 18.2876 ] ] } },
{ "type": "Feature", "properties": { "lntype": "27" }, "geometry": { "type": "LineString", "coordinates": [ [ -65.63972, 18.29453 ], [ -65.63048, 18.29459 ] ] } },
{ "type": "Feature", "properties": { "lntype": "27" }, "geometry": { "type": "LineString", "coordinates": [ [ -65.66101, 18.2925 ], [ -65.68433, 18.30488 ] ] } },
{ "type": "Feature", "properties": { "lntype": "27" }, "geometry": { "type": "LineString", "coordinates": [ [ -65.69249, 18.31424 ], [ -65.68502, 18.31443 ] ] } },
{ "type": "Feature", "properties": { "lntype": "27" }, "geometry": { "type": "LineString", "coordinates": [ [ -65.67983, 18.31416 ], [ -65.66273, 18.31573 ] ] } },
{ "type": "Feature", "properties": { "lntype": "27" }, "geometry": { "type": "LineString", "coordinates": [ [ -65.65841, 18.31667 ], [ -65.63901, 18.32136 ] ] } },
{ "type": "Feature", "properties": { "lntype": "27" }, "geometry": { "type": "LineString", "coordinates": [ [ -65.67052, 18.32249 ], [ -65.66577, 18.31545 ] ] } },
{ "type": "Feature", "properties": { "lntype": "27" }, "geometry": { "type": "LineString", "coordinates": [ [ -65.66352, 18.32825 ], [ -65.65512, 18.31755 ] ] } },
{ "type": "Feature", "properties": { "lntype": "27" }, "geometry": { "type": "LineString", "coordinates": [ [ -65.66626, 18.35063 ], [ -65.6639, 18.34433 ] ] } },
{ "type": "Feature", "properties": { "lntype": "27" }, "geometry": { "type": "LineString", "coordinates": [ [ -65.64967, 18.33444 ], [ -65.63, 18.32414 ] ] } },
{ "type": "Feature", "properties": { "lntype": "27" }, "geometry": { "type": "LineString", "coordinates": [ [ -65.66099, 18.34443 ], [ -65.64899, 18.33987 ] ] } },
{ "type": "Feature", "properties": { "lntype": "27" }, "geometry": { "type": "LineString", "coordinates": [ [ -65.64698, 18.33877 ], [ -65.64142, 18.33692 ] ] } },
{ "type": "Feature", "properties": { "lntype": "27" }, "geometry": { "type": "LineString", "coordinates": [ [ -65.64739, 18.3667 ], [ -65.64216, 18.37222 ] ] } },
{ "type": "Feature", "properties": { "lntype": "27" }, "geometry": { "type": "LineString", "coordinates": [ [ -65.65261, 18.36359 ], [ -65.6568, 18.3612 ] ] } },
{ "type": "Feature", "properties": { "lntype": "27" }, "geometry": { "type": "LineString", "coordinates": [ [ -65.68979, 18.35321 ], [ -65.69327, 18.36255 ] ] } },
{ "type": "Feature", "properties": { "lntype": "27" }, "geometry": { "type": "LineString", "coordinates": [ [ -65.70467, 18.34449 ], [ -65.71554, 18.34746 ] ] } },
{ "type": "Feature", "properties": { "lntype": "27" }, "geometry": { "type": "LineString", "coordinates": [ [ -65.72097, 18.34859 ], [ -65.73184, 18.35132 ] ] } },
{ "type": "Feature", "properties": { "lntype": "27" }, "geometry": { "type": "LineString", "coordinates": [ [ -65.72555, 18.34693 ], [ -65.72917, 18.35384 ] ] } },
{ "type": "Feature", "properties": { "lntype": "27" }, "geometry": { "type": "LineString", "coordinates": [ [ -65.71932, 18.34991 ], [ -65.72401, 18.34933 ] ] } },
{ "type": "Feature", "properties": { "lntype": "27" }, "geometry": { "type": "LineString", "coordinates": [ [ -65.71103, 18.34103 ], [ -65.71124, 18.34635 ] ] } },
{ "type": "Feature", "properties": { "lntype": "27" }, "geometry": { "type": "LineString", "coordinates": [ [ -65.71023, 18.34586 ], [ -65.71158, 18.35215 ] ] } },
{ "type": "Feature", "properties": { "lntype": "27" }, "geometry": { "type": "LineString", "coordinates": [ [ -65.71496, 18.35677 ], [ -65.72237, 18.36516 ] ] } },
{ "type": "Feature", "properties": { "lntype": "27" }, "geometry": { "type": "LineString", "coordinates": [ [ -65.72306, 18.35779 ], [ -65.71685, 18.35908 ] ] } },
{ "type": "Feature", "properties": { "lntype": "27" }, "geometry": { "type": "LineString", "coordinates": [ [ -65.71493, 18.36173 ], [ -65.71574, 18.37177 ] ] } },
{ "type": "Feature", "properties": { "lntype": "27" }, "geometry": { "type": "LineString", "coordinates": [ [ -65.72637, 18.32142 ], [ -65.73155, 18.32255 ] ] } },
{ "type": "Feature", "properties": { "lntype": "27" }, "geometry": { "type": "LineString", "coordinates": [ [ -65.7328, 18.32376 ], [ -65.73646, 18.32608 ] ] } },
{ "type": "Feature", "properties": { "lntype": "27" }, "geometry": { "type": "LineString", "coordinates": [ [ -65.74974, 18.3275 ], [ -65.75682, 18.32912 ] ] } },
{ "type": "Feature", "properties": { "lntype": "27" }, "geometry": { "type": "LineString", "coordinates": [ [ -65.7156, 18.374 ], [ -65.71519, 18.37702 ] ] } },
{ "type": "Feature", "properties": { "lntype": "27" }, "geometry": { "type": "LineString", "coordinates": [ [ -65.72776, 18.37239 ], [ -65.73015, 18.37555 ] ] } },
{ "type": "Feature", "properties": { "lntype": "27" }, "geometry": { "type": "LineString", "coordinates": [ [ -65.7324, 18.36154 ], [ -65.7336, 18.3717 ] ] } },
{ "type": "Feature", "properties": { "lntype": "27" }, "geometry": { "type": "LineString", "coordinates": [ [ -65.77414, 18.36949 ], [ -65.76081, 18.37364 ], [ -65.75001, 18.37901 ] ] } },
{ "type": "Feature", "properties": { "lntype": "27" }, "geometry": { "type": "LineString", "coordinates": [ [ -65.76434, 18.37523 ], [ -65.76056, 18.37351 ] ] } },
{ "type": "Feature", "properties": { "lntype": "27" }, "geometry": { "type": "LineString", "coordinates": [ [ -65.79275, 18.3875 ], [ -65.79932, 18.38984 ] ] } },
{ "type": "Feature", "properties": { "lntype": "27" }, "geometry": { "type": "LineString", "coordinates": [ [ -65.79605, 18.38765 ], [ -65.79932, 18.38984 ] ] } },
{ "type": "Feature", "properties": { "lntype": "27" }, "geometry": { "type": "LineString", "coordinates": [ [ -65.82297, 18.37705 ], [ -65.82685, 18.38385 ], [ -65.83163, 18.38787 ] ] } },
{ "type": "Feature", "properties": { "lntype": "27" }, "geometry": { "type": "LineString", "coordinates": [ [ -65.87326, 18.37554 ], [ -65.87944, 18.37933 ] ] } },
{ "type": "Feature", "properties": { "lntype": "27" }, "geometry": { "type": "LineString", "coordinates": [ [ -65.86792, 18.37841 ], [ -65.87195, 18.38122 ] ] } },
{ "type": "Feature", "properties": { "lntype": "27" }, "geometry": { "type": "LineString", "coordinates": [ [ -65.86614, 18.37949 ], [ -65.86926, 18.38568 ] ] } },
{ "type": "Feature", "properties": { "lntype": "27" }, "geometry": { "type": "LineString", "coordinates": [ [ -65.8655, 18.3807 ], [ -65.86799, 18.38627 ] ] } },
{ "type": "Feature", "properties": { "lntype": "27" }, "geometry": { "type": "LineString", "coordinates": [ [ -65.85637, 18.38221 ], [ -65.85557, 18.38741 ] ] } },
{ "type": "Feature", "properties": { "lntype": "27" }, "geometry": { "type": "LineString", "coordinates": [ [ -65.85813, 18.38319 ], [ -65.86026, 18.38719 ] ] } },
{ "type": "Feature", "properties": { "lntype": "27" }, "geometry": { "type": "LineString", "coordinates": [ [ -65.91275, 18.35812 ], [ -65.91829, 18.36347 ] ] } },
{ "type": "Feature", "properties": { "lntype": "27" }, "geometry": { "type": "LineString", "coordinates": [ [ -65.92382, 18.36955 ], [ -65.93238, 18.37915 ], [ -65.94336, 18.38489 ] ] } },
{ "type": "Feature", "properties": { "lntype": "27" }, "geometry": { "type": "LineString", "coordinates": [ [ -65.94294, 18.26671 ], [ -65.92197, 18.23866 ] ] } },
{ "type": "Feature", "properties": { "lntype": "27" }, "geometry": { "type": "LineString", "coordinates": [ [ -65.93033, 18.23871 ], [ -65.91451, 18.23813 ] ] } },
{ "type": "Feature", "properties": { "lntype": "27" }, "geometry": { "type": "LineString", "coordinates": [ [ -65.93776, 18.24419 ], [ -65.96302, 18.25279 ] ] } },
{ "type": "Feature", "properties": { "lntype": "27" }, "geometry": { "type": "LineString", "coordinates": [ [ -65.93013, 18.24922 ], [ -65.96349, 18.25811 ] ] } },
{ "type": "Feature", "properties": { "lntype": "27" }, "geometry": { "type": "LineString", "coordinates": [ [ -65.94454, 18.25317 ], [ -65.9566, 18.26811 ] ] } },
{ "type": "Feature", "properties": { "lntype": "27" }, "geometry": { "type": "LineString", "coordinates": [ [ -65.973, 18.25556 ], [ -65.99498, 18.26257 ], [ -66.00205, 18.26575 ] ] } },
{ "type": "Feature", "properties": { "lntype": "27" }, "geometry": { "type": "LineString", "coordinates": [ [ -65.96349, 18.25811 ], [ -65.97891, 18.26249 ], [ -66.00192, 18.26575 ], [ -66.01192, 18.26665 ] ] } },
{ "type": "Feature", "properties": { "lntype": "27" }, "geometry": { "type": "LineString", "coordinates": [ [ -65.98291, 18.24836 ], [ -65.98856, 18.25661 ] ] } },
{ "type": "Feature", "properties": { "lntype": "27" }, "geometry": { "type": "LineString", "coordinates": [ [ -65.99199, 18.25494 ], [ -65.98668, 18.25382 ] ] } },
{ "type": "Feature", "properties": { "lntype": "27" }, "geometry": { "type": "LineString", "coordinates": [ [ -65.99629, 18.25508 ], [ -66.00603, 18.25622 ] ] } },
{ "type": "Feature", "properties": { "lntype": "27" }, "geometry": { "type": "LineString", "coordinates": [ [ -66.02665, 18.25669 ], [ -66.03247, 18.25684 ] ] } },
{ "type": "Feature", "properties": { "lntype": "27" }, "geometry": { "type": "LineString", "coordinates": [ [ -66.02395, 18.28702 ], [ -66.04696, 18.29234 ] ] } },
{ "type": "Feature", "properties": { "lntype": "27" }, "geometry": { "type": "LineString", "coordinates": [ [ -66.0486, 18.29283 ], [ -66.07477, 18.29961 ] ] } },
{ "type": "Feature", "properties": { "lntype": "27" }, "geometry": { "type": "LineString", "coordinates": [ [ -66.0486, 18.29283 ], [ -66.06398, 18.30451 ] ] } },
{ "type": "Feature", "properties": { "lntype": "27" }, "geometry": { "type": "LineString", "coordinates": [ [ -66.05735, 18.29118 ], [ -66.04899, 18.29235 ] ] } },
{ "type": "Feature", "properties": { "lntype": "27" }, "geometry": { "type": "LineString", "coordinates": [ [ -66.05348, 18.30301 ], [ -66.05301, 18.29624 ] ] } },
{ "type": "Feature", "properties": { "lntype": "27" }, "geometry": { "type": "LineString", "coordinates": [ [ -66.03434, 18.28563 ], [ -66.02926, 18.28814 ] ] } },
{ "type": "Feature", "properties": { "lntype": "27" }, "geometry": { "type": "LineString", "coordinates": [ [ -66.04144, 18.283 ], [ -66.04943, 18.28099 ] ] } },
{ "type": "Feature", "properties": { "lntype": "27" }, "geometry": { "type": "LineString", "coordinates": [ [ -66.0434, 18.27237 ], [ -66.03581, 18.27221 ] ] } },
{ "type": "Feature", "properties": { "lntype": "27" }, "geometry": { "type": "LineString", "coordinates": [ [ -66.0576, 18.38519 ], [ -66.06541, 18.39212 ] ] } },
{ "type": "Feature", "properties": { "lntype": "27" }, "geometry": { "type": "LineString", "coordinates": [ [ -65.99077, 18.3782 ], [ -65.9939, 18.38414 ] ] } },
{ "type": "Feature", "properties": { "lntype": "27" }, "geometry": { "type": "LineString", "coordinates": [ [ -65.99289, 18.38305 ], [ -65.97765, 18.38949 ] ] } },
{ "type": "Feature", "properties": { "lntype": "27" }, "geometry": { "type": "LineString", "coordinates": [ [ -65.99084, 18.38678 ], [ -65.9906, 18.38424 ] ] } },
{ "type": "Feature", "properties": { "lntype": "27" }, "geometry": { "type": "LineString", "coordinates": [ [ -65.99042, 18.39367 ], [ -65.98876, 18.39693 ] ] } },
{ "type": "Feature", "properties": { "lntype": "27" }, "geometry": { "type": "LineString", "coordinates": [ [ -65.96048, 18.35923 ], [ -65.95475, 18.3644 ] ] } },
{ "type": "Feature", "properties": { "lntype": "27" }, "geometry": { "type": "LineString", "coordinates": [ [ -66.06502, 18.17749 ], [ -66.06875, 18.18259 ] ] } },
{ "type": "Feature", "properties": { "lntype": "27" }, "geometry": { "type": "LineString", "coordinates": [ [ -66.05018, 18.17457 ], [ -66.04976, 18.17958 ] ] } },
{ "type": "Feature", "properties": { "lntype": "27" }, "geometry": { "type": "LineString", "coordinates": [ [ -66.04991, 18.18115 ], [ -66.04997, 18.18392 ] ] } },
{ "type": "Feature", "properties": { "lntype": "27" }, "geometry": { "type": "LineString", "coordinates": [ [ -66.03338, 18.17075 ], [ -66.0354, 18.17368 ], [ -66.04997, 18.1831 ] ] } },
{ "type": "Feature", "properties": { "lntype": "7" }, "geometry": { "type": "LineString", "coordinates": [ [ -66.57895, 18.05894 ], [ -66.57781, 18.05983 ], [ -66.57747, 18.061 ] ] } },
{ "type": "Feature", "properties": { "lntype": "7" }, "geometry": { "type": "LineString", "coordinates": [ [ -66.57747, 18.061 ], [ -66.57579, 18.05833 ] ] } },
{ "type": "Feature", "properties": { "lntype": "7" }, "geometry": { "type": "LineString", "coordinates": [ [ -66.57347, 18.05816 ], [ -66.57132, 18.05905 ], [ -66.56962, 18.06009 ], [ -66.56836, 18.06142 ], [ -66.56688, 18.06166 ], [ -66.56531, 18.06226 ] ] } },
{ "type": "Feature", "properties": { "lntype": "7" }, "geometry": { "type": "LineString", "coordinates": [ [ -66.50666, 18.07472 ], [ -66.50881, 18.0763 ], [ -66.50898, 18.07715 ], [ -66.50863, 18.08001 ] ] } },
{ "type": "Feature", "properties": { "lntype": "27" }, "geometry": { "type": "LineString", "coordinates": [ [ -66.74346, 18.04994 ], [ -66.74884, 18.05504 ], [ -66.75069, 18.05641 ], [ -66.75367, 18.05722 ] ] } },
{ "type": "Feature", "properties": { "lntype": "27" }, "geometry": { "type": "LineString", "coordinates": [ [ -66.53817, 18.06998 ], [ -66.52965, 18.06486 ] ] } },
{ "type": "Feature", "properties": { "lntype": "7" }, "geometry": { "type": "LineString", "coordinates": [ [ -66.50254, 18.08448 ], [ -66.50255, 18.08298 ], [ -66.50306, 18.08149 ], [ -66.50399, 18.0804 ], [ -66.50475, 18.07996 ], [ -66.50504, 18.0817 ], [ -66.50474, 18.08315 ], [ -66.50347, 18.08436 ], [ -66.50254, 18.08448 ] ] } },
{ "type": "Feature", "properties": { "lntype": "27" }, "geometry": { "type": "LineString", "coordinates": [ [ -66.73725, 18.0659 ], [ -66.74236, 18.06726 ] ] } },
{ "type": "Feature", "properties": { "lntype": "27" }, "geometry": { "type": "LineString", "coordinates": [ [ -66.74599, 18.0636 ], [ -66.75089, 18.06809 ] ] } },
{ "type": "Feature", "properties": { "lntype": "7" }, "geometry": { "type": "LineString", "coordinates": [ [ -66.49853, 18.08558 ], [ -66.49764, 18.08456 ], [ -66.49334, 18.08366 ], [ -66.49208, 18.08233 ], [ -66.49179, 18.08084 ], [ -66.49099, 18.07954 ], [ -66.49045, 18.07579 ], [ -66.4897, 18.07425 ], [ -66.48856, 18.0734 ], [ -66.48683, 18.07263 ], [ -66.48587, 18.07117 ], [ -66.48431, 18.07016 ], [ -66.483, 18.06975 ], [ -66.48195, 18.0691 ], [ -66.48085, 18.06886 ], [ -66.48022, 18.06813 ], [ -66.47933, 18.06817 ], [ -66.4787, 18.06667 ], [ -66.4769, 18.06493 ] ] } },
{ "type": "Feature", "properties": { "lntype": "7" }, "geometry": { "type": "LineString", "coordinates": [ [ -66.39548, 18.04346 ], [ -66.39392, 18.04354 ], [ -66.39231, 18.04478 ], [ -66.39129, 18.04591 ], [ -66.39112, 18.04761 ] ] } },
{ "type": "Feature", "properties": { "lntype": "7" }, "geometry": { "type": "LineString", "coordinates": [ [ -66.44372, 18.06496 ], [ -66.44187, 18.06443 ], [ -66.44267, 18.06439 ], [ -66.44288, 18.0635 ], [ -66.442, 18.06257 ], [ -66.43939, 18.06204 ], [ -66.43812, 18.06135 ], [ -66.43593, 18.06098 ], [ -66.43458, 18.06114 ], [ -66.43424, 18.06045 ], [ -66.4345, 18.0586 ], [ -66.43438, 18.05761 ] ] } },
{ "type": "Feature", "properties": { "lntype": "7" }, "geometry": { "type": "LineString", "coordinates": [ [ -66.4769, 18.06493 ], [ -66.47551, 18.06402 ], [ -66.47391, 18.06244 ], [ -66.47222, 18.06139 ], [ -66.47062, 18.06074 ], [ -66.46357, 18.06003 ], [ -66.45796, 18.05989 ], [ -66.45564, 18.0592 ], [ -66.45315, 18.05907 ], [ -66.45109, 18.05862 ], [ -66.44847, 18.05736 ], [ -66.44274, 18.05517 ], [ -66.43971, 18.05459 ] ] } },
{ "type": "Feature", "properties": { "lntype": "7" }, "geometry": { "type": "LineString", "coordinates": [ [ -66.41694, 18.02365 ], [ -66.41516, 18.02562 ], [ -66.41485, 18.02772 ] ] } },
{ "type": "Feature", "properties": { "lntype": "7" }, "geometry": { "type": "LineString", "coordinates": [ [ -66.39296, 18.02789 ], [ -66.39486, 18.02725 ] ] } },
{ "type": "Feature", "properties": { "lntype": "7" }, "geometry": { "type": "LineString", "coordinates": [ [ -66.38698, 18.02388 ], [ -66.38833, 18.02384 ], [ -66.38938, 18.02441 ] ] } },
{ "type": "Feature", "properties": { "lntype": "7" }, "geometry": { "type": "LineString", "coordinates": [ [ -66.39776, 18.02997 ], [ -66.39894, 18.03005 ], [ -66.39999, 18.03078 ], [ -66.39952, 18.03211 ] ] } },
{ "type": "Feature", "properties": { "lntype": "7" }, "geometry": { "type": "LineString", "coordinates": [ [ -66.40066, 18.03312 ], [ -66.40243, 18.03317 ], [ -66.40618, 18.0348 ], [ -66.40943, 18.03513 ], [ -66.41057, 18.03485 ], [ -66.41145, 18.03566 ], [ -66.41094, 18.03747 ], [ -66.41414, 18.03869 ], [ -66.41461, 18.03946 ], [ -66.41305, 18.03901 ], [ -66.41225, 18.03841 ], [ -66.41085, 18.03889 ], [ -66.41013, 18.03961 ], [ -66.40819, 18.03908 ], [ -66.40663, 18.03968 ], [ -66.40511, 18.03956 ], [ -66.40364, 18.03911 ], [ -66.39964, 18.03655 ] ] } },
{ "type": "Feature", "properties": { "lntype": "7" }, "geometry": { "type": "LineString", "coordinates": [ [ -66.4361, 18.04786 ], [ -66.43724, 18.04762 ], [ -66.44116, 18.04836 ], [ -66.44613, 18.05108 ], [ -66.44757, 18.05121 ], [ -66.44866, 18.05198 ], [ -66.44967, 18.0517 ], [ -66.45178, 18.0519 ], [ -66.4533, 18.05126 ], [ -66.45504, 18.0509 ], [ -66.45739, 18.05236 ] ] } },
{ "type": "Feature", "properties": { "lntype": "27" }, "geometry": { "type": "LineString", "coordinates": [ [ -66.56141, 18.06932 ], [ -66.55608, 18.06686 ] ] } },
{ "type": "Feature", "properties": { "lntype": "7" }, "geometry": { "type": "LineString", "coordinates": [ [ -66.38546, 18.04678 ], [ -66.38715, 18.04646 ], [ -66.38922, 18.04683 ], [ -66.3912, 18.04769 ], [ -66.39348, 18.04773 ], [ -66.39445, 18.04737 ], [ -66.39563, 18.04746 ], [ -66.3966, 18.04718 ], [ -66.39782, 18.04783 ], [ -66.39917, 18.049 ], [ -66.40035, 18.04893 ], [ -66.40069, 18.048 ], [ -66.40154, 18.04828 ], [ -66.4025, 18.0497 ], [ -66.40355, 18.05055 ], [ -66.40495, 18.05059 ], [ -66.40491, 18.0493 ], [ -66.40529, 18.04866 ], [ -66.40672, 18.0489 ], [ -66.40854, 18.04839 ], [ -66.41238, 18.04969 ], [ -66.41457, 18.05014 ] ] } },
{ "type": "Feature", "properties": { "lntype": "7" }, "geometry": { "type": "LineString", "coordinates": [ [ -66.41457, 18.05014 ], [ -66.42034, 18.05199 ], [ -66.42405, 18.05398 ], [ -66.42696, 18.05419 ], [ -66.42856, 18.05513 ], [ -66.43054, 18.05739 ], [ -66.43181, 18.05748 ], [ -66.43328, 18.05712 ], [ -66.43438, 18.05761 ] ] } },
{ "type": "Feature", "properties": { "lntype": "7" }, "geometry": { "type": "LineString", "coordinates": [ [ -66.52908, 18.10321 ], [ -66.5287, 18.10454 ], [ -66.5279, 18.1047 ] ] } },
{ "type": "Feature", "properties": { "lntype": "7" }, "geometry": { "type": "LineString", "coordinates": [ [ -66.53025, 18.10866 ], [ -66.53071, 18.10996 ], [ -66.52961, 18.10995 ] ] } },
{ "type": "Feature", "properties": { "lntype": "7" }, "geometry": { "type": "LineString", "coordinates": [ [ -66.53122, 18.11028 ], [ -66.53311, 18.11093 ], [ -66.53472, 18.11094 ], [ -66.5372, 18.11256 ] ] } },
{ "type": "Feature", "properties": { "lntype": "7" }, "geometry": { "type": "LineString", "coordinates": [ [ -66.51418, 18.11747 ], [ -66.51532, 18.11908 ], [ -66.51869, 18.12135 ] ] } },
{ "type": "Feature", "properties": { "lntype": "7" }, "geometry": { "type": "LineString", "coordinates": [ [ -66.51869, 18.12135 ], [ -66.5213, 18.12307 ], [ -66.52455, 18.12478 ], [ -66.5262, 18.12365 ], [ -66.52847, 18.12539 ], [ -66.5305, 18.12528 ], [ -66.53308, 18.12363 ], [ -66.53401, 18.12193 ], [ -66.53966, 18.1255 ], [ -66.54249, 18.12668 ], [ -66.54392, 18.12664 ], [ -66.54544, 18.12628 ], [ -66.54607, 18.12689 ], [ -66.54743, 18.12612 ], [ -66.54869, 18.12584 ] ] } },
{ "type": "Feature", "properties": { "lntype": "7" }, "geometry": { "type": "LineString", "coordinates": [ [ -66.55005, 18.12347 ], [ -66.54849, 18.12435 ], [ -66.54845, 18.12342 ], [ -66.54887, 18.12217 ] ] } },
{ "type": "Feature", "properties": { "lntype": "7" }, "geometry": { "type": "LineString", "coordinates": [ [ -66.52084, 18.0773 ], [ -66.5183, 18.07806 ], [ -66.51814, 18.07636 ], [ -66.51708, 18.07644 ], [ -66.51484, 18.0776 ], [ -66.51442, 18.07623 ], [ -66.51362, 18.07595 ], [ -66.51286, 18.07607 ], [ -66.51214, 18.07663 ], [ -66.51139, 18.07578 ], [ -66.51071, 18.07614 ], [ -66.51046, 18.07541 ], [ -66.50962, 18.07456 ], [ -66.50902, 18.07505 ], [ -66.50856, 18.07428 ], [ -66.50759, 18.07399 ] ] } },
{ "type": "Feature", "properties": { "lntype": "27" }, "geometry": { "type": "LineString", "coordinates": [ [ -66.74713, 18.06231 ], [ -66.75266, 18.0649 ] ] } },
{ "type": "Feature", "properties": { "lntype": "7" }, "geometry": { "type": "LineString", "coordinates": [ [ -66.33924, 18.06798 ], [ -66.33841, 18.06735 ], [ -66.3374, 18.0658 ], [ -66.33681, 18.06369 ] ] } },
{ "type": "Feature", "properties": { "lntype": "7" }, "geometry": { "type": "LineString", "coordinates": [ [ -66.47737, 18.08859 ], [ -66.47949, 18.08803 ], [ -66.48286, 18.08755 ], [ -66.48413, 18.08776 ], [ -66.48527, 18.08659 ], [ -66.48637, 18.08659 ], [ -66.48578, 18.08752 ], [ -66.48624, 18.08849 ], [ -66.48771, 18.08853 ], [ -66.48873, 18.08793 ], [ -66.49025, 18.08592 ], [ -66.49148, 18.08649 ], [ -66.49262, 18.08621 ], [ -66.49351, 18.08508 ], [ -66.4946, 18.08528 ], [ -66.49566, 18.08613 ], [ -66.49599, 18.08698 ] ] } },
{ "type": "Feature", "properties": { "lntype": "27" }, "geometry": { "type": "LineString", "coordinates": [ [ -66.58683, 18.31088 ], [ -66.60152, 18.31781 ] ] } },
{ "type": "Feature", "properties": { "lntype": "7" }, "geometry": { "type": "LineString", "coordinates": [ [ -66.43928, 18.04188 ], [ -66.43434, 18.04198 ], [ -66.43317, 18.04125 ] ] } },
{ "type": "Feature", "properties": { "lntype": "7" }, "geometry": { "type": "LineString", "coordinates": [ [ -66.43361, 18.04747 ], [ -66.4361, 18.04786 ] ] } },
{ "type": "Feature", "properties": { "lntype": "7" }, "geometry": { "type": "LineString", "coordinates": [ [ -66.48348, 18.06398 ], [ -66.48424, 18.06439 ], [ -66.48348, 18.06475 ], [ -66.48364, 18.06685 ], [ -66.48524, 18.06798 ], [ -66.48587, 18.06944 ], [ -66.48671, 18.06952 ], [ -66.48735, 18.06831 ], [ -66.48951, 18.06763 ], [ -66.48997, 18.06707 ], [ -66.4893, 18.06573 ], [ -66.49023, 18.06557 ], [ -66.49116, 18.06622 ], [ -66.49306, 18.06538 ], [ -66.49483, 18.06538 ], [ -66.49601, 18.06571 ], [ -66.49778, 18.06543 ], [ -66.49879, 18.06648 ], [ -66.50076, 18.07081 ] ] } },
{ "type": "Feature", "properties": { "lntype": "7" }, "geometry": { "type": "LineString", "coordinates": [ [ -66.44499, 18.06412 ], [ -66.44638, 18.06537 ], [ -66.44761, 18.06457 ], [ -66.44854, 18.06505 ], [ -66.44895, 18.06647 ], [ -66.44979, 18.06768 ], [ -66.44979, 18.06934 ], [ -66.45076, 18.06869 ], [ -66.45186, 18.06942 ], [ -66.45177, 18.0708 ], [ -66.45227, 18.07217 ], [ -66.45357, 18.07342 ], [ -66.45328, 18.07423 ], [ -66.4545, 18.07488 ], [ -66.45647, 18.07775 ], [ -66.45816, 18.07885 ], [ -66.45972, 18.07938 ], [ -66.45997, 18.0801 ], [ -66.45706, 18.08001 ], [ -66.4563, 18.07904 ], [ -66.45389, 18.07928 ], [ -66.45452, 18.07985 ], [ -66.45473, 18.08195 ], [ -66.45561, 18.08267 ], [ -66.45759, 18.08324 ], [ -66.45966, 18.08422 ], [ -66.46143, 18.0854 ], [ -66.4632, 18.08588 ], [ -66.46759, 18.08662 ], [ -66.4697, 18.08623 ], [ -66.47139, 18.08631 ], [ -66.47573, 18.08866 ], [ -66.47737, 18.08859 ] ] } },
{ "type": "Feature", "properties": { "lntype": "7" }, "geometry": { "type": "LineString", "coordinates": [ [ -66.46554, 18.06498 ], [ -66.46867, 18.06519 ], [ -66.46985, 18.06564 ], [ -66.47195, 18.06682 ], [ -66.47607, 18.07183 ], [ -66.47772, 18.0722 ], [ -66.47978, 18.07325 ], [ -66.48164, 18.07374 ] ] } },
{ "type": "Feature", "properties": { "lntype": "7" }, "geometry": { "type": "LineString", "coordinates": [ [ -66.46169, 18.05472 ], [ -66.46367, 18.0565 ], [ -66.46469, 18.05529 ], [ -66.4662, 18.05687 ], [ -66.46696, 18.05578 ], [ -66.46772, 18.05671 ], [ -66.46814, 18.05849 ], [ -66.46889, 18.05926 ], [ -66.4702, 18.0593 ], [ -66.47468, 18.05843 ], [ -66.47615, 18.05847 ], [ -66.47704, 18.05964 ], [ -66.47741, 18.06102 ], [ -66.47936, 18.0607 ], [ -66.48057, 18.06312 ], [ -66.48175, 18.06398 ], [ -66.48235, 18.06293 ], [ -66.4837, 18.06285 ], [ -66.48348, 18.06398 ] ] } },
{ "type": "Feature", "properties": { "lntype": "7" }, "geometry": { "type": "LineString", "coordinates": [ [ -66.46955, 18.05187 ], [ -66.46862, 18.05114 ], [ -66.46753, 18.05102 ], [ -66.4644, 18.05125 ], [ -66.46293, 18.05076 ], [ -66.46056, 18.051 ], [ -66.45745, 18.04942 ], [ -66.45555, 18.04941 ], [ -66.45369, 18.04828 ], [ -66.45138, 18.04552 ], [ -66.44931, 18.04536 ], [ -66.44742, 18.04265 ] ] } },
{ "type": "Feature", "properties": { "lntype": "7" }, "geometry": { "type": "LineString", "coordinates": [ [ -66.4578, 18.04538 ], [ -66.4602, 18.04474 ], [ -66.4643, 18.04419 ], [ -66.46607, 18.04423 ], [ -66.46927, 18.04533 ], [ -66.471, 18.04566 ] ] } },
{ "type": "Feature", "properties": { "lntype": "7" }, "geometry": { "type": "LineString", "coordinates": [ [ -66.46947, 18.05018 ], [ -66.46947, 18.04901 ], [ -66.46817, 18.0488 ], [ -66.46598, 18.04682 ], [ -66.46172, 18.04459 ] ] } },
{ "type": "Feature", "properties": { "lntype": "7" }, "geometry": { "type": "LineString", "coordinates": [ [ -66.47801, 18.04572 ], [ -66.47287, 18.04336 ], [ -66.46916, 18.04251 ], [ -66.46734, 18.04286 ] ] } },
{ "type": "Feature", "properties": { "lntype": "27" }, "geometry": { "type": "LineString", "coordinates": [ [ -66.73256, 18.02442 ], [ -66.7278, 18.02503 ] ] } },
{ "type": "Feature", "properties": { "lntype": "27" }, "geometry": { "type": "LineString", "coordinates": [ [ -66.71627, 18.04355 ], [ -66.72409, 18.038 ] ] } },
{ "type": "Feature", "properties": { "lntype": "7" }, "geometry": { "type": "LineString", "coordinates": [ [ -66.41567, 18.02332 ], [ -66.41669, 18.02175 ], [ -66.41699, 18.02078 ], [ -66.4167, 18.01981 ], [ -66.41429, 18.01904 ], [ -66.41227, 18.01891 ], [ -66.41041, 18.01955 ], [ -66.40918, 18.02063 ], [ -66.40901, 18.02209 ] ] } },
{ "type": "Feature", "properties": { "lntype": "27" }, "geometry": { "type": "LineString", "coordinates": [ [ -66.74018, 18.17517 ], [ -66.73741, 18.17437 ] ] } },
{ "type": "Feature", "properties": { "lntype": "27" }, "geometry": { "type": "LineString", "coordinates": [ [ -66.73477, 18.17436 ], [ -66.72807, 18.17442 ] ] } },
{ "type": "Feature", "properties": { "lntype": "27" }, "geometry": { "type": "LineString", "coordinates": [ [ -66.74082, 18.18041 ], [ -66.73477, 18.17436 ] ] } },
{ "type": "Feature", "properties": { "lntype": "27" }, "geometry": { "type": "LineString", "coordinates": [ [ -66.71251, 18.1532 ], [ -66.71071, 18.15499 ] ] } },
{ "type": "Feature", "properties": { "lntype": "7" }, "geometry": { "type": "LineString", "coordinates": [ [ -66.41972, 18.03576 ], [ -66.41905, 18.0354 ], [ -66.41847, 18.03277 ], [ -66.41742, 18.03164 ], [ -66.4159, 18.03103 ], [ -66.41498, 18.02941 ], [ -66.41287, 18.02876 ], [ -66.41152, 18.02779 ], [ -66.40963, 18.02697 ], [ -66.40886, 18.02733 ], [ -66.40794, 18.02717 ], [ -66.40693, 18.02551 ], [ -66.40448, 18.02546 ], [ -66.40356, 18.02453 ], [ -66.40166, 18.02344 ], [ -66.40086, 18.02339 ], [ -66.40086, 18.02255 ], [ -66.40028, 18.02206 ], [ -66.39913, 18.02258 ], [ -66.39821, 18.02201 ], [ -66.39775, 18.02096 ], [ -66.39551, 18.02063 ], [ -66.3953, 18.01987 ] ] } },
{ "type": "Feature", "properties": { "lntype": "7" }, "geometry": { "type": "LineString", "coordinates": [ [ -66.37534, 18.03268 ], [ -66.38102, 18.03815 ] ] } },
{ "type": "Feature", "properties": { "lntype": "7" }, "geometry": { "type": "LineString", "coordinates": [ [ -66.42507, 18.03804 ], [ -66.42355, 18.04034 ], [ -66.42262, 18.04094 ], [ -66.42169, 18.04037 ], [ -66.42136, 18.0394 ], [ -66.42204, 18.03779 ], [ -66.42149, 18.03674 ], [ -66.41972, 18.03576 ] ] } },
{ "type": "Feature", "properties": { "lntype": "27" }, "geometry": { "type": "LineString", "coordinates": [ [ -66.54861, 18.2285 ], [ -66.56047, 18.22791 ] ] } },
{ "type": "Feature", "properties": { "lntype": "7" }, "geometry": { "type": "LineString", "coordinates": [ [ -66.41605, 18.04811 ], [ -66.41534, 18.04657 ], [ -66.41408, 18.04548 ], [ -66.41256, 18.04479 ], [ -66.40969, 18.04514 ], [ -66.40783, 18.04582 ] ] } },
{ "type": "Feature", "properties": { "lntype": "7" }, "geometry": { "type": "LineString", "coordinates": [ [ -66.33627, 18.07884 ], [ -66.33897, 18.07725 ], [ -66.33856, 18.07547 ], [ -66.33886, 18.07427 ], [ -66.33958, 18.07285 ], [ -66.33965, 18.07044 ], [ -66.33936, 18.06838 ], [ -66.33829, 18.06586 ], [ -66.33705, 18.06386 ], [ -66.33532, 18.06248 ], [ -66.33317, 18.06156 ], [ -66.3309, 18.06126 ], [ -66.3257, 18.06125 ] ] } },
{ "type": "Feature", "properties": { "lntype": "27" }, "geometry": { "type": "LineString", "coordinates": [ [ -66.76339, 18.00989 ], [ -66.7685, 18.00786 ] ] } },
{ "type": "Feature", "properties": { "lntype": "27" }, "geometry": { "type": "LineString", "coordinates": [ [ -66.74622, 18.05266 ], [ -66.73932, 18.05985 ], [ -66.73776, 18.06237 ] ] } },
{ "type": "Feature", "properties": { "lntype": "27" }, "geometry": { "type": "LineString", "coordinates": [ [ -66.74494, 18.05429 ], [ -66.75296, 18.05817 ] ] } },
{ "type": "Feature", "properties": { "lntype": "27" }, "geometry": { "type": "LineString", "coordinates": [ [ -66.74302, 18.05612 ], [ -66.7487, 18.0581 ] ] } },
{ "type": "Feature", "properties": { "lntype": "27" }, "geometry": { "type": "LineString", "coordinates": [ [ -66.73225, 18.17719 ], [ -66.73136, 18.17442 ] ] } },
{ "type": "Feature", "properties": { "lntype": "27" }, "geometry": { "type": "LineString", "coordinates": [ [ -66.73136, 18.17442 ], [ -66.73059, 18.17263 ] ] } },
{ "type": "Feature", "properties": { "lntype": "27" }, "geometry": { "type": "LineString", "coordinates": [ [ -66.7302, 18.17122 ], [ -66.72796, 18.16271 ] ] } },
{ "type": "Feature", "properties": { "lntype": "27" }, "geometry": { "type": "LineString", "coordinates": [ [ -66.72788, 18.17066 ], [ -66.73007, 18.17005 ] ] } },
{ "type": "Feature", "properties": { "lntype": "27" }, "geometry": { "type": "LineString", "coordinates": [ [ -66.72724, 18.16955 ], [ -66.73007, 18.17005 ] ] } },
{ "type": "Feature", "properties": { "lntype": "27" }, "geometry": { "type": "LineString", "coordinates": [ [ -66.72796, 18.16271 ], [ -66.71817, 18.16116 ] ] } },
{ "type": "Feature", "properties": { "lntype": "27" }, "geometry": { "type": "LineString", "coordinates": [ [ -66.71522, 18.14957 ], [ -66.71251, 18.1532 ] ] } },
{ "type": "Feature", "properties": { "lntype": "27" }, "geometry": { "type": "LineString", "coordinates": [ [ -66.74369, 18.15688 ], [ -66.74259, 18.16125 ] ] } },
{ "type": "Feature", "properties": { "lntype": "27" }, "geometry": { "type": "LineString", "coordinates": [ [ -66.74045, 18.16581 ], [ -66.73929, 18.16877 ], [ -66.73987, 18.1716 ], [ -66.74005, 18.17967 ] ] } },
{ "type": "Feature", "properties": { "lntype": "27" }, "geometry": { "type": "LineString", "coordinates": [ [ -66.7225, 18.23382 ], [ -66.72662, 18.23912 ] ] } },
{ "type": "Feature", "properties": { "lntype": "27" }, "geometry": { "type": "LineString", "coordinates": [ [ -66.71876, 18.23751 ], [ -66.72364, 18.24478 ] ] } },
{ "type": "Feature", "properties": { "lntype": "27" }, "geometry": { "type": "LineString", "coordinates": [ [ -66.722, 18.3049 ], [ -66.71065, 18.30611 ] ] } },
{ "type": "Feature", "properties": { "lntype": "27" }, "geometry": { "type": "LineString", "coordinates": [ [ -66.69427, 18.30646 ], [ -66.67775, 18.31161 ] ] } },
{ "type": "Feature", "properties": { "lntype": "27" }, "geometry": { "type": "LineString", "coordinates": [ [ -66.67776, 18.31 ], [ -66.68278, 18.31014 ] ] } },
{ "type": "Feature", "properties": { "lntype": "27" }, "geometry": { "type": "LineString", "coordinates": [ [ -66.67053, 18.31233 ], [ -66.66614, 18.31257 ] ] } },
{ "type": "Feature", "properties": { "lntype": "27" }, "geometry": { "type": "LineString", "coordinates": [ [ -66.59194, 18.2201 ], [ -66.59673, 18.21382 ] ] } },
{ "type": "Feature", "properties": { "lntype": "27" }, "geometry": { "type": "LineString", "coordinates": [ [ -66.60461, 18.20448 ], [ -66.61029, 18.19857 ] ] } },
{ "type": "Feature", "properties": { "lntype": "27" }, "geometry": { "type": "LineString", "coordinates": [ [ -66.58076, 18.20812 ], [ -66.5783, 18.20947 ] ] } },
{ "type": "Feature", "properties": { "lntype": "27" }, "geometry": { "type": "LineString", "coordinates": [ [ -66.56901, 18.21352 ], [ -66.55559, 18.21891 ] ] } },
{ "type": "Feature", "properties": { "lntype": "27" }, "geometry": { "type": "LineString", "coordinates": [ [ -66.55608, 18.2295 ], [ -66.55312, 18.22839 ] ] } },
{ "type": "Feature", "properties": { "lntype": "27" }, "geometry": { "type": "LineString", "coordinates": [ [ -66.61443, 18.19433 ], [ -66.61973, 18.1872 ], [ -66.6205, 18.1856 ] ] } },
{ "type": "Feature", "properties": { "lntype": "27" }, "geometry": { "type": "LineString", "coordinates": [ [ -66.62776, 18.168 ], [ -66.62919, 18.16172 ] ] } },
{ "type": "Feature", "properties": { "lntype": "27" }, "geometry": { "type": "LineString", "coordinates": [ [ -66.64905, 18.00668 ], [ -66.64501, 18.00474 ], [ -66.63883, 18.00085 ] ] } },
{ "type": "Feature", "properties": { "lntype": "27" }, "geometry": { "type": "LineString", "coordinates": [ [ -66.63894, 17.99953 ], [ -66.63925, 18.00789 ], [ -66.64062, 18.01483 ], [ -66.6424, 18.02768 ], [ -66.64367, 18.0338 ], [ -66.646, 18.03941 ] ] } },
{ "type": "Feature", "properties": { "lntype": "27" }, "geometry": { "type": "LineString", "coordinates": [ [ -66.62298, 18.04039 ], [ -66.62957, 18.0506 ] ] } },
{ "type": "Feature", "properties": { "lntype": "27" }, "geometry": { "type": "LineString", "coordinates": [ [ -66.62733, 18.04865 ], [ -66.62466, 18.05099 ] ] } },
{ "type": "Feature", "properties": { "lntype": "27" }, "geometry": { "type": "LineString", "coordinates": [ [ -66.60723, 18.02842 ], [ -66.60764, 18.03832 ] ] } },
{ "type": "Feature", "properties": { "lntype": "27" }, "geometry": { "type": "LineString", "coordinates": [ [ -66.61276, 18.03517 ], [ -66.60743, 18.03454 ] ] } },
{ "type": "Feature", "properties": { "lntype": "27" }, "geometry": { "type": "LineString", "coordinates": [ [ -66.58867, 18.0341 ], [ -66.5849, 18.05265 ] ] } },
{ "type": "Feature", "properties": { "lntype": "27" }, "geometry": { "type": "LineString", "coordinates": [ [ -66.59226, 18.0493 ], [ -66.59822, 18.05624 ] ] } },
{ "type": "Feature", "properties": { "lntype": "27" }, "geometry": { "type": "LineString", "coordinates": [ [ -66.58907, 18.04511 ], [ -66.59461, 18.04665 ] ] } },
{ "type": "Feature", "properties": { "lntype": "27" }, "geometry": { "type": "LineString", "coordinates": [ [ -66.48896, 18.01652 ], [ -66.49546, 18.01991 ] ] } },
{ "type": "Feature", "properties": { "lntype": "27" }, "geometry": { "type": "LineString", "coordinates": [ [ -66.50269, 18.02349 ], [ -66.51642, 18.03046 ] ] } },
{ "type": "Feature", "properties": { "lntype": "27" }, "geometry": { "type": "LineString", "coordinates": [ [ -66.5691, 18.06403 ], [ -66.55694, 18.06655 ], [ -66.54915, 18.06878 ] ] } },
{ "type": "Feature", "properties": { "lntype": "27" }, "geometry": { "type": "LineString", "coordinates": [ [ -66.42731, 18.0342 ], [ -66.42454, 18.03245 ] ] } },
{ "type": "Feature", "properties": { "lntype": "27" }, "geometry": { "type": "LineString", "coordinates": [ [ -66.42295, 18.03153 ], [ -66.41954, 18.02989 ] ] } },
{ "type": "Feature", "properties": { "lntype": "27" }, "geometry": { "type": "LineString", "coordinates": [ [ -66.42201, 18.02419 ], [ -66.41694, 18.02365 ] ] } },
{ "type": "Feature", "properties": { "lntype": "27" }, "geometry": { "type": "LineString", "coordinates": [ [ -66.42623, 18.0396 ], [ -66.43122, 18.04491 ] ] } },
{ "type": "Feature", "properties": { "lntype": "27" }, "geometry": { "type": "LineString", "coordinates": [ [ -66.43763, 18.03922 ], [ -66.44061, 18.04035 ] ] } },
{ "type": "Feature", "properties": { "lntype": "27" }, "geometry": { "type": "LineString", "coordinates": [ [ -66.45429, 18.13196 ], [ -66.45517, 18.12543 ] ] } },
{ "type": "Feature", "properties": { "lntype": "27" }, "geometry": { "type": "LineString", "coordinates": [ [ -66.47881, 18.13488 ], [ -66.49387, 18.12574 ] ] } },
{ "type": "Feature", "properties": { "lntype": "27" }, "geometry": { "type": "LineString", "coordinates": [ [ -66.48352, 18.12938 ], [ -66.48479, 18.13367 ] ] } },
{ "type": "Feature", "properties": { "lntype": "27" }, "geometry": { "type": "LineString", "coordinates": [ [ -66.49387, 18.12574 ], [ -66.49407, 18.13135 ] ] } },
{ "type": "Feature", "properties": { "lntype": "27" }, "geometry": { "type": "LineString", "coordinates": [ [ -66.4966, 18.14084 ], [ -66.49993, 18.13524 ] ] } },
{ "type": "Feature", "properties": { "lntype": "27" }, "geometry": { "type": "LineString", "coordinates": [ [ -66.50441, 18.13423 ], [ -66.506, 18.13617 ] ] } },
{ "type": "Feature", "properties": { "lntype": "27" }, "geometry": { "type": "LineString", "coordinates": [ [ -66.4966, 18.14084 ], [ -66.5044, 18.13811 ], [ -66.51292, 18.13945 ] ] } },
{ "type": "Feature", "properties": { "lntype": "27" }, "geometry": { "type": "LineString", "coordinates": [ [ -66.33539, 17.99006 ], [ -66.33711, 17.98639 ] ] } },
{ "type": "Feature", "properties": { "lntype": "27" }, "geometry": { "type": "LineString", "coordinates": [ [ -66.33303, 17.99535 ], [ -66.33131, 17.99932 ] ] } },
{ "type": "Feature", "properties": { "lntype": "27" }, "geometry": { "type": "LineString", "coordinates": [ [ -66.33007, 17.98902 ], [ -66.33178, 17.98617 ] ] } },
{ "type": "Feature", "properties": { "lntype": "27" }, "geometry": { "type": "LineString", "coordinates": [ [ -66.32514, 17.99624 ], [ -66.32407, 17.99777 ] ] } },
{ "type": "Feature", "properties": { "lntype": "27" }, "geometry": { "type": "LineString", "coordinates": [ [ -66.31559, 17.98571 ], [ -66.31666, 17.98265 ] ] } },
{ "type": "Feature", "properties": { "lntype": "27" }, "geometry": { "type": "LineString", "coordinates": [ [ -66.3923, 18.01879 ], [ -66.37877, 18.0161 ], [ -66.36748, 18.01576 ], [ -66.29608, 17.98778 ] ] } },
{ "type": "Feature", "properties": { "lntype": "27" }, "geometry": { "type": "LineString", "coordinates": [ [ -66.36758, 18.01576 ], [ -66.37896, 18.02385 ] ] } },
{ "type": "Feature", "properties": { "lntype": "27" }, "geometry": { "type": "LineString", "coordinates": [ [ -66.34501, 18.00997 ], [ -66.33137, 18.00982 ] ] } },
{ "type": "Feature", "properties": { "lntype": "27" }, "geometry": { "type": "LineString", "coordinates": [ [ -66.30164, 18.00911 ], [ -66.29473, 18.005 ] ] } },
{ "type": "Feature", "properties": { "lntype": "27" }, "geometry": { "type": "LineString", "coordinates": [ [ -66.32069, 18.01713 ], [ -66.32643, 18.02011 ] ] } },
{ "type": "Feature", "properties": { "lntype": "27" }, "geometry": { "type": "LineString", "coordinates": [ [ -66.3194, 18.02039 ], [ -66.3244, 18.02193 ] ] } },
{ "type": "Feature", "properties": { "lntype": "27" }, "geometry": { "type": "LineString", "coordinates": [ [ -66.32792, 18.02093 ], [ -66.33547, 18.02462 ], [ -66.35155, 18.02927 ] ] } },
{ "type": "Feature", "properties": { "lntype": "27" }, "geometry": { "type": "LineString", "coordinates": [ [ -66.32706, 18.02276 ], [ -66.33515, 18.02442 ] ] } },
{ "type": "Feature", "properties": { "lntype": "27" }, "geometry": { "type": "LineString", "coordinates": [ [ -66.33449, 18.03135 ], [ -66.33515, 18.02442 ] ] } },
{ "type": "Feature", "properties": { "lntype": "27" }, "geometry": { "type": "LineString", "coordinates": [ [ -66.33194, 18.029 ], [ -66.33515, 18.02442 ] ] } },
{ "type": "Feature", "properties": { "lntype": "27" }, "geometry": { "type": "LineString", "coordinates": [ [ -66.32392, 18.0356 ], [ -66.33254, 18.04011 ] ] } },
{ "type": "Feature", "properties": { "lntype": "27" }, "geometry": { "type": "LineString", "coordinates": [ [ -66.32391, 18.03886 ], [ -66.32784, 18.04101 ] ] } },
{ "type": "Feature", "properties": { "lntype": "27" }, "geometry": { "type": "LineString", "coordinates": [ [ -66.32425, 18.03437 ], [ -66.3318, 18.03766 ] ] } },
{ "type": "Feature", "properties": { "lntype": "27" }, "geometry": { "type": "LineString", "coordinates": [ [ -66.32915, 18.03388 ], [ -66.32829, 18.03602 ] ] } },
{ "type": "Feature", "properties": { "lntype": "27" }, "geometry": { "type": "LineString", "coordinates": [ [ -66.33955, 18.04585 ], [ -66.34626, 18.04862 ], [ -66.35168, 18.05221 ], [ -66.35645, 18.05916 ] ] } },
{ "type": "Feature", "properties": { "lntype": "27" }, "geometry": { "type": "LineString", "coordinates": [ [ -66.35358, 18.05793 ], [ -66.35655, 18.06008 ] ] } },
{ "type": "Feature", "properties": { "lntype": "27" }, "geometry": { "type": "LineString", "coordinates": [ [ -66.36641, 18.04716 ], [ -66.37288, 18.05636 ] ] } },
{ "type": "Feature", "properties": { "lntype": "27" }, "geometry": { "type": "LineString", "coordinates": [ [ -66.3691, 18.03901 ], [ -66.37485, 18.04005 ], [ -66.37868, 18.04292 ] ] } },
{ "type": "Feature", "properties": { "lntype": "27" }, "geometry": { "type": "LineString", "coordinates": [ [ -66.36507, 18.034 ], [ -66.37582, 18.0373 ] ] } },
{ "type": "Feature", "properties": { "lntype": "27" }, "geometry": { "type": "LineString", "coordinates": [ [ -66.36475, 18.06337 ], [ -66.36943, 18.06522 ] ] } },
{ "type": "Feature", "properties": { "lntype": "27" }, "geometry": { "type": "LineString", "coordinates": [ [ -66.36946, 18.05869 ], [ -66.3719, 18.06176 ] ] } },
{ "type": "Feature", "properties": { "lntype": "27" }, "geometry": { "type": "LineString", "coordinates": [ [ -66.35846, 18.06447 ], [ -66.36036, 18.06845 ] ] } },
{ "type": "Feature", "properties": { "lntype": "27" }, "geometry": { "type": "LineString", "coordinates": [ [ -66.3532, 18.07199 ], [ -66.35651, 18.07088 ] ] } },
{ "type": "Feature", "properties": { "lntype": "27" }, "geometry": { "type": "LineString", "coordinates": [ [ -66.34101, 18.08276 ], [ -66.33503, 18.0859 ] ] } },
{ "type": "Feature", "properties": { "lntype": "27" }, "geometry": { "type": "LineString", "coordinates": [ [ -66.29608, 17.98778 ], [ -66.23992, 17.9635 ] ] } },
{ "type": "Feature", "properties": { "lntype": "27" }, "geometry": { "type": "LineString", "coordinates": [ [ -66.23507, 17.97796 ], [ -66.23316, 17.97602 ] ] } },
{ "type": "Feature", "properties": { "lntype": "27" }, "geometry": { "type": "LineString", "coordinates": [ [ -66.2374, 17.98083 ], [ -66.26657, 18.01295 ] ] } },
{ "type": "Feature", "properties": { "lntype": "27" }, "geometry": { "type": "LineString", "coordinates": [ [ -66.26858, 18.01572 ], [ -66.27028, 18.01807 ] ] } },
{ "type": "Feature", "properties": { "lntype": "27" }, "geometry": { "type": "LineString", "coordinates": [ [ -66.24861, 18.02594 ], [ -66.25596, 18.02627 ] ] } },
{ "type": "Feature", "properties": { "lntype": "27" }, "geometry": { "type": "LineString", "coordinates": [ [ -66.28604, 18.04566 ], [ -66.28074, 18.04044 ] ] } },
{ "type": "Feature", "properties": { "lntype": "27" }, "geometry": { "type": "LineString", "coordinates": [ [ -66.282, 18.04421 ], [ -66.28318, 18.04269 ] ] } },
{ "type": "Feature", "properties": { "lntype": "27" }, "geometry": { "type": "LineString", "coordinates": [ [ -66.27796, 18.04155 ], [ -66.27935, 18.03992 ] ] } },
{ "type": "Feature", "properties": { "lntype": "27" }, "geometry": { "type": "LineString", "coordinates": [ [ -66.26976, 18.03927 ], [ -66.27297, 18.03796 ] ] } },
{ "type": "Feature", "properties": { "lntype": "27" }, "geometry": { "type": "LineString", "coordinates": [ [ -66.28308, 18.03943 ], [ -66.27883, 18.03676 ] ] } },
{ "type": "Feature", "properties": { "lntype": "27" }, "geometry": { "type": "LineString", "coordinates": [ [ -66.25013, 18.06918 ], [ -66.25248, 18.06735 ] ] } },
{ "type": "Feature", "properties": { "lntype": "27" }, "geometry": { "type": "LineString", "coordinates": [ [ -66.24886, 18.06713 ], [ -66.25248, 18.06735 ] ] } },
{ "type": "Feature", "properties": { "lntype": "27" }, "geometry": { "type": "LineString", "coordinates": [ [ -66.30442, 18.08855 ], [ -66.31711, 18.08727 ] ] } },
{ "type": "Feature", "properties": { "lntype": "27" }, "geometry": { "type": "LineString", "coordinates": [ [ -66.34014, 18.08704 ], [ -66.346, 18.08818 ] ] } },
{ "type": "Feature", "properties": { "lntype": "27" }, "geometry": { "type": "LineString", "coordinates": [ [ -66.29283, 18.13561 ], [ -66.29239, 18.13877 ] ] } },
{ "type": "Feature", "properties": { "lntype": "27" }, "geometry": { "type": "LineString", "coordinates": [ [ -66.27516, 18.12535 ], [ -66.27746, 18.13708 ], [ -66.27762, 18.14993 ] ] } },
{ "type": "Feature", "properties": { "lntype": "27" }, "geometry": { "type": "LineString", "coordinates": [ [ -66.25409, 18.14128 ], [ -66.25699, 18.13609 ] ] } },
{ "type": "Feature", "properties": { "lntype": "27" }, "geometry": { "type": "LineString", "coordinates": [ [ -66.25675, 18.14251 ], [ -66.26135, 18.13906 ] ] } },
{ "type": "Feature", "properties": { "lntype": "27" }, "geometry": { "type": "LineString", "coordinates": [ [ -66.31523, 18.18892 ], [ -66.31981, 18.18924 ] ] } },
{ "type": "Feature", "properties": { "lntype": "27" }, "geometry": { "type": "LineString", "coordinates": [ [ -66.20292, 18.23181 ], [ -66.19556, 18.23127 ], [ -66.18157, 18.23397 ] ] } },
{ "type": "Feature", "properties": { "lntype": "27" }, "geometry": { "type": "LineString", "coordinates": [ [ -66.23151, 18.08582 ], [ -66.22786, 18.09152 ] ] } },
{ "type": "Feature", "properties": { "lntype": "27" }, "geometry": { "type": "LineString", "coordinates": [ [ -66.16447, 18.1038 ], [ -66.15313, 18.112 ] ] } },
{ "type": "Feature", "properties": { "lntype": "27" }, "geometry": { "type": "LineString", "coordinates": [ [ -66.16573, 18.10788 ], [ -66.16308, 18.10491 ] ] } },
{ "type": "Feature", "properties": { "lntype": "27" }, "geometry": { "type": "LineString", "coordinates": [ [ -66.15339, 18.1692 ], [ -66.16436, 18.17139 ] ] } },
{ "type": "Feature", "properties": { "lntype": "27" }, "geometry": { "type": "LineString", "coordinates": [ [ -66.16784, 18.1815 ], [ -66.15717, 18.18074 ] ] } },
{ "type": "Feature", "properties": { "lntype": "27" }, "geometry": { "type": "LineString", "coordinates": [ [ -66.17804, 18.23456 ], [ -66.18157, 18.23397 ] ] } },
{ "type": "Feature", "properties": { "lntype": "27" }, "geometry": { "type": "LineString", "coordinates": [ [ -66.17067, 18.23708 ], [ -66.1794, 18.23997 ] ] } },
{ "type": "Feature", "properties": { "lntype": "27" }, "geometry": { "type": "LineString", "coordinates": [ [ -66.17, 18.24167 ], [ -66.1796, 18.24283 ] ] } },
{ "type": "Feature", "properties": { "lntype": "27" }, "geometry": { "type": "LineString", "coordinates": [ [ -66.14844, 18.2432 ], [ -66.15421, 18.24262 ] ] } },
{ "type": "Feature", "properties": { "lntype": "27" }, "geometry": { "type": "LineString", "coordinates": [ [ -66.21118, 18.29221 ], [ -66.20779, 18.2873 ] ] } },
{ "type": "Feature", "properties": { "lntype": "27" }, "geometry": { "type": "LineString", "coordinates": [ [ -66.14757, 18.2903 ], [ -66.15811, 18.29647 ], [ -66.16909, 18.29947 ] ] } },
{ "type": "Feature", "properties": { "lntype": "27" }, "geometry": { "type": "LineString", "coordinates": [ [ -66.1976, 18.36679 ], [ -66.19693, 18.3731 ] ] } },
{ "type": "Feature", "properties": { "lntype": "27" }, "geometry": { "type": "LineString", "coordinates": [ [ -66.17828, 18.36528 ], [ -66.18468, 18.36693 ] ] } },
{ "type": "Feature", "properties": { "lntype": "27" }, "geometry": { "type": "LineString", "coordinates": [ [ -66.18468, 18.36693 ], [ -66.19704, 18.37178 ] ] } },
{ "type": "Feature", "properties": { "lntype": "27" }, "geometry": { "type": "LineString", "coordinates": [ [ -66.14051, 18.35909 ], [ -66.14152, 18.37133 ] ] } },
{ "type": "Feature", "properties": { "lntype": "27" }, "geometry": { "type": "LineString", "coordinates": [ [ -66.13643, 18.36244 ], [ -66.14152, 18.37133 ] ] } },
{ "type": "Feature", "properties": { "lntype": "27" }, "geometry": { "type": "LineString", "coordinates": [ [ -66.10081, 18.30747 ], [ -66.11573, 18.3102 ] ] } }
]
}
