{
"type": "FeatureCollection",
"name": "transfers_tunnels",
"crs": { "type": "name", "properties": { "name": "urn:ogc:def:crs:OGC:1.3:CRS84" } },
"xy_coordinate_resolution": 1e-05,
"features": [
{ "type": "Feature", "properties": { "fcode": 42803, "label": "Aqueduct, underground", "name": null, "source": "NHDPlus HR network flowline", "length_mi": 0.65, "directed": true, "direction": "recorded" }, "geometry": { "type": "LineString", "coordinates": [ [ -66.6755, 18.23271 ], [ -66.67503, 18.23318 ], [ -66.67396, 18.23432 ], [ -66.67289, 18.23546 ], [ -66.67206, 18.23635 ], [ -66.6714, 18.23708 ], [ -66.6707, 18.23786 ], [ -66.67007, 18.23856 ], [ -66.66939, 18.23925 ], [ -66.669, 18.23968 ], [ -66.66888, 18.23982 ] ] } },
{ "type": "Feature", "properties": { "fcode": 42803, "label": "Aqueduct, underground", "name": "Canal Principal De Riego Valle De Lajas", "source": "NHDPlus HR network flowline", "length_mi": 0.34, "directed": true, "direction": "recorded" }, "geometry": { "type": "LineString", "coordinates": [ [ -66.89208, 18.03599 ], [ -66.89339, 18.03531 ], [ -66.89501, 18.03448 ], [ -66.89662, 18.03372 ] ] } },
{ "type": "Feature", "properties": { "fcode": 42803, "label": "Aqueduct, underground", "name": null, "source": "NHDPlus HR network flowline", "length_mi": 0.31, "directed": true, "direction": "recorded" }, "geometry": { "type": "LineString", "coordinates": [ [ -66.67852, 18.22933 ], [ -66.67821, 18.22976 ], [ -66.67715, 18.23092 ], [ -66.67622, 18.23196 ], [ -66.67566, 18.23255 ], [ -66.6755, 18.23271 ] ] } },
{ "type": "Feature", "properties": { "fcode": 42803, "label": "Aqueduct, underground", "name": null, "source": "NHDPlus HR network flowline", "length_mi": 1.62, "directed": true, "direction": "recorded" }, "geometry": { "type": "LineString", "coordinates": [ [ -66.73177, 18.19984 ], [ -66.73099, 18.19986 ], [ -66.72748, 18.19985 ], [ -66.72218, 18.19983 ], [ -66.72094, 18.19984 ], [ -66.71777, 18.19986 ], [ -66.71291, 18.19983 ], [ -66.70828, 18.19983 ], [ -66.7072, 18.19982 ] ] } },
{ "type": "Feature", "properties": { "fcode": 42803, "label": "Aqueduct, underground", "name": null, "source": "NHDPlus HR non network flowline", "length_mi": 1.97, "directed": true, "direction": "inferred" }, "geometry": { "type": "LineString", "coordinates": [ [ -66.86123, 18.18312 ], [ -66.85461, 18.18679 ], [ -66.8499, 18.18943 ], [ -66.84622, 18.19149 ], [ -66.84194, 18.19391 ], [ -66.84056, 18.19468 ], [ -66.8369, 18.19673 ], [ -66.83544, 18.19757 ] ] } },
{ "type": "Feature", "properties": { "fcode": 42803, "label": "Aqueduct, underground", "name": null, "source": "NHDPlus HR non network flowline", "length_mi": 0.01, "directed": false, "direction": "unknown" }, "geometry": { "type": "LineString", "coordinates": [ [ -66.86301, 18.18351 ], [ -66.86283, 18.18339 ] ] } },
{ "type": "Feature", "properties": { "fcode": 42803, "label": "Aqueduct, underground", "name": null, "source": "NHDPlus HR non network flowline", "length_mi": 0.58, "directed": true, "direction": "inferred" }, "geometry": { "type": "LineString", "coordinates": [ [ -66.66823, 18.24192 ], [ -66.66724, 18.24256 ], [ -66.66614, 18.24321 ], [ -66.66508, 18.24381 ], [ -66.66373, 18.24454 ], [ -66.66255, 18.24521 ], [ -66.66136, 18.24584 ], [ -66.66071, 18.24625 ] ] } },
{ "type": "Feature", "properties": { "fcode": 42803, "label": "Aqueduct, underground", "name": null, "source": "NHDPlus HR non network flowline", "length_mi": 1.66, "directed": true, "direction": "inferred" }, "geometry": { "type": "LineString", "coordinates": [ [ -66.65675, 18.27694 ], [ -66.65723, 18.27744 ], [ -66.65667, 18.27838 ], [ -66.65577, 18.27967 ], [ -66.65499, 18.28081 ], [ -66.65435, 18.28173 ], [ -66.65305, 18.28361 ], [ -66.65139, 18.28603 ], [ -66.65008, 18.28789 ], [ -66.64837, 18.29041 ], [ -66.64648, 18.2932 ], [ -66.64531, 18.29494 ], [ -66.64493, 18.2952 ], [ -66.64448, 18.29545 ], [ -66.64309, 18.2963 ] ] } },
{ "type": "Feature", "properties": { "fcode": 42803, "label": "Aqueduct, underground", "name": null, "source": "NHDPlus HR non network flowline", "length_mi": 0.9, "directed": true, "direction": "inferred" }, "geometry": { "type": "LineString", "coordinates": [ [ -66.8684, 18.12302 ], [ -66.8686, 18.12048 ], [ -66.86883, 18.11616 ], [ -66.86891, 18.1147 ], [ -66.86898, 18.11451 ], [ -66.87067, 18.11115 ], [ -66.87089, 18.11062 ], [ -66.87104, 18.11038 ] ] } },
{ "type": "Feature", "properties": { "fcode": 42803, "label": "Aqueduct, underground", "name": null, "source": "NHDPlus HR non network flowline", "length_mi": 0.11, "directed": true, "direction": "inferred" }, "geometry": { "type": "LineString", "coordinates": [ [ -66.86123, 18.18312 ], [ -66.86283, 18.18339 ] ] } },
{ "type": "Feature", "properties": { "fcode": 42803, "label": "Aqueduct, underground", "name": null, "source": "NHDPlus HR non network flowline", "length_mi": 0.32, "directed": true, "direction": "inferred" }, "geometry": { "type": "LineString", "coordinates": [ [ -66.73051, 18.0782 ], [ -66.73035, 18.07705 ], [ -66.73008, 18.07522 ], [ -66.72999, 18.07444 ], [ -66.72997, 18.07413 ], [ -66.73001, 18.07396 ], [ -66.73008, 18.07379 ], [ -66.73013, 18.07369 ], [ -66.73019, 18.07358 ] ] } },
{ "type": "Feature", "properties": { "fcode": 42803, "label": "Aqueduct, underground", "name": null, "source": "NHDPlus HR non network flowline", "length_mi": 2.65, "directed": true, "direction": "inferred" }, "geometry": { "type": "LineString", "coordinates": [ [ -66.74257, 18.13155 ], [ -66.74219, 18.13006 ], [ -66.74155, 18.12766 ], [ -66.74117, 18.12622 ], [ -66.74093, 18.12532 ], [ -66.74046, 18.12357 ], [ -66.74033, 18.12302 ], [ -66.74001, 18.12218 ], [ -66.7397, 18.12086 ], [ -66.73958, 18.12043 ], [ -66.73935, 18.11962 ], [ -66.73872, 18.1172 ], [ -66.7383, 18.11562 ], [ -66.73779, 18.11368 ], [ -66.73743, 18.11228 ], [ -66.73679, 18.10992 ], [ -66.73635, 18.10825 ], [ -66.7358, 18.10628 ], [ -66.73536, 18.10452 ], [ -66.73514, 18.10372 ], [ -66.73473, 18.10217 ], [ -66.73424, 18.10044 ], [ -66.73409, 18.09976 ], [ -66.73385, 18.09887 ], [ -66.73353, 18.09757 ], [ -66.73347, 18.09736 ], [ -66.73369, 18.0971 ], [ -66.73377, 18.09699 ], [ -66.73381, 18.09574 ], [ -66.73451, 18.09433 ] ] } },
{ "type": "Feature", "properties": { "fcode": 42803, "label": "Aqueduct, underground", "name": null, "source": "NHDPlus HR non network flowline", "length_mi": 2.93, "directed": true, "direction": "inferred" }, "geometry": { "type": "LineString", "coordinates": [ [ -66.86718, 18.09296 ], [ -66.86732, 18.09259 ], [ -66.86969, 18.08736 ], [ -66.86999, 18.08667 ], [ -66.87091, 18.08464 ], [ -66.87119, 18.08402 ], [ -66.87171, 18.08286 ], [ -66.87284, 18.08035 ], [ -66.87346, 18.07897 ], [ -66.87446, 18.07676 ], [ -66.87462, 18.07647 ], [ -66.87556, 18.07507 ], [ -66.87627, 18.07362 ], [ -66.8767, 18.07274 ], [ -66.87756, 18.07091 ], [ -66.87867, 18.06865 ], [ -66.87988, 18.06618 ], [ -66.88128, 18.0633 ], [ -66.88209, 18.06161 ], [ -66.88338, 18.05895 ], [ -66.8847, 18.05627 ], [ -66.88464, 18.05599 ], [ -66.88439, 18.05472 ], [ -66.88427, 18.05409 ] ] } },
{ "type": "Feature", "properties": { "fcode": 42803, "label": "Aqueduct, underground", "name": null, "source": "NHDPlus HR non network flowline", "length_mi": 2.01, "directed": false, "direction": "unknown" }, "geometry": { "type": "LineString", "coordinates": [ [ -66.70626, 18.21046 ], [ -66.70557, 18.21092 ], [ -66.7029, 18.21267 ], [ -66.69977, 18.21473 ], [ -66.69899, 18.21519 ], [ -66.69692, 18.21648 ], [ -66.69449, 18.21809 ], [ -66.69231, 18.2195 ], [ -66.68969, 18.22118 ], [ -66.68717, 18.22283 ], [ -66.6849, 18.22431 ], [ -66.68408, 18.22485 ], [ -66.68367, 18.22512 ], [ -66.68228, 18.22597 ], [ -66.68108, 18.22677 ], [ -66.68091, 18.22688 ] ] } },
{ "type": "Feature", "properties": { "fcode": 42803, "label": "Aqueduct, underground", "name": null, "source": "NHDPlus HR non network flowline", "length_mi": 4.18, "directed": true, "direction": "inferred" }, "geometry": { "type": "LineString", "coordinates": [ [ -66.86123, 18.18312 ], [ -66.86207, 18.18044 ], [ -66.86245, 18.17928 ], [ -66.86306, 18.17744 ], [ -66.86469, 18.17243 ], [ -66.8649, 18.16962 ], [ -66.86553, 18.16151 ], [ -66.86557, 18.16093 ], [ -66.86647, 18.14996 ], [ -66.86691, 18.1443 ], [ -66.8671, 18.1418 ], [ -66.86779, 18.13306 ], [ -66.86822, 18.12726 ], [ -66.8684, 18.12302 ] ] } },
{ "type": "Feature", "properties": { "fcode": 47800, "label": "Tunnel", "name": null, "source": "NHDPlus HR line feature", "length_mi": null, "directed": true, "direction": "inferred" }, "geometry": { "type": "LineString", "coordinates": [ [ -66.8684, 18.12302 ], [ -66.8686, 18.12048 ], [ -66.86883, 18.11616 ], [ -66.86891, 18.1147 ] ] } },
{ "type": "Feature", "properties": { "fcode": 47800, "label": "Tunnel", "name": null, "source": "NHDPlus HR line feature", "length_mi": null, "directed": false, "direction": "unknown" }, "geometry": { "type": "LineString", "coordinates": [ [ -66.86301, 18.18351 ], [ -66.86283, 18.18339 ] ] } },
{ "type": "Feature", "properties": { "fcode": 47800, "label": "Tunnel", "name": null, "source": "NHDPlus HR line feature", "length_mi": null, "directed": true, "direction": "inferred" }, "geometry": { "type": "LineString", "coordinates": [ [ -66.74033, 18.12302 ], [ -66.74001, 18.12218 ], [ -66.7397, 18.12086 ], [ -66.73958, 18.12043 ], [ -66.73935, 18.11962 ], [ -66.73872, 18.1172 ], [ -66.7383, 18.11562 ], [ -66.73779, 18.11368 ], [ -66.73743, 18.11228 ], [ -66.73679, 18.10992 ], [ -66.73635, 18.10825 ], [ -66.7358, 18.10628 ], [ -66.73536, 18.10452 ], [ -66.73514, 18.10372 ], [ -66.73473, 18.10217 ], [ -66.73424, 18.10044 ], [ -66.73409, 18.09976 ], [ -66.73385, 18.09887 ], [ -66.73353, 18.09757 ], [ -66.73347, 18.09736 ], [ -66.73369, 18.0971 ], [ -66.73377, 18.09699 ], [ -66.73381, 18.09574 ], [ -66.73451, 18.09433 ] ] } },
{ "type": "Feature", "properties": { "fcode": 47800, "label": "Tunnel", "name": null, "source": "NHDPlus HR line feature", "length_mi": null, "directed": true, "direction": "inferred" }, "geometry": { "type": "LineString", "coordinates": [ [ -66.66823, 18.24192 ], [ -66.66724, 18.24256 ], [ -66.66614, 18.24321 ], [ -66.66508, 18.24381 ], [ -66.66373, 18.24454 ], [ -66.66255, 18.24521 ], [ -66.66136, 18.24584 ], [ -66.66071, 18.24625 ] ] } },
{ "type": "Feature", "properties": { "fcode": 47800, "label": "Tunnel", "name": null, "source": "NHDPlus HR line feature", "length_mi": null, "directed": true, "direction": "inferred" }, "geometry": { "type": "LineString", "coordinates": [ [ -66.73177, 18.19984 ], [ -66.73099, 18.19986 ], [ -66.72748, 18.19985 ], [ -66.72218, 18.19983 ], [ -66.72094, 18.19984 ], [ -66.71777, 18.19986 ], [ -66.71291, 18.19983 ], [ -66.70828, 18.19983 ], [ -66.7072, 18.19982 ] ] } },
{ "type": "Feature", "properties": { "fcode": 47800, "label": "Tunnel", "name": null, "source": "NHDPlus HR line feature", "length_mi": null, "directed": true, "direction": "inferred" }, "geometry": { "type": "LineString", "coordinates": [ [ -66.73051, 18.0782 ], [ -66.73035, 18.07705 ], [ -66.73008, 18.07522 ], [ -66.72999, 18.07444 ], [ -66.72997, 18.07413 ], [ -66.73001, 18.07396 ], [ -66.73008, 18.07379 ], [ -66.73013, 18.07369 ], [ -66.73019, 18.07358 ] ] } },
{ "type": "Feature", "properties": { "fcode": 47800, "label": "Tunnel", "name": null, "source": "NHDPlus HR line feature", "length_mi": null, "directed": true, "direction": "inferred" }, "geometry": { "type": "LineString", "coordinates": [ [ -66.67852, 18.22933 ], [ -66.67821, 18.22976 ], [ -66.67715, 18.23092 ], [ -66.67622, 18.23196 ], [ -66.67566, 18.23255 ], [ -66.6755, 18.23271 ], [ -66.67503, 18.23318 ], [ -66.67396, 18.23432 ], [ -66.67289, 18.23546 ], [ -66.67206, 18.23635 ], [ -66.6714, 18.23708 ], [ -66.6707, 18.23786 ], [ -66.67007, 18.23856 ], [ -66.66939, 18.23925 ], [ -66.669, 18.23968 ], [ -66.66888, 18.23982 ] ] } },
{ "type": "Feature", "properties": { "fcode": 47800, "label": "Tunnel", "name": null, "source": "NHDPlus HR line feature", "length_mi": null, "directed": true, "direction": "inferred" }, "geometry": { "type": "LineString", "coordinates": [ [ -66.89662, 18.03372 ], [ -66.89501, 18.03448 ], [ -66.89339, 18.03531 ], [ -66.89208, 18.03599 ] ] } },
{ "type": "Feature", "properties": { "fcode": 47800, "label": "Tunnel", "name": null, "source": "NHDPlus HR line feature", "length_mi": null, "directed": true, "direction": "inferred" }, "geometry": { "type": "LineString", "coordinates": [ [ -66.87462, 18.07647 ], [ -66.87461, 18.07647 ], [ -66.87446, 18.07676 ], [ -66.87346, 18.07897 ], [ -66.87284, 18.08035 ], [ -66.87171, 18.08286 ], [ -66.87119, 18.08402 ], [ -66.87091, 18.08464 ], [ -66.86999, 18.08667 ], [ -66.86969, 18.08736 ], [ -66.86732, 18.09259 ], [ -66.86718, 18.09296 ] ] } },
{ "type": "Feature", "properties": { "fcode": 47800, "label": "Tunnel", "name": null, "source": "NHDPlus HR line feature", "length_mi": null, "directed": true, "direction": "inferred" }, "geometry": { "type": "LineString", "coordinates": [ [ -66.87462, 18.07647 ], [ -66.87556, 18.07507 ], [ -66.87627, 18.07362 ], [ -66.8767, 18.07274 ], [ -66.87756, 18.07091 ], [ -66.87867, 18.06865 ], [ -66.87988, 18.06618 ], [ -66.88128, 18.0633 ], [ -66.88209, 18.06161 ], [ -66.88338, 18.05895 ], [ -66.8847, 18.05627 ], [ -66.88464, 18.05599 ], [ -66.88439, 18.05472 ], [ -66.88427, 18.05409 ] ] } },
{ "type": "Feature", "properties": { "fcode": 47800, "label": "Tunnel", "name": null, "source": "NHDPlus HR line feature", "length_mi": null, "directed": false, "direction": "unknown" }, "geometry": { "type": "LineString", "coordinates": [ [ -66.70626, 18.21046 ], [ -66.70557, 18.21092 ], [ -66.7029, 18.21267 ], [ -66.69977, 18.21473 ], [ -66.69899, 18.21519 ], [ -66.69692, 18.21648 ], [ -66.69449, 18.21809 ], [ -66.69231, 18.2195 ], [ -66.68969, 18.22118 ], [ -66.68717, 18.22283 ], [ -66.6849, 18.22431 ], [ -66.68408, 18.22485 ], [ -66.68367, 18.22512 ], [ -66.68228, 18.22597 ], [ -66.68108, 18.22677 ], [ -66.68091, 18.22688 ] ] } },
{ "type": "Feature", "properties": { "fcode": 47800, "label": "Tunnel", "name": null, "source": "NHDPlus HR line feature", "length_mi": null, "directed": true, "direction": "inferred" }, "geometry": { "type": "LineString", "coordinates": [ [ -66.74033, 18.12302 ], [ -66.74046, 18.12357 ], [ -66.74093, 18.12532 ], [ -66.74117, 18.12622 ], [ -66.74155, 18.12766 ], [ -66.74219, 18.13006 ], [ -66.74257, 18.13155 ] ] } },
{ "type": "Feature", "properties": { "fcode": 47800, "label": "Tunnel", "name": null, "source": "NHDPlus HR line feature", "length_mi": null, "directed": false, "direction": "unknown" }, "geometry": { "type": "LineString", "coordinates": [ [ -66.86237, 18.17994 ], [ -66.86237, 18.17968 ], [ -66.86243, 18.17939 ], [ -66.86245, 18.17928 ] ] } },
{ "type": "Feature", "properties": { "fcode": 47800, "label": "Tunnel", "name": null, "source": "NHDPlus HR line feature", "length_mi": null, "directed": true, "direction": "inferred" }, "geometry": { "type": "LineString", "coordinates": [ [ -66.65675, 18.27694 ], [ -66.65723, 18.27744 ], [ -66.65667, 18.27838 ], [ -66.65577, 18.27967 ], [ -66.65499, 18.28081 ], [ -66.65435, 18.28173 ], [ -66.65305, 18.28361 ], [ -66.65139, 18.28603 ], [ -66.65008, 18.28789 ], [ -66.64837, 18.29041 ], [ -66.64648, 18.2932 ], [ -66.64531, 18.29494 ], [ -66.64493, 18.2952 ], [ -66.64448, 18.29545 ], [ -66.64331, 18.29616 ] ] } }
]
}
