{
"type": "FeatureCollection",
"name": "transfers_pipelines",
"crs": { "type": "name", "properties": { "name": "urn:ogc:def:crs:OGC:1.3:CRS84" } },
"xy_coordinate_resolution": 1e-05,
"features": [
{ "type": "Feature", "properties": { "fcode": 42813, "label": "Siphon", "name": null, "source": "NHDPlus HR network flowline", "length_mi": 0.95 }, "geometry": { "type": "LineString", "coordinates": [ [ -66.49392, 18.20663 ], [ -66.49458, 18.20612 ], [ -66.49509, 18.20575 ], [ -66.49607, 18.205 ], [ -66.49712, 18.20424 ], [ -66.49793, 18.20364 ], [ -66.49867, 18.20308 ], [ -66.49951, 18.20248 ], [ -66.49962, 18.20243 ], [ -66.50233, 18.20041 ], [ -66.50351, 18.19954 ], [ -66.50471, 18.19866 ], [ -66.50541, 18.19814 ] ] } },
{ "type": "Feature", "properties": { "fcode": 42813, "label": "Siphon", "name": null, "source": "NHDPlus HR network flowline", "length_mi": 0.19 }, "geometry": { "type": "LineString", "coordinates": [ [ -66.74265, 18.14012 ], [ -66.74219, 18.14016 ], [ -66.74133, 18.14024 ], [ -66.7403, 18.14033 ], [ -66.73982, 18.14037 ] ] } },
{ "type": "Feature", "properties": { "fcode": 42813, "label": "Siphon", "name": null, "source": "NHDPlus HR network flowline", "length_mi": 0.07 }, "geometry": { "type": "LineString", "coordinates": [ [ -67.01834, 18.04462 ], [ -67.01871, 18.0456 ] ] } },
{ "type": "Feature", "properties": { "fcode": 42813, "label": "Siphon", "name": null, "source": "NHDPlus HR network flowline", "length_mi": 0.04 }, "geometry": { "type": "LineString", "coordinates": [ [ -66.50933, 18.17555 ], [ -66.50935, 18.17531 ], [ -66.50935, 18.1751 ], [ -66.50935, 18.17496 ] ] } },
{ "type": "Feature", "properties": { "fcode": 42800, "label": "Pipeline", "name": null, "source": "NHDPlus HR network flowline", "length_mi": 0.16 }, "geometry": { "type": "LineString", "coordinates": [ [ -66.49392, 18.20663 ], [ -66.49379, 18.20668 ], [ -66.4937, 18.20673 ], [ -66.49348, 18.20674 ], [ -66.49331, 18.20669 ], [ -66.49321, 18.20671 ], [ -66.49306, 18.2067 ], [ -66.49295, 18.20677 ], [ -66.49287, 18.20684 ], [ -66.4927, 18.20685 ], [ -66.49251, 18.20679 ], [ -66.49239, 18.20684 ], [ -66.49215, 18.20691 ], [ -66.49207, 18.20702 ], [ -66.49206, 18.20714 ], [ -66.49195, 18.20724 ], [ -66.49191, 18.20733 ], [ -66.49192, 18.20735 ] ] } },
{ "type": "Feature", "properties": { "fcode": 42800, "label": "Pipeline", "name": null, "source": "NHDPlus HR network flowline", "length_mi": 0.98 }, "geometry": { "type": "LineString", "coordinates": [ [ -66.49192, 18.20735 ], [ -66.49197, 18.20743 ], [ -66.49202, 18.20756 ], [ -66.49199, 18.2077 ], [ -66.492, 18.20781 ], [ -66.49209, 18.2079 ], [ -66.49216, 18.20804 ], [ -66.49227, 18.2081 ], [ -66.4925, 18.20825 ], [ -66.49256, 18.20856 ], [ -66.49251, 18.20871 ], [ -66.49237, 18.20885 ], [ -66.49232, 18.20893 ], [ -66.49234, 18.20899 ], [ -66.49235, 18.20914 ], [ -66.4923, 18.20925 ], [ -66.49223, 18.20936 ], [ -66.49224, 18.20943 ], [ -66.49227, 18.20956 ], [ -66.49227, 18.20978 ], [ -66.49229, 18.20985 ], [ -66.49241, 18.20989 ], [ -66.49259, 18.20998 ], [ -66.49274, 18.21008 ], [ -66.49283, 18.21021 ], [ -66.49289, 18.21038 ], [ -66.49288, 18.21056 ], [ -66.49281, 18.21068 ], [ -66.49285, 18.21078 ], [ -66.49306, 18.21088 ], [ -66.4932, 18.21102 ], [ -66.49326, 18.21119 ], [ -66.49324, 18.21129 ], [ -66.49318, 18.21141 ], [ -66.49316, 18.21157 ], [ -66.4932, 18.21181 ], [ -66.49324, 18.21204 ], [ -66.49327, 18.21225 ], [ -66.49326, 18.21239 ], [ -66.49325, 18.21253 ], [ -66.4933, 18.21261 ], [ -66.49335, 18.21274 ], [ -66.49334, 18.21286 ], [ -66.49327, 18.21303 ], [ -66.49315, 18.21317 ], [ -66.49299, 18.21331 ], [ -66.49289, 18.21355 ], [ -66.49277, 18.21376 ], [ -66.49261, 18.21387 ], [ -66.49248, 18.214 ], [ -66.49246, 18.21416 ], [ -66.49242, 18.21432 ], [ -66.49227, 18.21466 ], [ -66.4922, 18.21485 ], [ -66.4922, 18.21496 ], [ -66.49223, 18.21519 ], [ -66.49218, 18.21536 ], [ -66.4921, 18.2155 ], [ -66.49206, 18.21562 ], [ -66.49208, 18.21571 ], [ -66.4921, 18.21585 ], [ -66.49206, 18.21595 ], [ -66.49196, 18.21603 ], [ -66.49182, 18.21612 ], [ -66.49167, 18.2162 ], [ -66.49152, 18.21628 ], [ -66.49143, 18.21638 ], [ -66.49138, 18.21647 ], [ -66.49133, 18.21659 ], [ -66.49131, 18.21672 ], [ -66.49139, 18.21681 ], [ -66.49154, 18.21695 ], [ -66.49169, 18.21712 ], [ -66.49181, 18.2173 ], [ -66.49185, 18.21744 ], [ -66.4918, 18.21754 ], [ -66.49162, 18.2176 ], [ -66.49129, 18.21767 ], [ -66.49087, 18.21766 ], [ -66.49069, 18.21761 ], [ -66.49034, 18.2174 ], [ -66.49018, 18.21738 ], [ -66.49005, 18.21743 ], [ -66.48983, 18.2175 ], [ -66.48959, 18.21751 ] ] } },
{ "type": "Feature", "properties": { "fcode": 42813, "label": "Siphon", "name": "Canal Principal De Riego Valle De Lajas", "source": "NHDPlus HR network flowline", "length_mi": 0.04 }, "geometry": { "type": "LineString", "coordinates": [ [ -66.89168, 18.0365 ], [ -66.89171, 18.03648 ], [ -66.89185, 18.03633 ], [ -66.89194, 18.03622 ], [ -66.89199, 18.0361 ], [ -66.89203, 18.03603 ], [ -66.89208, 18.03599 ] ] } },
{ "type": "Feature", "properties": { "fcode": 42813, "label": "Siphon", "name": null, "source": "NHDPlus HR network flowline", "length_mi": 0.29 }, "geometry": { "type": "LineString", "coordinates": [ [ -66.50175, 18.08587 ], [ -66.50185, 18.08576 ], [ -66.50198, 18.08563 ], [ -66.50214, 18.08545 ], [ -66.5024, 18.08517 ], [ -66.50252, 18.085 ], [ -66.50266, 18.08485 ], [ -66.50279, 18.08459 ], [ -66.5029, 18.08438 ], [ -66.50304, 18.08419 ], [ -66.5032, 18.08395 ], [ -66.50339, 18.08369 ], [ -66.50353, 18.0835 ], [ -66.50373, 18.08324 ], [ -66.50403, 18.08294 ], [ -66.50418, 18.08276 ], [ -66.50431, 18.08252 ] ] } },
{ "type": "Feature", "properties": { "fcode": 42813, "label": "Siphon", "name": null, "source": "NHDPlus HR network flowline", "length_mi": 0.13 }, "geometry": { "type": "LineString", "coordinates": [ [ -66.58057, 18.05276 ], [ -66.58055, 18.05286 ], [ -66.58047, 18.05296 ], [ -66.58041, 18.05305 ], [ -66.58036, 18.05318 ], [ -66.58034, 18.05325 ], [ -66.58036, 18.05333 ], [ -66.5804, 18.05339 ], [ -66.58051, 18.05347 ], [ -66.58061, 18.0535 ], [ -66.58067, 18.05351 ], [ -66.58078, 18.0535 ], [ -66.58093, 18.05346 ], [ -66.58111, 18.05341 ], [ -66.58121, 18.05339 ], [ -66.58127, 18.05341 ], [ -66.58134, 18.05348 ], [ -66.58144, 18.05362 ] ] } },
{ "type": "Feature", "properties": { "fcode": 42813, "label": "Siphon", "name": "Canal Principal De Riego Valle De Lajas", "source": "NHDPlus HR network flowline", "length_mi": 0.02 }, "geometry": { "type": "LineString", "coordinates": [ [ -66.9137, 18.035 ], [ -66.91397, 18.03501 ], [ -66.91399, 18.03501 ] ] } },
{ "type": "Feature", "properties": { "fcode": 42800, "label": "Pipeline", "name": "Río Matrullas", "source": "NHDPlus HR network flowline", "length_mi": 1.01 }, "geometry": { "type": "LineString", "coordinates": [ [ -66.48018, 18.21039 ], [ -66.48025, 18.21055 ], [ -66.48046, 18.21094 ], [ -66.4806, 18.21121 ], [ -66.48072, 18.21138 ], [ -66.4808, 18.21147 ], [ -66.48103, 18.21159 ], [ -66.48117, 18.21167 ], [ -66.48123, 18.21179 ], [ -66.48131, 18.21207 ], [ -66.4814, 18.21225 ], [ -66.48147, 18.21236 ], [ -66.48144, 18.21256 ], [ -66.48145, 18.21282 ], [ -66.48147, 18.21311 ], [ -66.48144, 18.21337 ], [ -66.48149, 18.21368 ], [ -66.48153, 18.21386 ], [ -66.48152, 18.21425 ], [ -66.48164, 18.21461 ], [ -66.48176, 18.21472 ], [ -66.4819, 18.21483 ], [ -66.48209, 18.21489 ], [ -66.4823, 18.21507 ], [ -66.48242, 18.21532 ], [ -66.48253, 18.21566 ], [ -66.48256, 18.21593 ], [ -66.48264, 18.21621 ], [ -66.48269, 18.21642 ], [ -66.48271, 18.21669 ], [ -66.48282, 18.21689 ], [ -66.48302, 18.21709 ], [ -66.48326, 18.21722 ], [ -66.48353, 18.21735 ], [ -66.48373, 18.21742 ], [ -66.48398, 18.21737 ], [ -66.48422, 18.21728 ], [ -66.48435, 18.21724 ], [ -66.48448, 18.21725 ], [ -66.4845, 18.21741 ], [ -66.48446, 18.21777 ], [ -66.48457, 18.21783 ], [ -66.48488, 18.21785 ], [ -66.48506, 18.21788 ], [ -66.48517, 18.218 ], [ -66.48611, 18.21787 ], [ -66.48724, 18.21777 ], [ -66.48775, 18.21772 ], [ -66.48908, 18.21758 ], [ -66.48946, 18.21754 ], [ -66.48959, 18.21751 ] ] } },
{ "type": "Feature", "properties": { "fcode": 42813, "label": "Siphon", "name": null, "source": "NHDPlus HR network flowline", "length_mi": 0.24 }, "geometry": { "type": "LineString", "coordinates": [ [ -66.50582, 18.06466 ], [ -66.50586, 18.06458 ], [ -66.50593, 18.06453 ], [ -66.5061, 18.06443 ], [ -66.50633, 18.06433 ], [ -66.50648, 18.06421 ], [ -66.50653, 18.06411 ], [ -66.50658, 18.06397 ], [ -66.50658, 18.06388 ], [ -66.50653, 18.06376 ], [ -66.50649, 18.06356 ], [ -66.50646, 18.0634 ], [ -66.50641, 18.06319 ], [ -66.50636, 18.063 ], [ -66.50636, 18.06284 ], [ -66.5064, 18.06273 ], [ -66.50648, 18.06257 ], [ -66.50656, 18.06242 ], [ -66.5067, 18.06229 ], [ -66.5069, 18.0622 ], [ -66.50707, 18.06208 ], [ -66.50724, 18.06192 ] ] } },
{ "type": "Feature", "properties": { "fcode": 42813, "label": "Siphon", "name": null, "source": "NHDPlus HR network flowline", "length_mi": 0.06 }, "geometry": { "type": "LineString", "coordinates": [ [ -66.58934, 18.0454 ], [ -66.58928, 18.0452 ], [ -66.58921, 18.0449 ], [ -66.58911, 18.04456 ] ] } },
{ "type": "Feature", "properties": { "fcode": 42813, "label": "Siphon", "name": "Canal Principal De Riego Valle De Lajas", "source": "NHDPlus HR non network flowline", "length_mi": 0.05 }, "geometry": { "type": "LineString", "coordinates": [ [ -67.03406, 18.04707 ], [ -67.03448, 18.04733 ], [ -67.03456, 18.04735 ], [ -67.03467, 18.04732 ] ] } },
{ "type": "Feature", "properties": { "fcode": 42813, "label": "Siphon", "name": "Canal Principal De Riego Valle De Lajas", "source": "NHDPlus HR non network flowline", "length_mi": 0.04 }, "geometry": { "type": "LineString", "coordinates": [ [ -67.01376, 18.04697 ], [ -67.01388, 18.04736 ], [ -67.01396, 18.04758 ] ] } },
{ "type": "Feature", "properties": { "fcode": 42813, "label": "Siphon", "name": "Canal Principal De Riego Valle De Lajas", "source": "NHDPlus HR non network flowline", "length_mi": 0.03 }, "geometry": { "type": "LineString", "coordinates": [ [ -66.95663, 18.04707 ], [ -66.95678, 18.04703 ], [ -66.95709, 18.04693 ] ] } },
{ "type": "Feature", "properties": { "fcode": 42813, "label": "Siphon", "name": "Canal Principal De Riego Valle De Lajas", "source": "NHDPlus HR non network flowline", "length_mi": 0.04 }, "geometry": { "type": "LineString", "coordinates": [ [ -67.07867, 18.03744 ], [ -67.07915, 18.03719 ] ] } },
{ "type": "Feature", "properties": { "fcode": 42813, "label": "Siphon", "name": null, "source": "NHDPlus HR non network flowline", "length_mi": 0.08 }, "geometry": { "type": "LineString", "coordinates": [ [ -66.50682, 18.19297 ], [ -66.50686, 18.19293 ], [ -66.50702, 18.1928 ], [ -66.50747, 18.19244 ], [ -66.50768, 18.19226 ], [ -66.50772, 18.19223 ], [ -66.50776, 18.19217 ] ] } },
{ "type": "Feature", "properties": { "fcode": 42813, "label": "Siphon", "name": null, "source": "NHDPlus HR non network flowline", "length_mi": 0.04 }, "geometry": { "type": "LineString", "coordinates": [ [ -66.89732, 18.0314 ], [ -66.89743, 18.03088 ] ] } },
{ "type": "Feature", "properties": { "fcode": 42813, "label": "Siphon", "name": "Canal Principal De Riego Valle De Lajas", "source": "NHDPlus HR non network flowline", "length_mi": 0.08 }, "geometry": { "type": "LineString", "coordinates": [ [ -67.06574, 18.04256 ], [ -67.06691, 18.04249 ] ] } },
{ "type": "Feature", "properties": { "fcode": 42813, "label": "Siphon", "name": null, "source": "NHDPlus HR non network flowline", "length_mi": 0.0 }, "geometry": { "type": "LineString", "coordinates": [ [ -66.38996, 18.01242 ], [ -66.38994, 18.0124 ] ] } },
{ "type": "Feature", "properties": { "fcode": 42813, "label": "Siphon", "name": "Canal Principal De Riego Valle De Lajas", "source": "NHDPlus HR non network flowline", "length_mi": 0.05 }, "geometry": { "type": "LineString", "coordinates": [ [ -67.11593, 18.03512 ], [ -67.11676, 18.03504 ] ] } },
{ "type": "Feature", "properties": { "fcode": 42813, "label": "Siphon", "name": null, "source": "NHDPlus HR non network flowline", "length_mi": 0.15 }, "geometry": { "type": "LineString", "coordinates": [ [ -66.52033, 18.00793 ], [ -66.52025, 18.00575 ] ] } },
{ "type": "Feature", "properties": { "fcode": 42813, "label": "Siphon", "name": null, "source": "NHDPlus HR non network flowline", "length_mi": 0.19 }, "geometry": { "type": "LineString", "coordinates": [ [ -66.74363, 18.14105 ], [ -66.7426, 18.14119 ], [ -66.74244, 18.14121 ], [ -66.74218, 18.14126 ], [ -66.7416, 18.14133 ], [ -66.74096, 18.14143 ], [ -66.74074, 18.14146 ] ] } },
{ "type": "Feature", "properties": { "fcode": 42813, "label": "Siphon", "name": "Canal Principal De Riego Valle De Lajas", "source": "NHDPlus HR non network flowline", "length_mi": 0.07 }, "geometry": { "type": "LineString", "coordinates": [ [ -67.05841, 18.0438 ], [ -67.05945, 18.04361 ] ] } },
{ "type": "Feature", "properties": { "fcode": 42813, "label": "Siphon", "name": "Canal Principal De Riego Valle De Lajas", "source": "NHDPlus HR non network flowline", "length_mi": 0.03 }, "geometry": { "type": "LineString", "coordinates": [ [ -66.96785, 18.04776 ], [ -66.96804, 18.04753 ], [ -66.96813, 18.04736 ] ] } },
{ "type": "Feature", "properties": { "fcode": 42813, "label": "Siphon", "name": null, "source": "NHDPlus HR non network flowline", "length_mi": 0.03 }, "geometry": { "type": "LineString", "coordinates": [ [ -67.00783, 18.03894 ], [ -67.0077, 18.0388 ], [ -67.00764, 18.03873 ], [ -67.00763, 18.03866 ], [ -67.00767, 18.03855 ] ] } },
{ "type": "Feature", "properties": { "fcode": 42813, "label": "Siphon", "name": null, "source": "NHDPlus HR non network flowline", "length_mi": 0.05 }, "geometry": { "type": "LineString", "coordinates": [ [ -66.9118, 18.03406 ], [ -66.91177, 18.03381 ], [ -66.91176, 18.03354 ], [ -66.91174, 18.03341 ], [ -66.91174, 18.03332 ] ] } },
{ "type": "Feature", "properties": { "fcode": 42813, "label": "Siphon", "name": "Canal Principal De Riego Valle De Lajas", "source": "NHDPlus HR non network flowline", "length_mi": 0.02 }, "geometry": { "type": "LineString", "coordinates": [ [ -67.02936, 18.04658 ], [ -67.02967, 18.04657 ] ] } },
{ "type": "Feature", "properties": { "fcode": 42813, "label": "Siphon", "name": null, "source": "NHDPlus HR non network flowline", "length_mi": 0.05 }, "geometry": { "type": "LineString", "coordinates": [ [ -66.39067, 18.01284 ], [ -66.39056, 18.01278 ], [ -66.39039, 18.01267 ], [ -66.3902, 18.01257 ], [ -66.3901, 18.01252 ], [ -66.39002, 18.01247 ], [ -66.38999, 18.01243 ], [ -66.38996, 18.01242 ] ] } },
{ "type": "Feature", "properties": { "fcode": 42813, "label": "Siphon", "name": null, "source": "NHDPlus HR non network flowline", "length_mi": 0.14 }, "geometry": { "type": "LineString", "coordinates": [ [ -66.50953, 18.02499 ], [ -66.50942, 18.02466 ], [ -66.50931, 18.02436 ], [ -66.50927, 18.0242 ], [ -66.50925, 18.02399 ], [ -66.50919, 18.02375 ], [ -66.50913, 18.02356 ], [ -66.5091, 18.02336 ], [ -66.50906, 18.02316 ], [ -66.50904, 18.02299 ] ] } },
{ "type": "Feature", "properties": { "fcode": 42813, "label": "Siphon", "name": "Canal Principal De Riego Valle De Lajas", "source": "NHDPlus HR non network flowline", "length_mi": 0.11 }, "geometry": { "type": "LineString", "coordinates": [ [ -66.98206, 18.04733 ], [ -66.98297, 18.04667 ], [ -66.98332, 18.04627 ] ] } },
{ "type": "Feature", "properties": { "fcode": 42813, "label": "Siphon", "name": "Canal Principal De Riego Valle De Lajas", "source": "NHDPlus HR non network flowline", "length_mi": 0.04 }, "geometry": { "type": "LineString", "coordinates": [ [ -67.03185, 18.04606 ], [ -67.03202, 18.046 ], [ -67.0322, 18.04606 ], [ -67.03239, 18.04612 ] ] } },
{ "type": "Feature", "properties": { "fcode": 42813, "label": "Siphon", "name": null, "source": "NHDPlus HR non network flowline", "length_mi": 0.23 }, "geometry": { "type": "LineString", "coordinates": [ [ -66.42336, 18.01513 ], [ -66.42323, 18.01522 ], [ -66.42255, 18.01567 ], [ -66.42182, 18.01617 ], [ -66.42114, 18.01663 ], [ -66.42076, 18.01688 ], [ -66.42065, 18.01695 ], [ -66.42054, 18.01701 ] ] } },
{ "type": "Feature", "properties": { "fcode": 42813, "label": "Siphon", "name": null, "source": "NHDPlus HR non network flowline", "length_mi": 0.07 }, "geometry": { "type": "LineString", "coordinates": [ [ -66.44866, 18.01766 ], [ -66.44862, 18.01764 ], [ -66.44859, 18.01759 ], [ -66.44854, 18.01748 ], [ -66.44854, 18.01747 ], [ -66.44848, 18.01727 ], [ -66.4484, 18.01711 ], [ -66.44834, 18.01698 ], [ -66.44828, 18.01686 ], [ -66.44826, 18.01674 ] ] } },
{ "type": "Feature", "properties": { "fcode": 42813, "label": "Siphon", "name": null, "source": "NHDPlus HR non network flowline", "length_mi": 0.02 }, "geometry": { "type": "LineString", "coordinates": [ [ -67.1088, 18.0365 ], [ -67.10881, 18.0368 ] ] } },
{ "type": "Feature", "properties": { "fcode": 42813, "label": "Siphon", "name": null, "source": "NHDPlus HR non network flowline", "length_mi": 0.07 }, "geometry": { "type": "LineString", "coordinates": [ [ -66.52488, 18.16036 ], [ -66.52474, 18.16044 ], [ -66.52451, 18.16051 ], [ -66.52425, 18.16055 ], [ -66.52379, 18.16055 ] ] } },
{ "type": "Feature", "properties": { "fcode": 42813, "label": "Siphon", "name": null, "source": "NHDPlus HR non network flowline", "length_mi": 0.28 }, "geometry": { "type": "LineString", "coordinates": [ [ -66.39677, 18.0114 ], [ -66.3966, 18.012 ], [ -66.39633, 18.01287 ], [ -66.39587, 18.01447 ], [ -66.39561, 18.01535 ] ] } },
{ "type": "Feature", "properties": { "fcode": 42813, "label": "Siphon", "name": null, "source": "NHDPlus HR non network flowline", "length_mi": 0.04 }, "geometry": { "type": "LineString", "coordinates": [ [ -66.55341, 18.04433 ], [ -66.55346, 18.04474 ], [ -66.55348, 18.04491 ] ] } },
{ "type": "Feature", "properties": { "fcode": 42813, "label": "Siphon", "name": "Canal Principal De Riego Valle De Lajas", "source": "NHDPlus HR non network flowline", "length_mi": 0.22 }, "geometry": { "type": "LineString", "coordinates": [ [ -67.04492, 18.04586 ], [ -67.04526, 18.04568 ], [ -67.04619, 18.0452 ], [ -67.04679, 18.04486 ], [ -67.04796, 18.04447 ] ] } },
{ "type": "Feature", "properties": { "fcode": 42813, "label": "Siphon", "name": "Canal Principal De Riego Valle De Lajas", "source": "NHDPlus HR non network flowline", "length_mi": 0.1 }, "geometry": { "type": "LineString", "coordinates": [ [ -66.93764, 18.03989 ], [ -66.93805, 18.04026 ], [ -66.93826, 18.04032 ], [ -66.93898, 18.04037 ] ] } },
{ "type": "Feature", "properties": { "fcode": 42813, "label": "Siphon", "name": null, "source": "NHDPlus HR non network flowline", "length_mi": 0.02 }, "geometry": { "type": "LineString", "coordinates": [ [ -66.5259, 18.15947 ], [ -66.52565, 18.15932 ] ] } },
{ "type": "Feature", "properties": { "fcode": 42813, "label": "Siphon", "name": null, "source": "NHDPlus HR non network flowline", "length_mi": 0.23 }, "geometry": { "type": "LineString", "coordinates": [ [ -66.41659, 18.01885 ], [ -66.41666, 18.01882 ], [ -66.41671, 18.01881 ], [ -66.4168, 18.01878 ], [ -66.41686, 18.0188 ], [ -66.41701, 18.01883 ], [ -66.41714, 18.01883 ], [ -66.41723, 18.0188 ], [ -66.41729, 18.01873 ], [ -66.41732, 18.01862 ], [ -66.41738, 18.01853 ], [ -66.41753, 18.0184 ], [ -66.41781, 18.01823 ], [ -66.4182, 18.01796 ], [ -66.41859, 18.0177 ], [ -66.41893, 18.0175 ], [ -66.41916, 18.01736 ], [ -66.41926, 18.01724 ], [ -66.41928, 18.01714 ], [ -66.41929, 18.01703 ] ] } },
{ "type": "Feature", "properties": { "fcode": 42813, "label": "Siphon", "name": "Canal Principal De Riego Valle De Lajas", "source": "NHDPlus HR non network flowline", "length_mi": 0.05 }, "geometry": { "type": "LineString", "coordinates": [ [ -67.09076, 18.0353 ], [ -67.09088, 18.03537 ], [ -67.09123, 18.03548 ], [ -67.0915, 18.03553 ] ] } },
{ "type": "Feature", "properties": { "fcode": 42813, "label": "Siphon", "name": null, "source": "NHDPlus HR non network flowline", "length_mi": 0.14 }, "geometry": { "type": "LineString", "coordinates": [ [ -66.46963, 18.0124 ], [ -66.46923, 18.01235 ], [ -66.46854, 18.01227 ], [ -66.46809, 18.0122 ], [ -66.46777, 18.01216 ], [ -66.46758, 18.01215 ], [ -66.46751, 18.01214 ] ] } },
{ "type": "Feature", "properties": { "fcode": 42813, "label": "Siphon", "name": "Canal Principal De Riego Valle De Lajas", "source": "NHDPlus HR non network flowline", "length_mi": 0.02 }, "geometry": { "type": "LineString", "coordinates": [ [ -67.10369, 18.03758 ], [ -67.10406, 18.03757 ] ] } },
{ "type": "Feature", "properties": { "fcode": 42813, "label": "Siphon", "name": "Canal Principal De Riego Valle De Lajas", "source": "NHDPlus HR non network flowline", "length_mi": 0.05 }, "geometry": { "type": "LineString", "coordinates": [ [ -67.11397, 18.03614 ], [ -67.11461, 18.03588 ] ] } },
{ "type": "Feature", "properties": { "fcode": 42813, "label": "Siphon", "name": null, "source": "NHDPlus HR non network flowline", "length_mi": 0.02 }, "geometry": { "type": "LineString", "coordinates": [ [ -66.52605, 18.15921 ], [ -66.526, 18.15935 ], [ -66.52599, 18.1594 ], [ -66.5259, 18.15947 ] ] } },
{ "type": "Feature", "properties": { "fcode": 42813, "label": "Siphon", "name": "Canal Principal De Riego Valle De Lajas", "source": "NHDPlus HR non network flowline", "length_mi": 0.31 }, "geometry": { "type": "LineString", "coordinates": [ [ -67.06112, 18.04331 ], [ -67.06158, 18.04326 ], [ -67.06284, 18.04309 ], [ -67.06419, 18.04279 ], [ -67.06485, 18.04264 ], [ -67.06494, 18.04262 ], [ -67.06525, 18.04255 ], [ -67.06546, 18.04253 ], [ -67.06574, 18.04256 ] ] } },
{ "type": "Feature", "properties": { "fcode": 42813, "label": "Siphon", "name": null, "source": "NHDPlus HR non network flowline", "length_mi": 0.1 }, "geometry": { "type": "LineString", "coordinates": [ [ -66.52336, 18.16056 ], [ -66.52284, 18.1606 ], [ -66.52252, 18.16065 ], [ -66.52227, 18.16073 ], [ -66.5219, 18.16086 ] ] } },
{ "type": "Feature", "properties": { "fcode": 42813, "label": "Siphon", "name": null, "source": "NHDPlus HR non network flowline", "length_mi": 0.23 }, "geometry": { "type": "LineString", "coordinates": [ [ -66.40614, 18.01179 ], [ -66.4061, 18.01177 ], [ -66.40558, 18.01185 ], [ -66.40524, 18.01194 ], [ -66.40479, 18.01213 ], [ -66.40449, 18.01222 ], [ -66.404, 18.01215 ], [ -66.40276, 18.01191 ], [ -66.40273, 18.01191 ] ] } },
{ "type": "Feature", "properties": { "fcode": 42813, "label": "Siphon", "name": null, "source": "NHDPlus HR non network flowline", "length_mi": 0.03 }, "geometry": { "type": "LineString", "coordinates": [ [ -66.94068, 18.04103 ], [ -66.9407, 18.04065 ] ] } },
{ "type": "Feature", "properties": { "fcode": 42813, "label": "Siphon", "name": "Canal Principal De Riego Valle De Lajas", "source": "NHDPlus HR non network flowline", "length_mi": 0.03 }, "geometry": { "type": "LineString", "coordinates": [ [ -67.07688, 18.03796 ], [ -67.07727, 18.0379 ] ] } },
{ "type": "Feature", "properties": { "fcode": 42813, "label": "Siphon", "name": "Canal Principal De Riego Valle De Lajas", "source": "NHDPlus HR non network flowline", "length_mi": 0.03 }, "geometry": { "type": "LineString", "coordinates": [ [ -67.10078, 18.03553 ], [ -67.10126, 18.03568 ] ] } },
{ "type": "Feature", "properties": { "fcode": 42813, "label": "Siphon", "name": null, "source": "NHDPlus HR non network flowline", "length_mi": 0.0 }, "geometry": { "type": "LineString", "coordinates": [ [ -67.12627, 18.03485 ], [ -67.12627, 18.03479 ] ] } },
{ "type": "Feature", "properties": { "fcode": 42813, "label": "Siphon", "name": null, "source": "NHDPlus HR non network flowline", "length_mi": 0.03 }, "geometry": { "type": "LineString", "coordinates": [ [ -66.51663, 18.16255 ], [ -66.51614, 18.16273 ] ] } },
{ "type": "Feature", "properties": { "fcode": 42813, "label": "Siphon", "name": "Canal Principal De Riego Valle De Lajas", "source": "NHDPlus HR non network flowline", "length_mi": 0.05 }, "geometry": { "type": "LineString", "coordinates": [ [ -67.10544, 18.03753 ], [ -67.10621, 18.03752 ] ] } },
{ "type": "Feature", "properties": { "fcode": 42813, "label": "Siphon", "name": null, "source": "NHDPlus HR non network flowline", "length_mi": 0.16 }, "geometry": { "type": "LineString", "coordinates": [ [ -66.91174, 18.03332 ], [ -66.91177, 18.03319 ], [ -66.91181, 18.03309 ], [ -66.91184, 18.03305 ], [ -66.91191, 18.03305 ], [ -66.91201, 18.03306 ], [ -66.91212, 18.03311 ], [ -66.91223, 18.03312 ], [ -66.91233, 18.03309 ], [ -66.91247, 18.03306 ], [ -66.91252, 18.03304 ], [ -66.91257, 18.03302 ], [ -66.91271, 18.03294 ], [ -66.91286, 18.03283 ], [ -66.91291, 18.03275 ], [ -66.91295, 18.03266 ], [ -66.91302, 18.03254 ], [ -66.9131, 18.03248 ], [ -66.91318, 18.03237 ], [ -66.91322, 18.03229 ], [ -66.91322, 18.03216 ], [ -66.9132, 18.03208 ], [ -66.91315, 18.03204 ], [ -66.9131, 18.03201 ], [ -66.91306, 18.03198 ] ] } },
{ "type": "Feature", "properties": { "fcode": 42813, "label": "Siphon", "name": null, "source": "NHDPlus HR non network flowline", "length_mi": 0.06 }, "geometry": { "type": "LineString", "coordinates": [ [ -67.13596, 18.03645 ], [ -67.13673, 18.03631 ], [ -67.1368, 18.0363 ], [ -67.13684, 18.03628 ] ] } },
{ "type": "Feature", "properties": { "fcode": 42813, "label": "Siphon", "name": "Canal Principal De Riego Valle De Lajas", "source": "NHDPlus HR non network flowline", "length_mi": 0.05 }, "geometry": { "type": "LineString", "coordinates": [ [ -66.9617, 18.04803 ], [ -66.9624, 18.04821 ] ] } },
{ "type": "Feature", "properties": { "fcode": 42813, "label": "Siphon", "name": "Canal Principal De Riego Valle De Lajas", "source": "NHDPlus HR non network flowline", "length_mi": 0.12 }, "geometry": { "type": "LineString", "coordinates": [ [ -67.12154, 18.03382 ], [ -67.12231, 18.03415 ], [ -67.12322, 18.03457 ] ] } },
{ "type": "Feature", "properties": { "fcode": 42813, "label": "Siphon", "name": null, "source": "NHDPlus HR non network flowline", "length_mi": 0.06 }, "geometry": { "type": "LineString", "coordinates": [ [ -66.50631, 18.19436 ], [ -66.50647, 18.1941 ], [ -66.50665, 18.19385 ], [ -66.50683, 18.19362 ] ] } },
{ "type": "Feature", "properties": { "fcode": 42813, "label": "Siphon", "name": null, "source": "NHDPlus HR non network flowline", "length_mi": 0.04 }, "geometry": { "type": "LineString", "coordinates": [ [ -66.51806, 18.162 ], [ -66.51757, 18.16222 ] ] } },
{ "type": "Feature", "properties": { "fcode": 42813, "label": "Siphon", "name": "Canal Principal De Riego Valle De Lajas", "source": "NHDPlus HR non network flowline", "length_mi": 0.06 }, "geometry": { "type": "LineString", "coordinates": [ [ -67.11784, 18.03407 ], [ -67.11866, 18.03391 ] ] } },
{ "type": "Feature", "properties": { "fcode": 42813, "label": "Siphon", "name": null, "source": "NHDPlus HR non network flowline", "length_mi": 0.9 }, "geometry": { "type": "LineString", "coordinates": [ [ -66.51483, 18.16308 ], [ -66.51441, 18.16356 ], [ -66.51411, 18.16387 ], [ -66.51371, 18.16433 ], [ -66.51346, 18.16461 ], [ -66.51342, 18.16464 ], [ -66.51324, 18.16479 ], [ -66.51299, 18.1649 ], [ -66.51278, 18.16502 ], [ -66.51259, 18.16524 ], [ -66.51163, 18.16657 ], [ -66.51147, 18.16649 ], [ -66.51154, 18.16769 ], [ -66.5117, 18.1699 ], [ -66.51181, 18.17143 ], [ -66.51184, 18.17197 ], [ -66.51174, 18.1721 ], [ -66.51163, 18.17224 ], [ -66.51156, 18.1724 ], [ -66.51149, 18.17253 ], [ -66.5114, 18.17267 ], [ -66.51129, 18.17284 ], [ -66.51108, 18.17322 ], [ -66.51086, 18.17364 ], [ -66.51063, 18.17407 ], [ -66.51052, 18.17434 ] ] } },
{ "type": "Feature", "properties": { "fcode": 42813, "label": "Siphon", "name": null, "source": "NHDPlus HR non network flowline", "length_mi": 1.06 }, "geometry": { "type": "LineString", "coordinates": [ [ -66.51057, 18.17267 ], [ -66.51071, 18.17263 ], [ -66.51092, 18.17251 ], [ -66.51117, 18.1723 ], [ -66.51176, 18.17184 ], [ -66.51162, 18.16991 ], [ -66.51144, 18.16756 ], [ -66.51138, 18.16643 ], [ -66.51096, 18.16573 ], [ -66.51088, 18.16562 ], [ -66.51027, 18.16521 ], [ -66.50873, 18.1643 ], [ -66.5067, 18.16302 ], [ -66.50424, 18.16149 ] ] } },
{ "type": "Feature", "properties": { "fcode": 42813, "label": "Siphon", "name": "Canal Principal De Riego Valle De Lajas", "source": "NHDPlus HR non network flowline", "length_mi": 0.12 }, "geometry": { "type": "LineString", "coordinates": [ [ -67.06874, 18.03976 ], [ -67.06979, 18.03956 ], [ -67.06999, 18.03952 ], [ -67.07058, 18.0393 ] ] } },
{ "type": "Feature", "properties": { "fcode": 42813, "label": "Siphon", "name": "Canal Principal De Riego Valle De Lajas", "source": "NHDPlus HR non network flowline", "length_mi": 0.06 }, "geometry": { "type": "LineString", "coordinates": [ [ -67.05327, 18.04436 ], [ -67.05419, 18.04431 ] ] } },
{ "type": "Feature", "properties": { "fcode": 42813, "label": "Siphon", "name": "Canal Principal De Riego Valle De Lajas", "source": "NHDPlus HR non network flowline", "length_mi": 0.05 }, "geometry": { "type": "LineString", "coordinates": [ [ -67.04796, 18.04447 ], [ -67.04869, 18.04456 ] ] } },
{ "type": "Feature", "properties": { "fcode": 42813, "label": "Siphon", "name": "Canal Principal De Riego Valle De Lajas", "source": "NHDPlus HR non network flowline", "length_mi": 0.03 }, "geometry": { "type": "LineString", "coordinates": [ [ -67.01047, 18.04301 ], [ -67.01065, 18.04298 ], [ -67.01089, 18.04296 ] ] } },
{ "type": "Feature", "properties": { "fcode": 42813, "label": "Siphon", "name": null, "source": "NHDPlus HR non network flowline", "length_mi": 0.1 }, "geometry": { "type": "LineString", "coordinates": [ [ -67.13966, 18.03567 ], [ -67.13982, 18.03567 ], [ -67.14058, 18.03576 ], [ -67.14121, 18.03583 ] ] } },
{ "type": "Feature", "properties": { "fcode": 42813, "label": "Siphon", "name": null, "source": "NHDPlus HR non network flowline", "length_mi": 0.07 }, "geometry": { "type": "LineString", "coordinates": [ [ -66.95936, 18.03523 ], [ -66.95925, 18.03509 ], [ -66.95896, 18.03509 ], [ -66.95866, 18.03507 ], [ -66.95865, 18.03507 ], [ -66.95855, 18.03504 ], [ -66.9585, 18.03503 ], [ -66.95846, 18.03499 ] ] } },
{ "type": "Feature", "properties": { "fcode": 42813, "label": "Siphon", "name": null, "source": "NHDPlus HR non network flowline", "length_mi": 0.17 }, "geometry": { "type": "LineString", "coordinates": [ [ -66.88819, 18.03788 ], [ -66.88867, 18.03736 ], [ -66.88917, 18.03645 ], [ -66.88919, 18.03633 ], [ -66.88925, 18.03613 ], [ -66.88929, 18.03595 ], [ -66.88933, 18.03584 ], [ -66.88935, 18.03577 ] ] } },
{ "type": "Feature", "properties": { "fcode": 42813, "label": "Siphon", "name": "Canal Principal De Riego Valle De Lajas", "source": "NHDPlus HR non network flowline", "length_mi": 0.04 }, "geometry": { "type": "LineString", "coordinates": [ [ -66.95226, 18.0437 ], [ -66.95235, 18.04375 ], [ -66.95277, 18.04395 ] ] } },
{ "type": "Feature", "properties": { "fcode": 42813, "label": "Siphon", "name": "Canal Principal De Riego Valle De Lajas", "source": "NHDPlus HR non network flowline", "length_mi": 0.07 }, "geometry": { "type": "LineString", "coordinates": [ [ -67.00869, 18.0435 ], [ -67.00971, 18.04383 ] ] } },
{ "type": "Feature", "properties": { "fcode": 42813, "label": "Siphon", "name": null, "source": "NHDPlus HR non network flowline", "length_mi": 0.23 }, "geometry": { "type": "LineString", "coordinates": [ [ -66.46407, 18.02973 ], [ -66.46382, 18.03 ], [ -66.46315, 18.03077 ], [ -66.46246, 18.03158 ], [ -66.46204, 18.03209 ], [ -66.46186, 18.03231 ] ] } },
{ "type": "Feature", "properties": { "fcode": 42813, "label": "Siphon", "name": "Canal Principal De Riego Valle De Lajas", "source": "NHDPlus HR non network flowline", "length_mi": 0.03 }, "geometry": { "type": "LineString", "coordinates": [ [ -67.07336, 18.03919 ], [ -67.07383, 18.03924 ] ] } },
{ "type": "Feature", "properties": { "fcode": 42813, "label": "Siphon", "name": "Canal Principal De Riego Valle De Lajas", "source": "NHDPlus HR non network flowline", "length_mi": 0.15 }, "geometry": { "type": "LineString", "coordinates": [ [ -66.88987, 18.03784 ], [ -66.89054, 18.03747 ], [ -66.89088, 18.03724 ], [ -66.89102, 18.03714 ], [ -66.89125, 18.03693 ], [ -66.89148, 18.03671 ], [ -66.89168, 18.0365 ] ] } },
{ "type": "Feature", "properties": { "fcode": 42813, "label": "Siphon", "name": "Canal Principal De Riego Valle De Lajas", "source": "NHDPlus HR non network flowline", "length_mi": 0.03 }, "geometry": { "type": "LineString", "coordinates": [ [ -67.10839, 18.0368 ], [ -67.10881, 18.0368 ] ] } },
{ "type": "Feature", "properties": { "fcode": 42813, "label": "Siphon", "name": "Canal Principal De Riego Valle De Lajas", "source": "NHDPlus HR non network flowline", "length_mi": 0.1 }, "geometry": { "type": "LineString", "coordinates": [ [ -66.88787, 18.04251 ], [ -66.88783, 18.04186 ], [ -66.88784, 18.04166 ], [ -66.88789, 18.04149 ], [ -66.88817, 18.04107 ] ] } },
{ "type": "Feature", "properties": { "fcode": 42813, "label": "Siphon", "name": null, "source": "NHDPlus HR non network flowline", "length_mi": 0.07 }, "geometry": { "type": "LineString", "coordinates": [ [ -66.5087, 18.17814 ], [ -66.50881, 18.17801 ], [ -66.5094, 18.17744 ] ] } },
{ "type": "Feature", "properties": { "fcode": 42813, "label": "Siphon", "name": null, "source": "NHDPlus HR non network flowline", "length_mi": 0.07 }, "geometry": { "type": "LineString", "coordinates": [ [ -66.5259, 18.15947 ], [ -66.52561, 18.16029 ], [ -66.52557, 18.16041 ] ] } },
{ "type": "Feature", "properties": { "fcode": 42813, "label": "Siphon", "name": "Canal Principal De Riego Valle De Lajas", "source": "NHDPlus HR non network flowline", "length_mi": 0.09 }, "geometry": { "type": "LineString", "coordinates": [ [ -66.99171, 18.04464 ], [ -66.99189, 18.04473 ], [ -66.99224, 18.04486 ], [ -66.9924, 18.04492 ], [ -66.99273, 18.04503 ], [ -66.99302, 18.04511 ] ] } },
{ "type": "Feature", "properties": { "fcode": 42813, "label": "Siphon", "name": "Canal Principal De Riego Valle De Lajas", "source": "NHDPlus HR non network flowline", "length_mi": 0.04 }, "geometry": { "type": "LineString", "coordinates": [ [ -66.9719, 18.04929 ], [ -66.97202, 18.04932 ], [ -66.97224, 18.04934 ], [ -66.97243, 18.04933 ], [ -66.97254, 18.0493 ] ] } }
]
}
