{
"type": "FeatureCollection",
"name": "transfers_structures",
"crs": { "type": "name", "properties": { "name": "urn:ogc:def:crs:OGC:1.3:CRS84" } },
"xy_coordinate_resolution": 1e-05,
"features": [
{ "type": "Feature", "properties": { "fcode": 34306, "label": "Dam or weir, nonearthen", "name": null, "source": "NHDPlus HR line feature", "length_mi": null }, "geometry": { "type": "LineString", "coordinates": [ [ -66.72902, 18.01008 ], [ -66.72918, 18.01004 ], [ -66.7293, 18.01001 ] ] } },
{ "type": "Feature", "properties": { "fcode": 34306, "label": "Dam or weir, nonearthen", "name": null, "source": "NHDPlus HR line feature", "length_mi": null }, "geometry": { "type": "LineString", "coordinates": [ [ -66.90196, 18.01885 ], [ -66.90208, 18.01712 ], [ -66.90206, 18.01706 ], [ -66.902, 18.01702 ], [ -66.90191, 18.01699 ], [ -66.9018, 18.01699 ], [ -66.90149, 18.01703 ], [ -66.90125, 18.01705 ], [ -66.9012, 18.01706 ] ] } },
{ "type": "Feature", "properties": { "fcode": 34306, "label": "Dam or weir, nonearthen", "name": null, "source": "NHDPlus HR line feature", "length_mi": null }, "geometry": { "type": "LineString", "coordinates": [ [ -66.52762, 18.15992 ], [ -66.52722, 18.15977 ], [ -66.52697, 18.15969 ], [ -66.52599, 18.1594 ], [ -66.5257, 18.15931 ] ] } },
{ "type": "Feature", "properties": { "fcode": 34306, "label": "Dam or weir, nonearthen", "name": null, "source": "NHDPlus HR line feature", "length_mi": null }, "geometry": { "type": "LineString", "coordinates": [ [ -66.50524, 18.08768 ], [ -66.50426, 18.08714 ], [ -66.50337, 18.0867 ], [ -66.50175, 18.08587 ], [ -66.50083, 18.08545 ], [ -66.50015, 18.0858 ], [ -66.50009, 18.08609 ] ] } },
{ "type": "Feature", "properties": { "fcode": 34306, "label": "Dam or weir, nonearthen", "name": null, "source": "NHDPlus HR line feature", "length_mi": null }, "geometry": { "type": "LineString", "coordinates": [ [ -66.88241, 18.01494 ], [ -66.88235, 18.01498 ], [ -66.88229, 18.01499 ], [ -66.88223, 18.01499 ], [ -66.88218, 18.01498 ], [ -66.88212, 18.01492 ], [ -66.88209, 18.01483 ], [ -66.88164, 18.0141 ], [ -66.88161, 18.01402 ], [ -66.8816, 18.01399 ], [ -66.8816, 18.01389 ], [ -66.88162, 18.01385 ], [ -66.88164, 18.01383 ], [ -66.88166, 18.01374 ] ] } },
{ "type": "Feature", "properties": { "fcode": 34306, "label": "Dam or weir, nonearthen", "name": null, "source": "NHDPlus HR line feature", "length_mi": null }, "geometry": { "type": "LineString", "coordinates": [ [ -66.49053, 18.1012 ], [ -66.49043, 18.10111 ], [ -66.49041, 18.10103 ], [ -66.4904, 18.10102 ], [ -66.49036, 18.101 ], [ -66.49024, 18.10087 ], [ -66.49022, 18.10089 ], [ -66.4902, 18.1009 ], [ -66.49017, 18.1009 ], [ -66.49015, 18.1009 ], [ -66.49003, 18.10087 ] ] } },
{ "type": "Feature", "properties": { "fcode": 34306, "label": "Dam or weir, nonearthen", "name": null, "source": "NHDPlus HR line feature", "length_mi": null }, "geometry": { "type": "LineString", "coordinates": [ [ -66.88787, 18.04251 ], [ -66.88758, 18.04251 ], [ -66.88704, 18.04251 ], [ -66.88658, 18.04227 ] ] } },
{ "type": "Feature", "properties": { "fcode": 34306, "label": "Dam or weir, nonearthen", "name": null, "source": "NHDPlus HR line feature", "length_mi": null }, "geometry": { "type": "LineString", "coordinates": [ [ -66.90023, 18.0181 ], [ -66.90025, 18.01798 ], [ -66.90026, 18.01787 ], [ -66.90025, 18.01776 ], [ -66.90023, 18.01766 ], [ -66.90018, 18.01752 ], [ -66.90012, 18.01744 ], [ -66.90004, 18.01737 ], [ -66.8999, 18.01731 ], [ -66.89979, 18.01726 ], [ -66.89969, 18.01726 ], [ -66.89956, 18.01724 ], [ -66.89938, 18.01726 ], [ -66.89918, 18.01728 ], [ -66.89905, 18.01731 ], [ -66.899, 18.01731 ] ] } },
{ "type": "Feature", "properties": { "fcode": 34306, "label": "Dam or weir, nonearthen", "name": null, "source": "NHDPlus HR line feature", "length_mi": null }, "geometry": { "type": "LineString", "coordinates": [ [ -66.83545, 18.21104 ], [ -66.83525, 18.21096 ], [ -66.83477, 18.21076 ], [ -66.83418, 18.21049 ], [ -66.83407, 18.21045 ] ] } },
{ "type": "Feature", "properties": { "fcode": 34306, "label": "Dam or weir, nonearthen", "name": null, "source": "NHDPlus HR line feature", "length_mi": null }, "geometry": { "type": "LineString", "coordinates": [ [ -66.48954, 18.09929 ], [ -66.48972, 18.09941 ], [ -66.48998, 18.09964 ], [ -66.49023, 18.09983 ], [ -66.49033, 18.09991 ], [ -66.49038, 18.09995 ], [ -66.49038, 18.10016 ], [ -66.49036, 18.10051 ], [ -66.49011, 18.10032 ], [ -66.4897, 18.1 ], [ -66.48923, 18.09965 ], [ -66.48894, 18.09942 ], [ -66.48875, 18.09928 ], [ -66.48847, 18.09906 ], [ -66.48817, 18.09885 ], [ -66.48796, 18.09869 ], [ -66.48787, 18.09863 ], [ -66.48778, 18.09858 ], [ -66.48774, 18.09854 ], [ -66.48786, 18.09851 ], [ -66.48813, 18.09839 ], [ -66.48827, 18.09832 ], [ -66.4886, 18.09858 ], [ -66.48891, 18.0988 ], [ -66.48911, 18.09896 ], [ -66.48926, 18.09908 ] ] } },
{ "type": "Feature", "properties": { "fcode": 48500, "label": "Water intake or outflow", "name": null, "source": "NHDPlus HR area feature", "length_mi": null }, "geometry": { "type": "Polygon", "coordinates": [ [ [ -66.47888, 18.21071 ], [ -66.47891, 18.21069 ], [ -66.47892, 18.21066 ], [ -66.47892, 18.21062 ], [ -66.47891, 18.21059 ], [ -66.4789, 18.21056 ], [ -66.47887, 18.21054 ], [ -66.47885, 18.21054 ], [ -66.47881, 18.21054 ], [ -66.47877, 18.21055 ], [ -66.47875, 18.21056 ], [ -66.47873, 18.2106 ], [ -66.47872, 18.21063 ], [ -66.47872, 18.21066 ], [ -66.47874, 18.2107 ], [ -66.47877, 18.21072 ], [ -66.47881, 18.21073 ], [ -66.47885, 18.21073 ], [ -66.47888, 18.21071 ] ] ] } },
{ "type": "Feature", "properties": { "fcode": 34306, "label": "Dam or weir, nonearthen", "name": null, "source": "NHDPlus HR area feature", "length_mi": null }, "geometry": { "type": "Polygon", "coordinates": [ [ [ -66.65638, 18.27716 ], [ -66.65652, 18.27707 ], [ -66.65696, 18.27682 ], [ -66.65689, 18.27631 ], [ -66.6568, 18.27638 ], [ -66.65636, 18.27668 ], [ -66.65632, 18.27671 ], [ -66.65632, 18.27671 ], [ -66.65592, 18.27697 ], [ -66.65567, 18.27711 ], [ -66.65563, 18.27713 ], [ -66.65601, 18.27735 ], [ -66.65638, 18.27716 ] ] ] } },
{ "type": "Feature", "properties": { "fcode": 48500, "label": "Water intake or outflow", "name": null, "source": "NHDPlus HR area feature", "length_mi": null }, "geometry": { "type": "Polygon", "coordinates": [ [ [ -66.52762, 18.1597 ], [ -66.5276, 18.15968 ], [ -66.52758, 18.15966 ], [ -66.52755, 18.15965 ], [ -66.52752, 18.15966 ], [ -66.5275, 18.15968 ], [ -66.52749, 18.1597 ], [ -66.52749, 18.15974 ], [ -66.52751, 18.15976 ], [ -66.52753, 18.15977 ], [ -66.52754, 18.15978 ], [ -66.52757, 18.15978 ], [ -66.5276, 18.15977 ], [ -66.52761, 18.15975 ], [ -66.52762, 18.15973 ], [ -66.52762, 18.1597 ] ] ] } }
]
}
