{
"type": "FeatureCollection",
"name": "transfers_gauges",
"crs": { "type": "name", "properties": { "name": "urn:ogc:def:crs:OGC:1.3:CRS84" } },
"xy_coordinate_resolution": 1e-05,
"features": [
{ "type": "Feature", "properties": { "site_no": "180455066301701", "station": "CANAL DE JUANA DIAZ AT LAGO GUAYABAL, PR", "begin": "2022-04-06T00:00:00", "end": "2026-08-19T00:00:00", "active": true, "drain_area_va": null, "network": "USGS NWIS", "url": "https://waterdata.usgs.gov/monitoring-location/180455066301701" }, "geometry": { "type": "Point", "coordinates": [ -66.50464, 18.08206 ] } },
{ "type": "Feature", "properties": { "site_no": "182743067004200", "station": "CANAL PRINCIPAL DIVERSION BLW FOREBAY, ISABELA, PR", "begin": "2016-10-01T00:00:00", "end": "2026-08-19T00:00:00", "active": true, "drain_area_va": null, "network": "USGS NWIS", "url": "https://waterdata.usgs.gov/monitoring-location/182743067004200" }, "geometry": { "type": "Point", "coordinates": [ -67.01168, 18.46204 ] } },
{ "type": "Feature", "properties": { "site_no": "182830067035900", "station": "CANAL PRINCIPAL DIVERSION ABV. LAGO GUERRERO, PR", "begin": "2019-03-13T00:00:00", "end": "2026-08-19T00:00:00", "active": true, "drain_area_va": null, "network": "USGS NWIS", "url": "https://waterdata.usgs.gov/monitoring-location/182830067035900" }, "geometry": { "type": "Point", "coordinates": [ -67.06639, 18.475 ] } },
{ "type": "Feature", "properties": { "site_no": "50010600", "station": "RIO GUAJATACA ABV LAGO DE GUAJATACA, PR", "begin": "1984-07-01T00:00:00", "end": "1989-09-30T00:00:00", "active": false, "drain_area_va": null, "network": "USGS NWIS", "url": "https://waterdata.usgs.gov/monitoring-location/50010600" }, "geometry": { "type": "Point", "coordinates": [ -66.91601, 18.33051 ] } },
{ "type": "Feature", "properties": { "site_no": "50011000", "station": "CANAL DE DERIVACION AT LAGO DE GUAJATACA, PR", "begin": "2006-03-16T00:00:00", "end": "2026-08-19T00:00:00", "active": true, "drain_area_va": null, "network": "USGS NWIS", "url": "https://waterdata.usgs.gov/monitoring-location/50011000" }, "geometry": { "type": "Point", "coordinates": [ -66.92751, 18.39952 ] } },
{ "type": "Feature", "properties": { "site_no": "50011080", "station": "CANAL MOCA BLW FOREBAY, PR", "begin": "2004-02-01T00:00:00", "end": "2010-09-30T00:00:00", "active": false, "drain_area_va": null, "network": "USGS NWIS", "url": "https://waterdata.usgs.gov/monitoring-location/50011080" }, "geometry": { "type": "Point", "coordinates": [ -67.01157, 18.45661 ] } },
{ "type": "Feature", "properties": { "site_no": "50011085", "station": "CANAL DE MOCA ABV LAGO REGULADOR (E13) ISABELA, PR", "begin": "2004-02-03T00:00:00", "end": "2026-08-19T00:00:00", "active": true, "drain_area_va": null, "network": "USGS NWIS", "url": "https://waterdata.usgs.gov/monitoring-location/50011085" }, "geometry": { "type": "Point", "coordinates": [ -67.02788, 18.45734 ] } },
{ "type": "Feature", "properties": { "site_no": "50011095", "station": "CANAL MOCA BLW HWY 112, PR", "begin": "2004-02-12T00:00:00", "end": "2010-09-30T00:00:00", "active": false, "drain_area_va": null, "network": "USGS NWIS", "url": "https://waterdata.usgs.gov/monitoring-location/50011095" }, "geometry": { "type": "Point", "coordinates": [ -67.03457, 18.45441 ] } },
{ "type": "Feature", "properties": { "site_no": "50011128", "station": "CANAL MOCA ABV AGUADILLA PLANT, AGUADILLA, PR", "begin": "2016-10-01T00:00:00", "end": "2026-08-19T00:00:00", "active": true, "drain_area_va": null, "network": "USGS NWIS", "url": "https://waterdata.usgs.gov/monitoring-location/50011128" }, "geometry": { "type": "Point", "coordinates": [ -67.13732, 18.44922 ] } },
{ "type": "Feature", "properties": { "site_no": "50011130", "station": "CANAL MOCA (M 216) ABV AGUADILLA PLANT, PR", "begin": "2004-02-04T00:00:00", "end": "2008-04-23T00:00:00", "active": false, "drain_area_va": null, "network": "USGS NWIS", "url": "https://waterdata.usgs.gov/monitoring-location/50011130" }, "geometry": { "type": "Point", "coordinates": [ -67.14018, 18.448 ] } },
{ "type": "Feature", "properties": { "site_no": "50011200", "station": "RIO GUAJATACA BLW LAGO GUAJATACA, PR", "begin": "1969-08-11T00:00:00", "end": "2026-08-19T00:00:00", "active": true, "drain_area_va": null, "network": "USGS NWIS", "url": "https://waterdata.usgs.gov/monitoring-location/50011200" }, "geometry": { "type": "Point", "coordinates": [ -66.92778, 18.40028 ] } },
{ "type": "Feature", "properties": { "site_no": "50026200", "station": "RIO CAONILLAS BLW LAGO CAONILLAS TUNNEL, PR", "begin": "2000-12-13T00:00:00", "end": "2006-09-30T00:00:00", "active": false, "drain_area_va": 50.8, "network": "USGS NWIS", "url": "https://waterdata.usgs.gov/monitoring-location/50026200" }, "geometry": { "type": "Point", "coordinates": [ -66.64295, 18.29717 ] } },
{ "type": "Feature", "properties": { "site_no": "50027000", "station": "RIO LIMON ABV LAGO DOS BOCAS, PR", "begin": "1999-12-16T00:00:00", "end": "2026-08-19T00:00:00", "active": true, "drain_area_va": 31.5, "network": "USGS NWIS", "url": "https://waterdata.usgs.gov/monitoring-location/50027000" }, "geometry": { "type": "Point", "coordinates": [ -66.62103, 18.32609 ] } },
{ "type": "Feature", "properties": { "site_no": "50027200", "station": "RIO GRANDE DE ARECIBO BLW LAGO DOS BOCAS DAM, PR", "begin": "1969-10-01T00:00:00", "end": "1971-05-24T00:00:00", "active": false, "drain_area_va": 169.0, "network": "USGS NWIS", "url": "https://waterdata.usgs.gov/monitoring-location/50027200" }, "geometry": { "type": "Point", "coordinates": [ -66.6674, 18.33606 ] } },
{ "type": "Feature", "properties": { "site_no": "50027250", "station": "RIO GDE. DE ARECIBO BLW LAGO DOS BOCAS NR FLORIDA", "begin": "2000-05-17T00:00:00", "end": "2002-09-30T00:00:00", "active": false, "drain_area_va": 169.0, "network": "USGS NWIS", "url": "https://waterdata.usgs.gov/monitoring-location/50027250" }, "geometry": { "type": "Point", "coordinates": [ -66.66684, 18.34523 ] } },
{ "type": "Feature", "properties": { "site_no": "50040000", "station": "RIO DE LA PLATA AT LAGO CARITE, PR", "begin": "1949-10-01T00:00:00", "end": "1967-12-31T00:00:00", "active": false, "drain_area_va": 8.2, "network": "USGS NWIS", "url": "https://waterdata.usgs.gov/monitoring-location/50040000" }, "geometry": { "type": "Point", "coordinates": [ -66.106, 18.07635 ] } },
{ "type": "Feature", "properties": { "site_no": "50045010", "station": "RIO DE LA PLATA BLW LA PLATA DAMSITE, PR", "begin": "1989-07-14T00:00:00", "end": "2026-08-19T00:00:00", "active": true, "drain_area_va": 181.0, "network": "USGS NWIS", "url": "https://waterdata.usgs.gov/monitoring-location/50045010" }, "geometry": { "type": "Point", "coordinates": [ -66.23881, 18.34601 ] } },
{ "type": "Feature", "properties": { "site_no": "50047560", "station": "RIO DE BAYAMON BLW LAGO DE CIDRA DAM, PR", "begin": "1990-11-01T00:00:00", "end": "2026-08-19T00:00:00", "active": true, "drain_area_va": 8.32, "network": "USGS NWIS", "url": "https://waterdata.usgs.gov/monitoring-location/50047560" }, "geometry": { "type": "Point", "coordinates": [ -66.13917, 18.20278 ] } },
{ "type": "Feature", "properties": { "site_no": "50059050", "station": "RIO GRANDE DE LOIZA BLW LOIZA DAMSITE, PR", "begin": "1986-12-25T00:00:00", "end": "2026-08-19T00:00:00", "active": true, "drain_area_va": 209.0, "network": "USGS NWIS", "url": "https://waterdata.usgs.gov/monitoring-location/50059050" }, "geometry": { "type": "Point", "coordinates": [ -66.00598, 18.34227 ] } },
{ "type": "Feature", "properties": { "site_no": "50093050", "station": "RIO GRANDE DE PATILLAS AT LAGO PATILLAS, PR", "begin": "1949-10-01T00:00:00", "end": "1958-12-31T00:00:00", "active": false, "drain_area_va": 25.6, "network": "USGS NWIS", "url": "https://waterdata.usgs.gov/monitoring-location/50093050" }, "geometry": { "type": "Point", "coordinates": [ -66.02155, 18.01885 ] } },
{ "type": "Feature", "properties": { "site_no": "50093053", "station": "CANAL DE PATILLAS AT FOREBAY, PR", "begin": "2005-11-09T00:00:00", "end": "2026-08-19T00:00:00", "active": true, "drain_area_va": null, "network": "USGS NWIS", "url": "https://waterdata.usgs.gov/monitoring-location/50093053" }, "geometry": { "type": "Point", "coordinates": [ -66.02306, 18.02083 ] } },
{ "type": "Feature", "properties": { "site_no": "50093075", "station": "CANAL DE PATILLAS ABV GUAYAMA FILTRATION PLANT, PR", "begin": "2003-02-15T00:00:00", "end": "2026-08-19T00:00:00", "active": true, "drain_area_va": null, "network": "USGS NWIS", "url": "https://waterdata.usgs.gov/monitoring-location/50093075" }, "geometry": { "type": "Point", "coordinates": [ -66.10111, 17.9825 ] } },
{ "type": "Feature", "properties": { "site_no": "50093078", "station": "CANAL DE PATILLAS BLW GUAYAMA FILTRATION PLANT, PR", "begin": "2003-02-20T00:00:00", "end": "2026-08-19T00:00:00", "active": true, "drain_area_va": null, "network": "USGS NWIS", "url": "https://waterdata.usgs.gov/monitoring-location/50093078" }, "geometry": { "type": "Point", "coordinates": [ -66.10139, 17.9825 ] } },
{ "type": "Feature", "properties": { "site_no": "50093083", "station": "CANAL DE PATILLAS ABV AES INTAKE AT GUAYAMA, PR", "begin": "2016-10-01T00:00:00", "end": "2026-08-19T00:00:00", "active": true, "drain_area_va": null, "network": "USGS NWIS", "url": "https://waterdata.usgs.gov/monitoring-location/50093083" }, "geometry": { "type": "Point", "coordinates": [ -66.13917, 17.96972 ] } },
{ "type": "Feature", "properties": { "site_no": "50093085", "station": "CANAL DE PATILLAS BLW AES INTAKE AT GUAYAMA, PR", "begin": "2007-04-10T00:00:00", "end": "2010-09-30T00:00:00", "active": false, "drain_area_va": null, "network": "USGS NWIS", "url": "https://waterdata.usgs.gov/monitoring-location/50093085" }, "geometry": { "type": "Point", "coordinates": [ -66.13878, 17.96747 ] } },
{ "type": "Feature", "properties": { "site_no": "50093090", "station": "CANAL DE PATILLAS ABV EL LEGADO INTAKE, PR", "begin": "2005-12-06T00:00:00", "end": "2026-08-19T00:00:00", "active": true, "drain_area_va": null, "network": "USGS NWIS", "url": "https://waterdata.usgs.gov/monitoring-location/50093090" }, "geometry": { "type": "Point", "coordinates": [ -66.17961, 17.97636 ] } },
{ "type": "Feature", "properties": { "site_no": "50093095", "station": "CANAL DE PATILLAS BLW EL LEGADO INTAKE, PR", "begin": "2005-12-06T00:00:00", "end": "2007-08-27T00:00:00", "active": false, "drain_area_va": null, "network": "USGS NWIS", "url": "https://waterdata.usgs.gov/monitoring-location/50093095" }, "geometry": { "type": "Point", "coordinates": [ -66.17961, 17.97636 ] } },
{ "type": "Feature", "properties": { "site_no": "50093110", "station": "CANAL DE PATILLAS AT INTAKE 113 SALINAS, PR", "begin": "2016-10-01T00:00:00", "end": "2026-08-19T00:00:00", "active": true, "drain_area_va": null, "network": "USGS NWIS", "url": "https://waterdata.usgs.gov/monitoring-location/50093110" }, "geometry": { "type": "Point", "coordinates": [ -66.2672, 17.98294 ] } },
{ "type": "Feature", "properties": { "site_no": "50093115", "station": "CANAL DE PATILLAS AT INTAKE 123, SALINAS PR", "begin": "2016-10-01T00:00:00", "end": "2026-08-19T00:00:00", "active": true, "drain_area_va": null, "network": "USGS NWIS", "url": "https://waterdata.usgs.gov/monitoring-location/50093115" }, "geometry": { "type": "Point", "coordinates": [ -66.28802, 17.98552 ] } },
{ "type": "Feature", "properties": { "site_no": "50093120", "station": "RIO GRANDE DE PATILLAS BLW LAGO PATILLAS, PR", "begin": "2005-10-01T00:00:00", "end": "2026-08-19T00:00:00", "active": true, "drain_area_va": 25.67, "network": "USGS NWIS", "url": "https://waterdata.usgs.gov/monitoring-location/50093120" }, "geometry": { "type": "Point", "coordinates": [ -66.02361, 18.01639 ] } },
{ "type": "Feature", "properties": { "site_no": "50095000", "station": "CANAL DE GUAMANI OESTE AT HWY 15 GUAYAMA, PR", "begin": "2005-12-29T00:00:00", "end": "2026-08-19T00:00:00", "active": true, "drain_area_va": null, "network": "USGS NWIS", "url": "https://waterdata.usgs.gov/monitoring-location/50095000" }, "geometry": { "type": "Point", "coordinates": [ -66.11556, 18.00306 ] } },
{ "type": "Feature", "properties": { "site_no": "50110200", "station": "CANAL DE ACEITUNA AT VILLALBA, PR", "begin": "1966-01-01T00:00:00", "end": "1973-12-31T00:00:00", "active": false, "drain_area_va": null, "network": "USGS NWIS", "url": "https://waterdata.usgs.gov/monitoring-location/50110200" }, "geometry": { "type": "Point", "coordinates": [ -66.50434, 18.16135 ] } },
{ "type": "Feature", "properties": { "site_no": "50110650", "station": "RIO JACAGUAS ABV LAGO GUAYABAL", "begin": "2012-07-14T00:00:00", "end": "2026-08-19T00:00:00", "active": true, "drain_area_va": 13.75, "network": "USGS NWIS", "url": "https://waterdata.usgs.gov/monitoring-location/50110650" }, "geometry": { "type": "Point", "coordinates": [ -66.50465, 18.11659 ] } },
{ "type": "Feature", "properties": { "site_no": "50110900", "station": "RIO TOA VACA ABV LAGO TOA VACA, PR", "begin": "1989-04-05T00:00:00", "end": "2026-08-19T00:00:00", "active": true, "drain_area_va": 14.2, "network": "USGS NWIS", "url": "https://waterdata.usgs.gov/monitoring-location/50110900" }, "geometry": { "type": "Point", "coordinates": [ -66.45778, 18.1265 ] } },
{ "type": "Feature", "properties": { "site_no": "50111320", "station": "CANAL DE JUANA DIAZ AT PIEDRA AGUZADA NR JUANA DIA", "begin": "2004-06-09T00:00:00", "end": "2026-08-19T00:00:00", "active": true, "drain_area_va": null, "network": "USGS NWIS", "url": "https://waterdata.usgs.gov/monitoring-location/50111320" }, "geometry": { "type": "Point", "coordinates": [ -66.48876, 18.03995 ] } },
{ "type": "Feature", "properties": { "site_no": "50111330", "station": "CANAL DE JUANA DIAZ AT PASO SECO NR SANTA ISABEL", "begin": "2004-06-08T00:00:00", "end": "2026-08-19T00:00:00", "active": true, "drain_area_va": null, "network": "USGS NWIS", "url": "https://waterdata.usgs.gov/monitoring-location/50111330" }, "geometry": { "type": "Point", "coordinates": [ -66.39032, 18.01433 ] } },
{ "type": "Feature", "properties": { "site_no": "50111340", "station": "CANAL DE JUANA DIAZ AT BO. PENUELAS NR SALINAS, PR", "begin": "2004-05-05T00:00:00", "end": "2026-08-19T00:00:00", "active": true, "drain_area_va": null, "network": "USGS NWIS", "url": "https://waterdata.usgs.gov/monitoring-location/50111340" }, "geometry": { "type": "Point", "coordinates": [ -66.34189, 17.99828 ] } },
{ "type": "Feature", "properties": { "site_no": "50113800", "station": "RIO CERRILLOS ABV LAGO CERRILLOS NR PONCE, PR", "begin": "1988-12-01T00:00:00", "end": "2026-08-19T00:00:00", "active": true, "drain_area_va": 11.9, "network": "USGS NWIS", "url": "https://waterdata.usgs.gov/monitoring-location/50113800" }, "geometry": { "type": "Point", "coordinates": [ -66.60489, 18.11679 ] } },
{ "type": "Feature", "properties": { "site_no": "50114000", "station": "RIO CERRILLOS BLW LAGO CERRILLOS NR PONCE, PR", "begin": "1964-05-01T00:00:00", "end": "2026-08-19T00:00:00", "active": true, "drain_area_va": 17.8, "network": "USGS NWIS", "url": "https://waterdata.usgs.gov/monitoring-location/50114000" }, "geometry": { "type": "Point", "coordinates": [ -66.58139, 18.07285 ] } },
{ "type": "Feature", "properties": { "site_no": "50115230", "station": "RIO PORTUGUES BLW PORTUGUES DAMSITE, PR", "begin": "2002-01-16T00:00:00", "end": "2012-09-29T00:00:00", "active": false, "drain_area_va": 11.24, "network": "USGS NWIS", "url": "https://waterdata.usgs.gov/monitoring-location/50115230" }, "geometry": { "type": "Point", "coordinates": [ -66.62767, 18.04996 ] } },
{ "type": "Feature", "properties": { "site_no": "50125790", "station": "RIO YAUCO AT LUCCHETTI DAMSITE, PR", "begin": "1946-07-01T00:00:00", "end": "1952-02-29T00:00:00", "active": false, "drain_area_va": 17.4, "network": "USGS NWIS", "url": "https://waterdata.usgs.gov/monitoring-location/50125790" }, "geometry": { "type": "Point", "coordinates": [ -66.86462, 18.09163 ] } },
{ "type": "Feature", "properties": { "site_no": "50125900", "station": "RIO DUEY ABV DIVERSION NR YAUCO, PR", "begin": "1976-10-21T00:00:00", "end": "1980-10-08T00:00:00", "active": false, "drain_area_va": 7.23, "network": "USGS NWIS", "url": "https://waterdata.usgs.gov/monitoring-location/50125900" }, "geometry": { "type": "Point", "coordinates": [ -66.84601, 18.06774 ] } },
{ "type": "Feature", "properties": { "site_no": "50126150", "station": "RIO YAUCO ABV DIVERSION MONSERRATE NR YAUCO, PR", "begin": "1976-11-05T00:00:00", "end": "2026-08-19T00:00:00", "active": true, "drain_area_va": 32.1, "network": "USGS NWIS", "url": "https://waterdata.usgs.gov/monitoring-location/50126150" }, "geometry": { "type": "Point", "coordinates": [ -66.84186, 18.04919 ] } },
{ "type": "Feature", "properties": { "site_no": "50128905", "station": "CANAL DE RIEGO DE LAJAS BLW LAGO LOCO DAM YAUCO PR", "begin": "2000-03-07T00:00:00", "end": "2026-08-19T00:00:00", "active": true, "drain_area_va": null, "network": "USGS NWIS", "url": "https://waterdata.usgs.gov/monitoring-location/50128905" }, "geometry": { "type": "Point", "coordinates": [ -66.88856, 18.04304 ] } },
{ "type": "Feature", "properties": { "site_no": "50128907", "station": "LATERAL M5L, CANAL DE RIEGO DE LAJAS SABANA GRANDE", "begin": "2007-11-06T00:00:00", "end": "2026-08-19T00:00:00", "active": true, "drain_area_va": null, "network": "USGS NWIS", "url": "https://waterdata.usgs.gov/monitoring-location/50128907" }, "geometry": { "type": "Point", "coordinates": [ -66.89812, 18.03503 ] } },
{ "type": "Feature", "properties": { "site_no": "50128918", "station": "LATERAL M22L, CANAL DE RIEGO LAJAS, SABANA GRANDE", "begin": "2007-11-09T00:00:00", "end": "2010-09-30T00:00:00", "active": false, "drain_area_va": null, "network": "USGS NWIS", "url": "https://waterdata.usgs.gov/monitoring-location/50128918" }, "geometry": { "type": "Point", "coordinates": [ -66.94068, 18.041 ] } },
{ "type": "Feature", "properties": { "site_no": "50128920", "station": "CANAL DE RIEGO DE LAJAS ABV MAJINAS FILT. PLANT PR", "begin": "2005-11-03T00:00:00", "end": "2026-08-19T00:00:00", "active": true, "drain_area_va": null, "network": "USGS NWIS", "url": "https://waterdata.usgs.gov/monitoring-location/50128920" }, "geometry": { "type": "Point", "coordinates": [ -66.94914, 18.04587 ] } },
{ "type": "Feature", "properties": { "site_no": "50128925", "station": "CANAL DE RIEGO DE LAJAS BLW MAJINAS FILT. PLANT PR", "begin": "2005-11-03T00:00:00", "end": "2026-08-19T00:00:00", "active": true, "drain_area_va": null, "network": "USGS NWIS", "url": "https://waterdata.usgs.gov/monitoring-location/50128925" }, "geometry": { "type": "Point", "coordinates": [ -66.95009, 18.04457 ] } },
{ "type": "Feature", "properties": { "site_no": "50128933", "station": "CANAL RIEGO DE LAJAS ABV LAJAS FILTRATION PLANT", "begin": "2009-10-07T00:00:00", "end": "2026-08-19T00:00:00", "active": true, "drain_area_va": null, "network": "USGS NWIS", "url": "https://waterdata.usgs.gov/monitoring-location/50128933" }, "geometry": { "type": "Point", "coordinates": [ -67.05255, 18.04506 ] } },
{ "type": "Feature", "properties": { "site_no": "50128940", "station": "CANAL DE RIEGO DE LAJAS BLW LAJAS FILT PLANT LAJAS", "begin": "2004-10-01T00:00:00", "end": "2026-08-19T00:00:00", "active": true, "drain_area_va": null, "network": "USGS NWIS", "url": "https://waterdata.usgs.gov/monitoring-location/50128940" }, "geometry": { "type": "Point", "coordinates": [ -67.05529, 18.04534 ] } },
{ "type": "Feature", "properties": { "site_no": "50128945", "station": "CANAL DE RIEGO DE LAJAS AT BO. PALMAREJO NR LAJAS", "begin": "2001-01-30T00:00:00", "end": "2026-08-19T00:00:00", "active": true, "drain_area_va": null, "network": "USGS NWIS", "url": "https://waterdata.usgs.gov/monitoring-location/50128945" }, "geometry": { "type": "Point", "coordinates": [ -67.07897, 18.0392 ] } },
{ "type": "Feature", "properties": { "site_no": "50128948", "station": "CANAL DE RIEGO DE LAJAS AT BO. BETANCES, PR", "begin": "2016-10-01T00:00:00", "end": "2026-08-19T00:00:00", "active": true, "drain_area_va": null, "network": "USGS NWIS", "url": "https://waterdata.usgs.gov/monitoring-location/50128948" }, "geometry": { "type": "Point", "coordinates": [ -67.13214, 18.03879 ] } },
{ "type": "Feature", "properties": { "site_no": "50128950", "station": "CANAL DE RIEGO DE LAJAS NR BOQUERON, PR", "begin": "1980-08-01T00:00:00", "end": "1984-09-29T00:00:00", "active": false, "drain_area_va": null, "network": "USGS NWIS", "url": "https://waterdata.usgs.gov/monitoring-location/50128950" }, "geometry": { "type": "Point", "coordinates": [ -67.13907, 18.03524 ] } },
{ "type": "Feature", "properties": { "site_no": "50129300", "station": "LAJAS EAST DRAINAGE CANAL NR ENSENADA, PR", "begin": "1979-03-14T00:00:00", "end": "1983-07-11T00:00:00", "active": false, "drain_area_va": null, "network": "USGS NWIS", "url": "https://waterdata.usgs.gov/monitoring-location/50129300" }, "geometry": { "type": "Point", "coordinates": [ -66.97295, 18.00913 ] } },
{ "type": "Feature", "properties": { "site_no": "50148890", "station": "RIO CULEBRINAS AT MARGARITA DAMSITE NR AGUADA, PR", "begin": "1998-07-16T00:00:00", "end": "2026-08-19T00:00:00", "active": true, "drain_area_va": 94.6, "network": "USGS NWIS", "url": "https://waterdata.usgs.gov/monitoring-location/50148890" }, "geometry": { "type": "Point", "coordinates": [ -67.1512, 18.3945 ] } },
{ "type": "Feature", "properties": { "site_no": "50215000", "station": "DRAINGAGE CANAL AT CULEBRA AIRPORT, CULEBRA PR", "begin": "1991-10-10T00:00:00", "end": "1994-04-13T00:00:00", "active": false, "drain_area_va": 0.1, "network": "USGS NWIS", "url": "https://waterdata.usgs.gov/monitoring-location/50215000" }, "geometry": { "type": "Point", "coordinates": [ -65.30849, 18.31634 ] } }
]
}
