{
"type": "FeatureCollection",
"name": "watersheds",
"crs": { "type": "name", "properties": { "name": "urn:ogc:def:crs:OGC:1.3:CRS84" } },
"xy_coordinate_resolution": 1e-05,
"features": [
{ "type": "Feature", "properties": { "key": "guineo", "name": "Lago El Guineo", "river": "Rio Toro Negro", "huc12": "210100020204", "huc12_name": "Rio Toro Negro at Lago El Guineo Dam", "area_sqmi": 1.64, "area_sqkm": 4.25 }, "geometry": { "type": "Polygon", "coordinates": [ [ [ -66.52204, 18.15268 ], [ -66.52237, 18.15401 ], [ -66.52198, 18.15454 ], [ -66.52205, 18.15541 ], [ -66.52178, 18.15616 ], [ -66.5223, 18.15655 ], [ -66.52258, 18.15747 ], [ -66.52389, 18.15857 ], [ -66.52497, 18.15892 ], [ -66.52568, 18.15944 ], [ -66.52852, 18.16023 ], [ -66.52864, 18.16188 ], [ -66.52834, 18.16234 ], [ -66.52813, 18.16313 ], [ -66.5282, 18.16438 ], [ -66.52862, 18.16512 ], [ -66.52879, 18.16612 ], [ -66.52903, 18.16633 ], [ -66.52903, 18.16723 ], [ -66.52956, 18.16876 ], [ -66.5299, 18.1692 ], [ -66.53045, 18.16948 ], [ -66.53098, 18.17021 ], [ -66.53146, 18.17051 ], [ -66.533, 18.17093 ], [ -66.53412, 18.17159 ], [ -66.53486, 18.17233 ], [ -66.53662, 18.17277 ], [ -66.53764, 18.17349 ], [ -66.53871, 18.17285 ], [ -66.53994, 18.17124 ], [ -66.54005, 18.17029 ], [ -66.54033, 18.16978 ], [ -66.54067, 18.16941 ], [ -66.54127, 18.16919 ], [ -66.54149, 18.16881 ], [ -66.54159, 18.16664 ], [ -66.54106, 18.16606 ], [ -66.54097, 18.16544 ], [ -66.54133, 18.16484 ], [ -66.54245, 18.16372 ], [ -66.54328, 18.1632 ], [ -66.5434, 18.16277 ], [ -66.54335, 18.16164 ], [ -66.54364, 18.1612 ], [ -66.54456, 18.16058 ], [ -66.54465, 18.15988 ], [ -66.5442, 18.15863 ], [ -66.54444, 18.15775 ], [ -66.54483, 18.15717 ], [ -66.54581, 18.15652 ], [ -66.54625, 18.15575 ], [ -66.54674, 18.15537 ], [ -66.54688, 18.15486 ], [ -66.54676, 18.15412 ], [ -66.5471, 18.1533 ], [ -66.54636, 18.15238 ], [ -66.54626, 18.15153 ], [ -66.54575, 18.15128 ], [ -66.54561, 18.15102 ], [ -66.5454, 18.14979 ], [ -66.54498, 18.14921 ], [ -66.54462, 18.14783 ], [ -66.54413, 18.14747 ], [ -66.54386, 18.14747 ], [ -66.54273, 18.14783 ], [ -66.54181, 18.14717 ], [ -66.54141, 18.14719 ], [ -66.54116, 18.14733 ], [ -66.5409, 18.14787 ], [ -66.5404, 18.14822 ], [ -66.53919, 18.14837 ], [ -66.53734, 18.14911 ], [ -66.53666, 18.15039 ], [ -66.53604, 18.15087 ], [ -66.53505, 18.15205 ], [ -66.53452, 18.15241 ], [ -66.53425, 18.15243 ], [ -66.53369, 18.152 ], [ -66.53198, 18.15254 ], [ -66.53092, 18.15267 ], [ -66.52978, 18.1523 ], [ -66.52933, 18.15193 ], [ -66.52908, 18.15196 ], [ -66.52858, 18.15305 ], [ -66.52745, 18.15331 ], [ -66.526, 18.1526 ], [ -66.52552, 18.15253 ], [ -66.5244, 18.15272 ], [ -66.52244, 18.1521 ], [ -66.5221, 18.15209 ], [ -66.52204, 18.15268 ] ] ] } },
{ "type": "Feature", "properties": { "key": "matrullas", "name": "Lago de Matrullas", "river": "Rio Matrullas", "huc12": "210100020205", "huc12_name": "Rio Matrullas at Lago de Matrullas Dam", "area_sqmi": 4.47, "area_sqkm": 11.57 }, "geometry": { "type": "Polygon", "coordinates": [ [ [ -66.47331, 18.21298 ], [ -66.47575, 18.21297 ], [ -66.47703, 18.21241 ], [ -66.47795, 18.21225 ], [ -66.4788, 18.21191 ], [ -66.48006, 18.21064 ], [ -66.4815, 18.20969 ], [ -66.48193, 18.20951 ], [ -66.48462, 18.20913 ], [ -66.48568, 18.20859 ], [ -66.4867, 18.2075 ], [ -66.4868, 18.20666 ], [ -66.48771, 18.2044 ], [ -66.48845, 18.20368 ], [ -66.48874, 18.20314 ], [ -66.4891, 18.20293 ], [ -66.48949, 18.20212 ], [ -66.49069, 18.20094 ], [ -66.49114, 18.20089 ], [ -66.49207, 18.20112 ], [ -66.49318, 18.2008 ], [ -66.49355, 18.19932 ], [ -66.49386, 18.19876 ], [ -66.49391, 18.19756 ], [ -66.49339, 18.19743 ], [ -66.49275, 18.19659 ], [ -66.49275, 18.19583 ], [ -66.49244, 18.1949 ], [ -66.49162, 18.1941 ], [ -66.49094, 18.19388 ], [ -66.49099, 18.1934 ], [ -66.49128, 18.19284 ], [ -66.49077, 18.19188 ], [ -66.49044, 18.19061 ], [ -66.48988, 18.18996 ], [ -66.49104, 18.18855 ], [ -66.49117, 18.18688 ], [ -66.49076, 18.1865 ], [ -66.48944, 18.18578 ], [ -66.48953, 18.18524 ], [ -66.48939, 18.18379 ], [ -66.48843, 18.1827 ], [ -66.48836, 18.18196 ], [ -66.48923, 18.18075 ], [ -66.48944, 18.18006 ], [ -66.48884, 18.17917 ], [ -66.48779, 18.17856 ], [ -66.48752, 18.17816 ], [ -66.48718, 18.17696 ], [ -66.48743, 18.17579 ], [ -66.48733, 18.17506 ], [ -66.48589, 18.1748 ], [ -66.48373, 18.1747 ], [ -66.48228, 18.17313 ], [ -66.48188, 18.17193 ], [ -66.48092, 18.17179 ], [ -66.48062, 18.17096 ], [ -66.48058, 18.17018 ], [ -66.48077, 18.17004 ], [ -66.48024, 18.16991 ], [ -66.47828, 18.17014 ], [ -66.47742, 18.1699 ], [ -66.47719, 18.17001 ], [ -66.47639, 18.17176 ], [ -66.47583, 18.17219 ], [ -66.47298, 18.17234 ], [ -66.47276, 18.17284 ], [ -66.47282, 18.174 ], [ -66.47246, 18.17546 ], [ -66.4715, 18.17673 ], [ -66.47093, 18.17691 ], [ -66.47074, 18.17756 ], [ -66.47034, 18.17802 ], [ -66.46909, 18.17812 ], [ -66.46821, 18.17781 ], [ -66.46636, 18.17798 ], [ -66.46561, 18.17775 ], [ -66.46471, 18.17852 ], [ -66.4638, 18.17877 ], [ -66.46314, 18.17813 ], [ -66.46296, 18.17768 ], [ -66.46218, 18.17753 ], [ -66.46154, 18.17715 ], [ -66.46071, 18.17712 ], [ -66.46029, 18.17743 ], [ -66.45976, 18.17736 ], [ -66.45915, 18.17756 ], [ -66.45848, 18.17701 ], [ -66.45762, 18.17658 ], [ -66.45641, 18.17752 ], [ -66.45494, 18.17755 ], [ -66.45423, 18.17865 ], [ -66.45464, 18.17935 ], [ -66.45626, 18.18006 ], [ -66.45634, 18.18122 ], [ -66.45689, 18.1822 ], [ -66.45808, 18.18253 ], [ -66.45861, 18.18286 ], [ -66.45898, 18.18284 ], [ -66.45933, 18.18334 ], [ -66.46047, 18.1841 ], [ -66.46004, 18.18473 ], [ -66.45944, 18.18522 ], [ -66.45912, 18.18592 ], [ -66.45852, 18.18588 ], [ -66.45748, 18.18637 ], [ -66.45731, 18.18701 ], [ -66.45702, 18.1874 ], [ -66.45707, 18.18811 ], [ -66.45819, 18.18929 ], [ -66.45836, 18.19021 ], [ -66.45819, 18.19097 ], [ -66.45757, 18.19149 ], [ -66.45706, 18.19233 ], [ -66.45658, 18.19251 ], [ -66.45661, 18.193 ], [ -66.45739, 18.19389 ], [ -66.45809, 18.19406 ], [ -66.45869, 18.19452 ], [ -66.45923, 18.19432 ], [ -66.46083, 18.19454 ], [ -66.4608, 18.19541 ], [ -66.46196, 18.19617 ], [ -66.46258, 18.19614 ], [ -66.46304, 18.19689 ], [ -66.46406, 18.19763 ], [ -66.46483, 18.19785 ], [ -66.46549, 18.19783 ], [ -66.4658, 18.19827 ], [ -66.46624, 18.19949 ], [ -66.46738, 18.20033 ], [ -66.46843, 18.20077 ], [ -66.46942, 18.20208 ], [ -66.46929, 18.20307 ], [ -66.47006, 18.20362 ], [ -66.47028, 18.20518 ], [ -66.46988, 18.20633 ], [ -66.47031, 18.20752 ], [ -66.46997, 18.2084 ], [ -66.47002, 18.20861 ], [ -66.47159, 18.21099 ], [ -66.47227, 18.2117 ], [ -66.47321, 18.21229 ], [ -66.47331, 18.21298 ] ] ] } },
{ "type": "Feature", "properties": { "key": "guayabal", "name": "Lago Guayabal", "river": "Rio Jacaguas", "huc12": "210100040312", "huc12_name": "Rio Jacaguas at Lago Guayabal Dam", "area_sqmi": 21.06, "area_sqkm": 54.54 }, "geometry": { "type": "Polygon", "coordinates": [ [ [ -66.45423, 18.17865 ], [ -66.45494, 18.17755 ], [ -66.45641, 18.17752 ], [ -66.45762, 18.17658 ], [ -66.45848, 18.17701 ], [ -66.45915, 18.17756 ], [ -66.45976, 18.17736 ], [ -66.46029, 18.17743 ], [ -66.46071, 18.17712 ], [ -66.46154, 18.17715 ], [ -66.46218, 18.17753 ], [ -66.46296, 18.17768 ], [ -66.46314, 18.17813 ], [ -66.4638, 18.17877 ], [ -66.46471, 18.17852 ], [ -66.46561, 18.17775 ], [ -66.46636, 18.17798 ], [ -66.46821, 18.17781 ], [ -66.46909, 18.17812 ], [ -66.47034, 18.17802 ], [ -66.47074, 18.17756 ], [ -66.47093, 18.17691 ], [ -66.4715, 18.17673 ], [ -66.47246, 18.17546 ], [ -66.47282, 18.174 ], [ -66.47276, 18.17284 ], [ -66.47298, 18.17234 ], [ -66.47583, 18.17219 ], [ -66.47639, 18.17176 ], [ -66.47719, 18.17001 ], [ -66.47742, 18.1699 ], [ -66.47828, 18.17014 ], [ -66.48024, 18.16991 ], [ -66.48077, 18.17004 ], [ -66.48251, 18.16959 ], [ -66.48401, 18.16857 ], [ -66.48484, 18.16826 ], [ -66.4859, 18.16666 ], [ -66.48715, 18.16708 ], [ -66.48766, 18.1665 ], [ -66.48813, 18.16626 ], [ -66.48919, 18.16618 ], [ -66.49049, 18.16677 ], [ -66.49123, 18.16731 ], [ -66.4919, 18.1669 ], [ -66.49299, 18.16658 ], [ -66.49431, 18.16649 ], [ -66.49523, 18.16654 ], [ -66.49645, 18.16701 ], [ -66.49716, 18.1656 ], [ -66.49908, 18.16486 ], [ -66.50107, 18.16442 ], [ -66.5023, 18.16498 ], [ -66.50264, 18.16499 ], [ -66.50362, 18.16436 ], [ -66.50498, 18.16414 ], [ -66.50551, 18.16381 ], [ -66.50612, 18.16285 ], [ -66.50682, 18.16261 ], [ -66.50857, 18.16075 ], [ -66.50948, 18.16044 ], [ -66.50992, 18.15993 ], [ -66.51061, 18.15989 ], [ -66.51088, 18.15915 ], [ -66.51174, 18.15825 ], [ -66.51173, 18.1573 ], [ -66.51338, 18.15576 ], [ -66.51622, 18.15443 ], [ -66.51749, 18.15462 ], [ -66.51786, 18.15445 ], [ -66.51935, 18.15434 ], [ -66.52116, 18.15282 ], [ -66.52204, 18.15268 ], [ -66.5221, 18.15209 ], [ -66.52192, 18.15175 ], [ -66.5219, 18.1503 ], [ -66.52173, 18.1497 ], [ -66.52182, 18.14902 ], [ -66.5228, 18.14722 ], [ -66.52297, 18.14599 ], [ -66.52338, 18.14463 ], [ -66.52414, 18.1438 ], [ -66.52446, 18.14273 ], [ -66.52693, 18.14044 ], [ -66.52711, 18.13903 ], [ -66.52647, 18.13737 ], [ -66.52642, 18.13672 ], [ -66.52677, 18.13622 ], [ -66.52742, 18.13585 ], [ -66.52782, 18.13518 ], [ -66.52837, 18.13165 ], [ -66.52817, 18.13133 ], [ -66.52705, 18.13109 ], [ -66.5267, 18.13084 ], [ -66.5257, 18.12768 ], [ -66.5248, 18.12602 ], [ -66.52471, 18.12501 ], [ -66.52493, 18.12444 ], [ -66.52448, 18.12405 ], [ -66.52343, 18.12258 ], [ -66.52354, 18.12215 ], [ -66.52409, 18.12174 ], [ -66.52459, 18.12108 ], [ -66.52607, 18.12035 ], [ -66.52654, 18.11963 ], [ -66.52617, 18.11838 ], [ -66.52649, 18.11663 ], [ -66.52574, 18.11617 ], [ -66.52552, 18.11551 ], [ -66.52574, 18.1142 ], [ -66.52574, 18.1126 ], [ -66.52589, 18.11214 ], [ -66.52644, 18.11144 ], [ -66.52706, 18.10994 ], [ -66.52849, 18.10917 ], [ -66.52932, 18.10847 ], [ -66.52999, 18.10827 ], [ -66.53005, 18.10809 ], [ -66.53014, 18.10668 ], [ -66.52955, 18.10597 ], [ -66.52907, 18.10502 ], [ -66.52838, 18.10285 ], [ -66.52759, 18.10209 ], [ -66.52762, 18.10186 ], [ -66.52815, 18.10132 ], [ -66.52881, 18.10093 ], [ -66.52889, 18.10075 ], [ -66.52861, 18.10049 ], [ -66.5264, 18.09871 ], [ -66.52456, 18.09833 ], [ -66.52415, 18.09782 ], [ -66.52379, 18.09691 ], [ -66.52334, 18.09643 ], [ -66.52311, 18.0957 ], [ -66.52168, 18.09462 ], [ -66.52124, 18.09491 ], [ -66.52055, 18.09505 ], [ -66.51994, 18.09488 ], [ -66.51927, 18.09413 ], [ -66.51885, 18.094 ], [ -66.51784, 18.09429 ], [ -66.51603, 18.09429 ], [ -66.51518, 18.09407 ], [ -66.5147, 18.09357 ], [ -66.51391, 18.09328 ], [ -66.51244, 18.09345 ], [ -66.51185, 18.09314 ], [ -66.51095, 18.09191 ], [ -66.51035, 18.0917 ], [ -66.51014, 18.09147 ], [ -66.50893, 18.08864 ], [ -66.50862, 18.08833 ], [ -66.50777, 18.08795 ], [ -66.50687, 18.08726 ], [ -66.50596, 18.08714 ], [ -66.50499, 18.08734 ], [ -66.50086, 18.08537 ], [ -66.4999, 18.08577 ], [ -66.49966, 18.08572 ], [ -66.49875, 18.08415 ], [ -66.49851, 18.08414 ], [ -66.49793, 18.0845 ], [ -66.49758, 18.08504 ], [ -66.49654, 18.08541 ], [ -66.49613, 18.08596 ], [ -66.49608, 18.08678 ], [ -66.49566, 18.0871 ], [ -66.49475, 18.08743 ], [ -66.49441, 18.08739 ], [ -66.49277, 18.08669 ], [ -66.49209, 18.08594 ], [ -66.49128, 18.08573 ], [ -66.48911, 18.0871 ], [ -66.48885, 18.08743 ], [ -66.48824, 18.08715 ], [ -66.48782, 18.08723 ], [ -66.48673, 18.08802 ], [ -66.48641, 18.0889 ], [ -66.48551, 18.08943 ], [ -66.48458, 18.08958 ], [ -66.48488, 18.0907 ], [ -66.48339, 18.0941 ], [ -66.48363, 18.0955 ], [ -66.48351, 18.09601 ], [ -66.48412, 18.09703 ], [ -66.4846, 18.09734 ], [ -66.48657, 18.09767 ], [ -66.49027, 18.10052 ], [ -66.49104, 18.10145 ], [ -66.49121, 18.10243 ], [ -66.49021, 18.10337 ], [ -66.48991, 18.10478 ], [ -66.49004, 18.10541 ], [ -66.48989, 18.10654 ], [ -66.4884, 18.1077 ], [ -66.48741, 18.10793 ], [ -66.48678, 18.1083 ], [ -66.48575, 18.10819 ], [ -66.4848, 18.10836 ], [ -66.48438, 18.10927 ], [ -66.48411, 18.1095 ], [ -66.48284, 18.11029 ], [ -66.48139, 18.11085 ], [ -66.48094, 18.11093 ], [ -66.47981, 18.11058 ], [ -66.4764, 18.11132 ], [ -66.47524, 18.11093 ], [ -66.47465, 18.11098 ], [ -66.47411, 18.11135 ], [ -66.47382, 18.11243 ], [ -66.47338, 18.11272 ], [ -66.4722, 18.11305 ], [ -66.47081, 18.11318 ], [ -66.46929, 18.11266 ], [ -66.4685, 18.11406 ], [ -66.46888, 18.116 ], [ -66.46959, 18.11701 ], [ -66.4687, 18.11785 ], [ -66.46834, 18.1188 ], [ -66.46828, 18.11944 ], [ -66.46839, 18.11963 ], [ -66.469, 18.11991 ], [ -66.4693, 18.12043 ], [ -66.46974, 18.12283 ], [ -66.46991, 18.12318 ], [ -66.47082, 18.12392 ], [ -66.47073, 18.12488 ], [ -66.46816, 18.12674 ], [ -66.46737, 18.12742 ], [ -66.46654, 18.1285 ], [ -66.46555, 18.12907 ], [ -66.46507, 18.12966 ], [ -66.46367, 18.13056 ], [ -66.46284, 18.13137 ], [ -66.46274, 18.13175 ], [ -66.46288, 18.13207 ], [ -66.46439, 18.13373 ], [ -66.4648, 18.13498 ], [ -66.46431, 18.13641 ], [ -66.46377, 18.13737 ], [ -66.46174, 18.13884 ], [ -66.46121, 18.13904 ], [ -66.46063, 18.1396 ], [ -66.45994, 18.13954 ], [ -66.45964, 18.1392 ], [ -66.45892, 18.13901 ], [ -66.45854, 18.13873 ], [ -66.45799, 18.13879 ], [ -66.45784, 18.13923 ], [ -66.45738, 18.13969 ], [ -66.45726, 18.1403 ], [ -66.45654, 18.14091 ], [ -66.45418, 18.14104 ], [ -66.45405, 18.14181 ], [ -66.4531, 18.14279 ], [ -66.45305, 18.14359 ], [ -66.45231, 18.1442 ], [ -66.45186, 18.14504 ], [ -66.45229, 18.14629 ], [ -66.45202, 18.14693 ], [ -66.45206, 18.14798 ], [ -66.45131, 18.14882 ], [ -66.4504, 18.15066 ], [ -66.45039, 18.15344 ], [ -66.44897, 18.15496 ], [ -66.44856, 18.15596 ], [ -66.44826, 18.158 ], [ -66.44833, 18.15842 ], [ -66.4489, 18.15925 ], [ -66.44893, 18.1597 ], [ -66.44873, 18.16007 ], [ -66.44796, 18.16058 ], [ -66.44737, 18.16123 ], [ -66.44768, 18.16287 ], [ -66.44756, 18.16336 ], [ -66.44715, 18.16386 ], [ -66.44736, 18.16442 ], [ -66.4474, 18.1659 ], [ -66.44651, 18.16764 ], [ -66.44634, 18.16875 ], [ -66.44638, 18.16906 ], [ -66.44738, 18.17066 ], [ -66.44702, 18.17211 ], [ -66.44698, 18.17301 ], [ -66.44646, 18.1739 ], [ -66.4456, 18.17447 ], [ -66.44545, 18.17526 ], [ -66.44596, 18.1756 ], [ -66.44753, 18.17574 ], [ -66.44794, 18.17591 ], [ -66.44847, 18.17646 ], [ -66.44991, 18.17702 ], [ -66.45038, 18.17763 ], [ -66.45105, 18.1777 ], [ -66.45169, 18.17817 ], [ -66.45265, 18.1784 ], [ -66.45375, 18.17839 ], [ -66.45423, 18.17865 ] ] ] } },
{ "type": "Feature", "properties": { "key": "guayo", "name": "Lago Guayo", "river": "Rio Guayo", "huc12": "210100030202", "huc12_name": "Rio Guayo at Lago Guayo Dam", "area_sqmi": 9.66, "area_sqkm": 25.02 }, "geometry": { "type": "Polygon", "coordinates": [ [ [ -66.82029, 18.20647 ], [ -66.82144, 18.20684 ], [ -66.82241, 18.20876 ], [ -66.823, 18.20918 ], [ -66.82425, 18.20952 ], [ -66.82494, 18.21023 ], [ -66.82651, 18.21111 ], [ -66.82744, 18.21119 ], [ -66.82821, 18.21145 ], [ -66.8324, 18.21105 ], [ -66.83368, 18.21028 ], [ -66.8354, 18.21105 ], [ -66.83554, 18.21133 ], [ -66.83582, 18.21147 ], [ -66.8366, 18.21161 ], [ -66.83851, 18.21327 ], [ -66.8392, 18.21369 ], [ -66.83979, 18.21458 ], [ -66.84085, 18.21487 ], [ -66.84123, 18.21525 ], [ -66.84396, 18.21506 ], [ -66.84408, 18.21464 ], [ -66.84528, 18.21346 ], [ -66.84588, 18.21231 ], [ -66.84642, 18.21234 ], [ -66.84648, 18.21103 ], [ -66.84683, 18.21003 ], [ -66.84724, 18.2095 ], [ -66.84734, 18.20886 ], [ -66.84685, 18.20755 ], [ -66.84684, 18.20649 ], [ -66.84621, 18.20559 ], [ -66.84614, 18.20504 ], [ -66.84538, 18.20399 ], [ -66.84387, 18.20316 ], [ -66.84308, 18.20184 ], [ -66.84243, 18.20127 ], [ -66.84243, 18.20102 ], [ -66.84407, 18.19932 ], [ -66.84557, 18.19894 ], [ -66.84587, 18.19863 ], [ -66.84576, 18.19798 ], [ -66.84496, 18.19641 ], [ -66.84586, 18.19531 ], [ -66.84592, 18.19474 ], [ -66.84576, 18.19385 ], [ -66.84633, 18.19235 ], [ -66.84624, 18.19171 ], [ -66.84637, 18.19148 ], [ -66.84698, 18.19096 ], [ -66.84803, 18.191 ], [ -66.84913, 18.18951 ], [ -66.84956, 18.18915 ], [ -66.85119, 18.18921 ], [ -66.85162, 18.18875 ], [ -66.85215, 18.18746 ], [ -66.85331, 18.18678 ], [ -66.85353, 18.18614 ], [ -66.85338, 18.18561 ], [ -66.85447, 18.18575 ], [ -66.85482, 18.18534 ], [ -66.85508, 18.18461 ], [ -66.8549, 18.18394 ], [ -66.85496, 18.18324 ], [ -66.85428, 18.18244 ], [ -66.85476, 18.18099 ], [ -66.8543, 18.17982 ], [ -66.85298, 18.17852 ], [ -66.85268, 18.1772 ], [ -66.85225, 18.17669 ], [ -66.85203, 18.17563 ], [ -66.85179, 18.17531 ], [ -66.85028, 18.17521 ], [ -66.84914, 18.17532 ], [ -66.84813, 18.1743 ], [ -66.84671, 18.17391 ], [ -66.84627, 18.17335 ], [ -66.8457, 18.17296 ], [ -66.84406, 18.17225 ], [ -66.8435, 18.17222 ], [ -66.84348, 18.17179 ], [ -66.84383, 18.17111 ], [ -66.84386, 18.17053 ], [ -66.84447, 18.16971 ], [ -66.84409, 18.168 ], [ -66.84367, 18.16733 ], [ -66.84371, 18.16687 ], [ -66.84342, 18.16571 ], [ -66.84346, 18.16476 ], [ -66.84415, 18.16329 ], [ -66.8436, 18.16201 ], [ -66.844, 18.16082 ], [ -66.8432, 18.15979 ], [ -66.84244, 18.15928 ], [ -66.8416, 18.15907 ], [ -66.84062, 18.15842 ], [ -66.83984, 18.15836 ], [ -66.83896, 18.15776 ], [ -66.83684, 18.15717 ], [ -66.83643, 18.15672 ], [ -66.83607, 18.15555 ], [ -66.83406, 18.15631 ], [ -66.83301, 18.15611 ], [ -66.83195, 18.15462 ], [ -66.83106, 18.1541 ], [ -66.82989, 18.15247 ], [ -66.82929, 18.15208 ], [ -66.82887, 18.15101 ], [ -66.82705, 18.14967 ], [ -66.82585, 18.14832 ], [ -66.82307, 18.14792 ], [ -66.82214, 18.14757 ], [ -66.8215, 18.1476 ], [ -66.82097, 18.1474 ], [ -66.82021, 18.14674 ], [ -66.81943, 18.14698 ], [ -66.81804, 18.14664 ], [ -66.81694, 18.14613 ], [ -66.81606, 18.14608 ], [ -66.81383, 18.14481 ], [ -66.81312, 18.14529 ], [ -66.81256, 18.14678 ], [ -66.81102, 18.14784 ], [ -66.81012, 18.14791 ], [ -66.80949, 18.14868 ], [ -66.80881, 18.14906 ], [ -66.8083, 18.14908 ], [ -66.80741, 18.14854 ], [ -66.80657, 18.14852 ], [ -66.80582, 18.14812 ], [ -66.80675, 18.15299 ], [ -66.80738, 18.15374 ], [ -66.80816, 18.15509 ], [ -66.80788, 18.15559 ], [ -66.80734, 18.15607 ], [ -66.80785, 18.1573 ], [ -66.80783, 18.15834 ], [ -66.80839, 18.15868 ], [ -66.80952, 18.15891 ], [ -66.8101, 18.15957 ], [ -66.81014, 18.15982 ], [ -66.80974, 18.1607 ], [ -66.80979, 18.16124 ], [ -66.80876, 18.16183 ], [ -66.8081, 18.16293 ], [ -66.80797, 18.16555 ], [ -66.80757, 18.16633 ], [ -66.80766, 18.16732 ], [ -66.80829, 18.16772 ], [ -66.81003, 18.16808 ], [ -66.81184, 18.16983 ], [ -66.81197, 18.17021 ], [ -66.81177, 18.17147 ], [ -66.81143, 18.17214 ], [ -66.8119, 18.1727 ], [ -66.81198, 18.17321 ], [ -66.8125, 18.17377 ], [ -66.81261, 18.17427 ], [ -66.81243, 18.17462 ], [ -66.8119, 18.17491 ], [ -66.81192, 18.17521 ], [ -66.81254, 18.17594 ], [ -66.81287, 18.17678 ], [ -66.81351, 18.17715 ], [ -66.81355, 18.17737 ], [ -66.81312, 18.17814 ], [ -66.81299, 18.17979 ], [ -66.8122, 18.18075 ], [ -66.81246, 18.18342 ], [ -66.81223, 18.18394 ], [ -66.81216, 18.18482 ], [ -66.81128, 18.18645 ], [ -66.81107, 18.18668 ], [ -66.81059, 18.18606 ], [ -66.80997, 18.18588 ], [ -66.80886, 18.18676 ], [ -66.80821, 18.18704 ], [ -66.8088, 18.18808 ], [ -66.80884, 18.18935 ], [ -66.80907, 18.19015 ], [ -66.80849, 18.19235 ], [ -66.80854, 18.19431 ], [ -66.8089, 18.19478 ], [ -66.80894, 18.19526 ], [ -66.81034, 18.19686 ], [ -66.81321, 18.19911 ], [ -66.81442, 18.20063 ], [ -66.81521, 18.20126 ], [ -66.81533, 18.20237 ], [ -66.81554, 18.20279 ], [ -66.81651, 18.20346 ], [ -66.81757, 18.2047 ], [ -66.81933, 18.20509 ], [ -66.81962, 18.20584 ], [ -66.82029, 18.20647 ] ] ] } },
{ "type": "Feature", "properties": { "key": "loco", "name": "Lago Loco", "river": "Rio Loco", "huc12": "210100040105", "huc12_name": "Rio Loco at Presada Loco Dam", "area_sqmi": 8.43, "area_sqkm": 21.84 }, "geometry": { "type": "Polygon", "coordinates": [ [ [ -66.89004, 18.08442 ], [ -66.89013, 18.08582 ], [ -66.89064, 18.08677 ], [ -66.89108, 18.08873 ], [ -66.89094, 18.08977 ], [ -66.89047, 18.09078 ], [ -66.89148, 18.09366 ], [ -66.89142, 18.0939 ], [ -66.8909, 18.09436 ], [ -66.89092, 18.09511 ], [ -66.89071, 18.09545 ], [ -66.89132, 18.09744 ], [ -66.89136, 18.09815 ], [ -66.89127, 18.09874 ], [ -66.89065, 18.09956 ], [ -66.89044, 18.10062 ], [ -66.89054, 18.10288 ], [ -66.89019, 18.10357 ], [ -66.89007, 18.10467 ], [ -66.88991, 18.10501 ], [ -66.88934, 18.10536 ], [ -66.88941, 18.10565 ], [ -66.89014, 18.1062 ], [ -66.89053, 18.10684 ], [ -66.89019, 18.10738 ], [ -66.88932, 18.10792 ], [ -66.88939, 18.10808 ], [ -66.88973, 18.10836 ], [ -66.89113, 18.10862 ], [ -66.89239, 18.10945 ], [ -66.89452, 18.10961 ], [ -66.89584, 18.11035 ], [ -66.89709, 18.11021 ], [ -66.89809, 18.10945 ], [ -66.89825, 18.11042 ], [ -66.89873, 18.11126 ], [ -66.89968, 18.11171 ], [ -66.90099, 18.11166 ], [ -66.9011, 18.11182 ], [ -66.90096, 18.11298 ], [ -66.90224, 18.11482 ], [ -66.90347, 18.11715 ], [ -66.90389, 18.11856 ], [ -66.90434, 18.11922 ], [ -66.9063, 18.12041 ], [ -66.90721, 18.1213 ], [ -66.90822, 18.1219 ], [ -66.91001, 18.12256 ], [ -66.91094, 18.12427 ], [ -66.91203, 18.12529 ], [ -66.91304, 18.12572 ], [ -66.91429, 18.12587 ], [ -66.91492, 18.1261 ], [ -66.91545, 18.12809 ], [ -66.91562, 18.12949 ], [ -66.91595, 18.13025 ], [ -66.91664, 18.13063 ], [ -66.91804, 18.13063 ], [ -66.918, 18.13003 ], [ -66.91764, 18.12934 ], [ -66.91758, 18.12716 ], [ -66.91695, 18.12672 ], [ -66.91671, 18.12593 ], [ -66.91708, 18.12504 ], [ -66.91705, 18.12432 ], [ -66.91737, 18.12397 ], [ -66.91795, 18.12384 ], [ -66.91821, 18.12349 ], [ -66.91765, 18.12263 ], [ -66.91731, 18.12163 ], [ -66.91765, 18.12029 ], [ -66.91796, 18.11992 ], [ -66.92027, 18.11881 ], [ -66.92058, 18.11844 ], [ -66.92129, 18.1165 ], [ -66.92269, 18.1156 ], [ -66.92426, 18.11529 ], [ -66.92526, 18.11473 ], [ -66.92397, 18.11381 ], [ -66.92278, 18.11219 ], [ -66.92251, 18.11041 ], [ -66.9217, 18.10832 ], [ -66.92115, 18.10768 ], [ -66.92087, 18.10709 ], [ -66.92084, 18.10566 ], [ -66.92056, 18.1048 ], [ -66.92063, 18.10307 ], [ -66.91824, 18.10242 ], [ -66.91753, 18.10206 ], [ -66.91713, 18.10161 ], [ -66.91587, 18.09939 ], [ -66.91588, 18.09796 ], [ -66.91564, 18.09684 ], [ -66.91573, 18.0962 ], [ -66.91658, 18.09557 ], [ -66.9177, 18.09513 ], [ -66.91833, 18.09469 ], [ -66.91865, 18.09368 ], [ -66.91947, 18.09234 ], [ -66.91867, 18.08956 ], [ -66.91834, 18.08919 ], [ -66.91751, 18.08871 ], [ -66.91698, 18.08754 ], [ -66.9162, 18.08677 ], [ -66.91569, 18.0859 ], [ -66.91425, 18.08485 ], [ -66.91285, 18.0808 ], [ -66.9125, 18.0807 ], [ -66.91162, 18.07968 ], [ -66.91149, 18.0791 ], [ -66.91186, 18.07743 ], [ -66.91166, 18.07642 ], [ -66.91038, 18.07414 ], [ -66.9099, 18.0736 ], [ -66.9095, 18.07345 ], [ -66.9094, 18.07321 ], [ -66.90926, 18.07206 ], [ -66.9084, 18.06991 ], [ -66.9086, 18.06876 ], [ -66.90839, 18.06839 ], [ -66.9078, 18.06773 ], [ -66.90632, 18.0673 ], [ -66.90498, 18.06585 ], [ -66.90406, 18.06574 ], [ -66.90331, 18.0651 ], [ -66.90192, 18.06345 ], [ -66.90121, 18.06229 ], [ -66.90104, 18.06157 ], [ -66.90107, 18.06037 ], [ -66.90175, 18.05939 ], [ -66.90076, 18.05787 ], [ -66.89908, 18.05662 ], [ -66.89788, 18.05544 ], [ -66.89704, 18.05407 ], [ -66.89676, 18.05242 ], [ -66.89533, 18.05177 ], [ -66.89536, 18.04981 ], [ -66.89514, 18.04913 ], [ -66.89447, 18.04808 ], [ -66.89395, 18.04771 ], [ -66.89309, 18.04652 ], [ -66.89274, 18.04628 ], [ -66.89173, 18.04596 ], [ -66.8904, 18.04621 ], [ -66.88945, 18.04614 ], [ -66.88934, 18.04592 ], [ -66.88969, 18.04539 ], [ -66.88979, 18.04394 ], [ -66.88899, 18.04275 ], [ -66.88811, 18.04264 ], [ -66.88707, 18.04273 ], [ -66.88579, 18.0418 ], [ -66.88445, 18.04022 ], [ -66.88341, 18.03975 ], [ -66.88273, 18.03985 ], [ -66.88247, 18.04001 ], [ -66.88226, 18.04138 ], [ -66.88092, 18.0434 ], [ -66.88136, 18.04515 ], [ -66.88129, 18.04618 ], [ -66.88092, 18.04659 ], [ -66.88014, 18.04703 ], [ -66.87977, 18.04755 ], [ -66.8802, 18.0496 ], [ -66.88107, 18.05063 ], [ -66.88124, 18.05156 ], [ -66.88124, 18.05188 ], [ -66.88074, 18.05245 ], [ -66.88055, 18.05339 ], [ -66.88096, 18.05473 ], [ -66.88027, 18.05554 ], [ -66.88021, 18.05631 ], [ -66.88141, 18.05771 ], [ -66.88153, 18.05804 ], [ -66.88151, 18.05859 ], [ -66.88105, 18.05907 ], [ -66.88095, 18.05941 ], [ -66.88139, 18.06047 ], [ -66.88058, 18.06201 ], [ -66.8803, 18.06229 ], [ -66.87968, 18.0625 ], [ -66.87869, 18.06253 ], [ -66.87805, 18.06391 ], [ -66.87817, 18.06421 ], [ -66.87873, 18.0646 ], [ -66.87893, 18.06551 ], [ -66.87875, 18.06619 ], [ -66.87932, 18.06709 ], [ -66.87882, 18.06791 ], [ -66.87822, 18.06799 ], [ -66.87801, 18.06817 ], [ -66.87799, 18.06985 ], [ -66.87868, 18.07012 ], [ -66.87956, 18.07084 ], [ -66.87974, 18.07204 ], [ -66.87989, 18.07218 ], [ -66.88143, 18.07268 ], [ -66.88217, 18.07383 ], [ -66.88346, 18.0739 ], [ -66.88408, 18.07618 ], [ -66.88461, 18.07676 ], [ -66.88461, 18.07761 ], [ -66.88522, 18.07786 ], [ -66.88582, 18.07856 ], [ -66.88624, 18.07928 ], [ -66.88659, 18.08037 ], [ -66.88742, 18.08118 ], [ -66.88786, 18.08205 ], [ -66.88874, 18.0832 ], [ -66.89004, 18.08442 ] ] ] } },
{ "type": "Feature", "properties": { "key": "lucchetti", "name": "Lago Lucchetti", "river": "Rio Yauco", "huc12": "210100040201", "huc12_name": "Rio Yauco at Lago Luchetti Dam", "area_sqmi": 17.4, "area_sqkm": 45.06 }, "geometry": { "type": "Polygon", "coordinates": [ [ [ -66.88749, 18.15318 ], [ -66.88836, 18.1534 ], [ -66.88888, 18.1533 ], [ -66.88923, 18.15265 ], [ -66.89018, 18.1522 ], [ -66.89025, 18.15126 ], [ -66.88987, 18.14923 ], [ -66.89056, 18.1484 ], [ -66.89095, 18.14817 ], [ -66.89188, 18.14782 ], [ -66.89353, 18.14798 ], [ -66.89453, 18.14836 ], [ -66.89504, 18.14873 ], [ -66.8953, 18.14872 ], [ -66.89696, 18.14763 ], [ -66.89777, 18.14784 ], [ -66.89821, 18.14779 ], [ -66.89895, 18.147 ], [ -66.89911, 18.14695 ], [ -66.89952, 18.14722 ], [ -66.90017, 18.14723 ], [ -66.90152, 18.14605 ], [ -66.90175, 18.14605 ], [ -66.90232, 18.14649 ], [ -66.90332, 18.14617 ], [ -66.90386, 18.14635 ], [ -66.90417, 18.14669 ], [ -66.90443, 18.14735 ], [ -66.90536, 18.14824 ], [ -66.9064, 18.14852 ], [ -66.9075, 18.14943 ], [ -66.9083, 18.1496 ], [ -66.90985, 18.14934 ], [ -66.91003, 18.1496 ], [ -66.91021, 18.15097 ], [ -66.91039, 18.1512 ], [ -66.91184, 18.15167 ], [ -66.91261, 18.15132 ], [ -66.91283, 18.15203 ], [ -66.91322, 18.15226 ], [ -66.91413, 18.15232 ], [ -66.91428, 18.15243 ], [ -66.91438, 18.15321 ], [ -66.91461, 18.15349 ], [ -66.91527, 18.15402 ], [ -66.91572, 18.15416 ], [ -66.91705, 18.15411 ], [ -66.91768, 18.15361 ], [ -66.91801, 18.15357 ], [ -66.91913, 18.15383 ], [ -66.92039, 18.15362 ], [ -66.92093, 18.15328 ], [ -66.92115, 18.15262 ], [ -66.92241, 18.15201 ], [ -66.92301, 18.15204 ], [ -66.92364, 18.15174 ], [ -66.92423, 18.15197 ], [ -66.9252, 18.15208 ], [ -66.92574, 18.15193 ], [ -66.92654, 18.15128 ], [ -66.92591, 18.14998 ], [ -66.92522, 18.14762 ], [ -66.92516, 18.14664 ], [ -66.92567, 18.14554 ], [ -66.9246, 18.14401 ], [ -66.92473, 18.14263 ], [ -66.92422, 18.14246 ], [ -66.92323, 18.14179 ], [ -66.92298, 18.14139 ], [ -66.92298, 18.14072 ], [ -66.92164, 18.13924 ], [ -66.9211, 18.13917 ], [ -66.92045, 18.13884 ], [ -66.92016, 18.13803 ], [ -66.92012, 18.13738 ], [ -66.91965, 18.13638 ], [ -66.91994, 18.13553 ], [ -66.91975, 18.1349 ], [ -66.91927, 18.1345 ], [ -66.91841, 18.13413 ], [ -66.91779, 18.13355 ], [ -66.91794, 18.13246 ], [ -66.9186, 18.13156 ], [ -66.91804, 18.13063 ], [ -66.91664, 18.13063 ], [ -66.91606, 18.13037 ], [ -66.91584, 18.13009 ], [ -66.91492, 18.1261 ], [ -66.91429, 18.12587 ], [ -66.91304, 18.12572 ], [ -66.91203, 18.12529 ], [ -66.91094, 18.12427 ], [ -66.91001, 18.12256 ], [ -66.90822, 18.1219 ], [ -66.90721, 18.1213 ], [ -66.9063, 18.12041 ], [ -66.90434, 18.11922 ], [ -66.90389, 18.11856 ], [ -66.90347, 18.11715 ], [ -66.90224, 18.11482 ], [ -66.90096, 18.11298 ], [ -66.9011, 18.11182 ], [ -66.90099, 18.11166 ], [ -66.89968, 18.11171 ], [ -66.89873, 18.11126 ], [ -66.89825, 18.11042 ], [ -66.89809, 18.10945 ], [ -66.89709, 18.11021 ], [ -66.89584, 18.11035 ], [ -66.89452, 18.10961 ], [ -66.89239, 18.10945 ], [ -66.89113, 18.10862 ], [ -66.88973, 18.10836 ], [ -66.88939, 18.10808 ], [ -66.88932, 18.10792 ], [ -66.89019, 18.10738 ], [ -66.89053, 18.10684 ], [ -66.89014, 18.1062 ], [ -66.88941, 18.10565 ], [ -66.88934, 18.10536 ], [ -66.88991, 18.10501 ], [ -66.89007, 18.10467 ], [ -66.89019, 18.10357 ], [ -66.89054, 18.10288 ], [ -66.89044, 18.10062 ], [ -66.89065, 18.09956 ], [ -66.89127, 18.09874 ], [ -66.89136, 18.09815 ], [ -66.89132, 18.09744 ], [ -66.89071, 18.09545 ], [ -66.89092, 18.09511 ], [ -66.8909, 18.09436 ], [ -66.89142, 18.0939 ], [ -66.89148, 18.09366 ], [ -66.89047, 18.09078 ], [ -66.89094, 18.08977 ], [ -66.89108, 18.08873 ], [ -66.89064, 18.08677 ], [ -66.89013, 18.08582 ], [ -66.89004, 18.08489 ], [ -66.88914, 18.08482 ], [ -66.88853, 18.08444 ], [ -66.88767, 18.08436 ], [ -66.88506, 18.08555 ], [ -66.88074, 18.08566 ], [ -66.87918, 18.08517 ], [ -66.87884, 18.08433 ], [ -66.87864, 18.0846 ], [ -66.87838, 18.08589 ], [ -66.87806, 18.08623 ], [ -66.87761, 18.08628 ], [ -66.87751, 18.08646 ], [ -66.87768, 18.08779 ], [ -66.87728, 18.08823 ], [ -66.87636, 18.08829 ], [ -66.87413, 18.08783 ], [ -66.87389, 18.08791 ], [ -66.87208, 18.08899 ], [ -66.87025, 18.08949 ], [ -66.86963, 18.09014 ], [ -66.86878, 18.09041 ], [ -66.86503, 18.09267 ], [ -66.86489, 18.09183 ], [ -66.8639, 18.09124 ], [ -66.86081, 18.0901 ], [ -66.86043, 18.08987 ], [ -66.8591, 18.08833 ], [ -66.85832, 18.08823 ], [ -66.85759, 18.08775 ], [ -66.85486, 18.08822 ], [ -66.85308, 18.08913 ], [ -66.8525, 18.08925 ], [ -66.85099, 18.08916 ], [ -66.85044, 18.08956 ], [ -66.85012, 18.0893 ], [ -66.84931, 18.0891 ], [ -66.84826, 18.08933 ], [ -66.84721, 18.09004 ], [ -66.84605, 18.09224 ], [ -66.84483, 18.09264 ], [ -66.84315, 18.09367 ], [ -66.8424, 18.09379 ], [ -66.84138, 18.09367 ], [ -66.84039, 18.09456 ], [ -66.83816, 18.09482 ], [ -66.83768, 18.09541 ], [ -66.83742, 18.09626 ], [ -66.83682, 18.0973 ], [ -66.83606, 18.09832 ], [ -66.83552, 18.09876 ], [ -66.83591, 18.09975 ], [ -66.83679, 18.10078 ], [ -66.83676, 18.1014 ], [ -66.83633, 18.1025 ], [ -66.83759, 18.10484 ], [ -66.83761, 18.10517 ], [ -66.836, 18.10727 ], [ -66.83579, 18.10796 ], [ -66.83522, 18.10868 ], [ -66.83486, 18.10999 ], [ -66.83524, 18.11076 ], [ -66.83629, 18.11126 ], [ -66.836, 18.11374 ], [ -66.83523, 18.11504 ], [ -66.83472, 18.11538 ], [ -66.8343, 18.11641 ], [ -66.8335, 18.11665 ], [ -66.83342, 18.11721 ], [ -66.83409, 18.11862 ], [ -66.83465, 18.11922 ], [ -66.83552, 18.11965 ], [ -66.83577, 18.1206 ], [ -66.83545, 18.12192 ], [ -66.83541, 18.12497 ], [ -66.83632, 18.12545 ], [ -66.83686, 18.12699 ], [ -66.83763, 18.12729 ], [ -66.83811, 18.12809 ], [ -66.83795, 18.12848 ], [ -66.83798, 18.12904 ], [ -66.83728, 18.13002 ], [ -66.83719, 18.13115 ], [ -66.83786, 18.13195 ], [ -66.838, 18.13296 ], [ -66.83777, 18.13317 ], [ -66.83635, 18.13353 ], [ -66.83549, 18.13422 ], [ -66.83459, 18.13443 ], [ -66.83375, 18.13581 ], [ -66.8318, 18.13681 ], [ -66.83158, 18.13717 ], [ -66.83189, 18.13725 ], [ -66.83203, 18.13746 ], [ -66.83227, 18.13829 ], [ -66.83349, 18.13913 ], [ -66.83497, 18.13909 ], [ -66.83685, 18.13942 ], [ -66.83745, 18.13982 ], [ -66.83929, 18.14021 ], [ -66.84004, 18.14058 ], [ -66.84083, 18.14066 ], [ -66.84121, 18.14142 ], [ -66.84232, 18.14239 ], [ -66.84256, 18.14241 ], [ -66.84401, 18.14173 ], [ -66.84431, 18.14129 ], [ -66.84426, 18.14062 ], [ -66.84554, 18.13982 ], [ -66.84604, 18.13913 ], [ -66.84797, 18.13813 ], [ -66.85039, 18.13774 ], [ -66.85081, 18.13904 ], [ -66.85156, 18.13961 ], [ -66.85189, 18.13959 ], [ -66.8522, 18.13943 ], [ -66.85282, 18.13805 ], [ -66.85424, 18.13844 ], [ -66.85481, 18.13803 ], [ -66.85541, 18.13729 ], [ -66.8563, 18.13673 ], [ -66.85722, 18.13648 ], [ -66.85803, 18.1368 ], [ -66.85832, 18.1382 ], [ -66.85873, 18.13839 ], [ -66.85947, 18.1393 ], [ -66.86011, 18.1383 ], [ -66.86103, 18.13759 ], [ -66.86195, 18.13772 ], [ -66.86349, 18.13848 ], [ -66.86477, 18.13799 ], [ -66.86501, 18.13806 ], [ -66.86626, 18.13883 ], [ -66.86661, 18.13926 ], [ -66.86803, 18.1389 ], [ -66.87006, 18.13802 ], [ -66.87067, 18.13798 ], [ -66.8708, 18.13802 ], [ -66.87088, 18.13939 ], [ -66.87198, 18.14036 ], [ -66.87263, 18.14154 ], [ -66.87299, 18.14173 ], [ -66.87366, 18.14173 ], [ -66.87415, 18.14214 ], [ -66.87537, 18.14211 ], [ -66.87544, 18.14276 ], [ -66.87615, 18.14307 ], [ -66.87636, 18.1435 ], [ -66.87632, 18.14441 ], [ -66.87803, 18.14607 ], [ -66.87851, 18.14692 ], [ -66.87988, 18.14789 ], [ -66.88088, 18.14794 ], [ -66.8812, 18.1481 ], [ -66.88142, 18.14858 ], [ -66.88137, 18.14917 ], [ -66.88294, 18.14907 ], [ -66.88363, 18.1501 ], [ -66.88385, 18.15078 ], [ -66.88505, 18.15195 ], [ -66.88555, 18.15225 ], [ -66.88569, 18.15297 ], [ -66.8859, 18.1532 ], [ -66.88661, 18.1534 ], [ -66.88749, 18.15318 ] ] ] } }
]
}
